EventID,EventDateDisplayRange,Title,Merge_Candidate,Area,Lon,Lat,EventVenueAddress,EventVenueFacilityName,EventVenueCity,EventVenueState,EventVenueZip,EventWebsite
17804,"NOVEMBER 13-14, 2021", Horse Trials at Majestic Oaks,Horse Trials at Majestic Oaks ,3,-82.213234,29.403458,17500 N US Hwy 441,Exmoor Farm,Reddick,FL,32686,http://www.MajesticOaksOcala.com
17268,"JANUARY 10-12, 2020", Horse Trials at Majestic Oaks ,Horse Trials at Majestic Oaks ,3,-82.213234,29.403458,17500 N US Hwy 441,Exmoor Farm,Reddick,FL,32686,http://majesticoaksocala.com
17338,"MAY 9-10, 2020", Horse Trials at Majestic Oaks ,Horse Trials at Majestic Oaks ,3,-82.213234,29.403458,17500 N US Hwy 441,Exmoor Farm,Reddick,FL,32686,http://majesticoaksocala.com
17299,3-Oct, Horse Trials at Majestic Oaks ,Horse Trials at Majestic Oaks ,3,-82.213234,29.403458,17500 N US Hwy 441,Exmoor Farm,Reddick,FL,32686,http://majesticoaksocala.com
17512,7-Nov, Horse Trials at Majestic Oaks ,Horse Trials at Majestic Oaks ,3,-82.213234,29.403458,17500 N US Hwy 441,Exmoor Farm,Reddick,FL,32686,http://www.MajesticOaksOcala.com
17562,"JANUARY 16-17, 2021", Horse Trials at Majestic Oaks ,Majestic Oaks Schooling Show,3,-82.213234,29.403458,17500 N US Hwy 441,Exmoor Farm,Reddick,FL,32686,http://majesticoaksocala.com
17527,"JULY 10-12, 2020",43rd Annual Whidbey Island  ,Needs Key Lookup,7,-122.630882,48.316544,Whidbey Island Equestrian Park,Whidbey Island Pony Club Equestrian Facility,Coupeville,WA,98239,http://www.whidbeyhorsetrials.org
17387,"JUNE 26-28, 2020",Abbe Ranch Horse Trial,Kent School Horse Trials,9,-104.932076,39.218062,9998 S. Perry Park Rd,,Larkspur,CO,80118,http://www.abberanchevents.com/
17523,9-May,Apple Knoll Farm,Apple Knoll Farm H.T.(Sep 2020),1,-70.572205,41.861244,1067 Old Sandwich Rd,Valinor Farm,Plymouth,MA,2360,http://www.appleknoll.com/
17523,9-May,Apple Knoll Farm,Apple Knoll Farm H.T.(Sep 2019),1,-70.572205,41.861244,1067 Old Sandwich Rd,Valinor Farm,Plymouth,MA,2360,http://www.appleknoll.com/
17467,19-Sep,Apple Knoll Farm  ,Apple Knoll Farm H.T.(Sep 2020),1,-70.572205,41.861244,1067 Old Sandwich Rd,Valinor Farm,Plymouth,MA,2360,http://www.appleknoll.com/
17629,8-May,Apple Knoll Farm  ,Apple Knoll Farm H.T.(Sep 2020),1,-70.572205,41.861244,1067 Old Sandwich Rd,Valinor Farm,Plymouth,MA,2360,http://www.appleknoll.com/
17758,18-Sep,Apple Knoll Farm  ,Apple Knoll Farm H.T.(Sep 2020),1,-70.572205,41.861244,1067 Old Sandwich Rd,Valinor Farm,Plymouth,MA,2360,http://www.appleknoll.com/
17424,"AUGUST 7-9, 2020",Area VII Young Rider Benefit  ,Needs Key Lookup,7,-123.083809,46.758701,828 Lincoln Creek Rd,Lincoln Creek,Chehalis,WA,98531,https://www.areavii.org/benefit-horse-trials
17717,"AUGUST 6-8, 2021",Area VII Young Rider Benefit  ,Needs Key Lookup,7,-123.083809,46.758701,828 Lincoln Creek Rd,Lincoln Creek,Chehalis,WA,98531,https://www.areavii.org/benefit-horse-trials
17388,"JUNE 27-28, 2020",Arrowhead  ,Needs Key Lookup,7,-108.58403,45.85384,3651 Alkali Creek Rd.,Warfield Park,Billings,MT,59105,http://www.warfieldpark.org
17687,"JUNE 26-27, 2021",Arrowhead  ,Needs Key Lookup,7,-108.58403,45.85384,3651 Alkali Creek Rd.,Warfield Park,Billings,MT,59105,http://www.warfieldpark.org
17367,"JUNE 12-14, 2020",Aspen Farms  ,Needs Key Lookup,7,-122.607213,46.896835,13042 Morris Rd,Aspen Farms,Yelm,WA,98597,http://www.aspenfarmseventing.com/
17445,"SEPTEMBER 4-6, 2020",Aspen Farms  ,Needs Key Lookup,7,-122.607213,46.896835,13042 Morris Rd,Aspen Farms,Yelm,WA,98597,http://www.aspenfarmseventing.com/
17666,"JUNE 11-13, 2021",Aspen Farms   ,Needs Key Lookup,7,-122.607213,46.896835,13042 Morris Rd,Aspen Farms,Yelm,WA,98597,http://www.aspenfarmseventing.com/
17754,"SEPTEMBER 17-19, 2021",Aspen Farms   ,Needs Key Lookup,7,-122.607213,46.896835,13042 Morris Rd,Aspen Farms,Yelm,WA,98597,http://www.aspenfarmseventing.com/
17598,"MARCH 26-28, 2021",at Majestic Oaks ,Horse Trials at Majestic Oaks ,3,-82.213234,29.403458,17500 N US Hwy 441,Exmoor Farm,Reddick,FL,32686,http://majesticoaksocala.com
17598,"MARCH 26-28, 2021",at Majestic Oaks ,Horse Trials at Majestic Oaks (Nov 2020),3,-82.213234,29.403458,17500 N US Hwy 441,Exmoor Farm,Reddick,FL,32686,http://majesticoaksocala.com
17598,"MARCH 26-28, 2021",at Majestic Oaks ,Majestic Oaks June Schooling Show,3,-82.213234,29.403458,17500 N US Hwy 441,Exmoor Farm,Reddick,FL,32686,http://majesticoaksocala.com
17598,"MARCH 26-28, 2021",at Majestic Oaks ,Horse Trials at Majestic Oaks (Jan 2020),3,-82.213234,29.403458,17500 N US Hwy 441,Exmoor Farm,Reddick,FL,32686,http://majesticoaksocala.com
17581,"JANUARY 9-10, 2021",Barnstaple South H.T,Barnstaple South Jackpot and 3-Phase (Sept. 24),3,-82.213234,29.403458,17500 N US Hwy 441,Exmoor Farm,Reddick,FL,32686,http://barnstaplesouth.com
17625,"MAY 1-2, 2021",Barnstaple South H.T ,November 5th: Barnstaple Jackpot + 3-Phase,3,-82.213234,29.403458,17500 N US Hwy 441,Exmoor Farm,Reddick,FL,32686,http://
17455,"SEPTEMBER 11-13, 2020",Blue Ridge Mountain   at TIEC,Blue Ridge Mountain Horse Trials at TIEC(Sep 2020),2,-82.066895,35.282646,4066 Pea Ridge Rd,Tryon International Equestrian Center,Mill Spring,NC,28756,http://www.tryon.com
17711,"JULY 24-25, 2021",Blue Ridge Mountain at TIEC,Blue Ridge Mountain Horse Trials at TIEC(Sep 2019),2,-82.066895,35.282646,4066 Pea Ridge Rd,Tryon International Equestrian Center,Mill Spring,NC,28756,http://www.tryon.com
17374,14-Jun,Bucks County Horse Park  ,Needs Key Lookup,2,-75.17031,40.516807,8934 Easton Rd.,Bucks County Horse Park,Revere,PA,18953,http://www.buckscountyhorsepark.org/
17450,6-Sep,Bucks County Horse Park  ,Needs Key Lookup,2,-75.17031,40.516807,8934 Easton Rd.,Bucks County Horse Park,Revere,PA,18953,http://www.buckscountyhorsepark.org
17671,13-Jun,Bucks County Horse Park  ,Needs Key Lookup,2,-75.17031,40.516807,8934 Easton Rd.,Bucks County Horse Park,Revere,PA,18953,http://www.buckscountyhorsepark.org/
17745,5-Sep,Bucks County Horse Park  ,Needs Key Lookup,2,-75.17031,40.516807,8934 Easton Rd.,Bucks County Horse Park,Revere,PA,18953,http://www.buckscountyhorsepark.org
17434,"AUGUST 21-23, 2020",Caber Farm  ,Needs Key Lookup,7,-122.732574,46.559375,213 Jensen Rd.,Caber Farm,Onalaska,WA,98570,http://www.caberfarm.com/
17732,"AUGUST 20-22, 2021",Caber Farm  ,Needs Key Lookup,7,-122.732574,46.559375,213 Jensen Rd.,Caber Farm,Onalaska,WA,98570,http://www.caberfarm.com/
17552,"SEPTEMBER 4-6, 2020",Caber Farm September   ,Poplar Place Farm September HorseTrials,7,-122.732574,46.559375,213 Jensen Rd.,Caber Farm,Onalaska,WA,98570,http://www.caberfarm.com/
17301,"MARCH 18-22, 2020",Carolina International CCI and  ,Fair Hill International CCI****/***,2,-79.366325,35.01506,2814 Montrose Rd,Carolina Horse Park,Raeford,NC,28376,http://www.carolinainternationalcic.com/
17591,"MARCH 17-21, 2021",Carolina International CCI and  ,Fair Hill International CCI****/***,2,-79.366325,35.01506,2814 Montrose Rd,Carolina Horse Park,Raeford,NC,28376,http://www.carolinainternationalcci.com/
17516,31-May,Carriage House Farm,Cherrylane Horse Trials,4,-92.949326,45.208195,17727 Henna Ave. N,Carriage House Farm,Hugo,MN,55038,http://www.carriagehousefarm.org
17656,6-Jun,Carriage House Farm,Cherrylane Horse Trials,4,-92.949326,45.208195,17727 Henna Ave. N,Carriage House Farm,Hugo,MN,55038,http://www.carriagehousefarm.org
17418,"AUGUST 1-2, 2020",Catalpa Corner Charity  ,Catalpa Corner Charity Horse Trial,4,-91.410169,41.714727,5365 Elmira Rd.,Catalpa Corner,Iowa City,IA,52240,http://www.catalpacorner.org
17714,"JULY 31 - AUGUST 1, 2021",Catalpa Corner Charity  ,Catalpa Corner Charity Horse Trial,4,-91.410169,41.714727,5365 Elmira Rd.,Catalpa Corner,Iowa City,IA,52240,http://www.catalpacorner.org
17328,2-May,Catalpa Corner May Madness  ,Catalpa Corner Charity Horse Trial,4,-91.410169,41.714727,5365 Elmira Rd.,Catalpa Corner,Iowa City,IA,52240,http://www.catalpacorner.org
17460,13-Sep,CDCTA Fall   ,Needs Key Lookup,2,-78.007442,39.1703202,929 Kimble Road,CDCTA Eventing Facility,Berryville,VA,22611,https://cdcta.com/
17752,12-Sep,CDCTA Fall   ,Needs Key Lookup,2,-78.007442,39.1703202,929 Kimble Road,CDCTA Eventing Facility,Berryville,VA,22611,https://cdcta.com/
17312,5-Apr,CDCTA Spring  ,Needs Key Lookup,2,-78.007442,39.1703202,929 Kimble Road,CDCTA Eventing Facility,Berryville,VA,22611,http://www.cdcta.com/
17608,11-Apr,CDCTA Spring  ,Needs Key Lookup,2,-78.007442,39.1703202,929 Kimble Road,CDCTA Eventing Facility,Berryville,VA,22611,http://www.cdcta.com/
17468,20-Sep,Cedar Ridge  ,Needs Key Lookup,8,-83.859131,42.263641,1478 Honey Run Dr,,Ann Arbor,MI,48103,http://
17554,24-Sep,Central FEH Championships at Haras Hacienda,Needs Key Lookup,5,-95.503062,32.472261,14078 TX-110,Texas Rose Horse Park,Tyler,TX,75704,www.harashacienda.com
17399,"JULY 10-12, 2020",Champagne Run at the Park  ,Needs Key Lookup,8,-84.404932,37.93902,5911 Old Richmond Road,Champagne Run Farm,Lexington,KY,40515,http://www.champagnerun.com
17702,"JULY 16-18, 2021",Champagne Run at the Park  ,Needs Key Lookup,8,-84.404932,37.93902,5911 Old Richmond Road,Champagne Run Farm,Lexington,KY,40515,http://www.champagnerun.com
17447,"SEPTEMBER 5-6, 2020",Chardon Valley  ,Needs Key Lookup,8,-85.982407,42.132523,79561 Stapleton Rd,Chardon Valley Farm,Decatur,MI,49045,"http://www.eventingmichigan.org, , https://www.facebook.com/ChardonValleyHorseTrials/"
17749,"SEPTEMBER 11-12, 2021",Chardon Valley  ,Needs Key Lookup,8,-85.982407,42.132523,79561 Stapleton Rd,Chardon Valley Farm,Decatur,MI,49045,"http://www.eventingmichigan.org, , https://www.facebook.com/ChardonValleyHorseTrials/"
17289,"FEBRUARY 29 - MARCH 1, 2020",Chattahoochee Hills  ,Chattahoochee Hills H.T. (April 2019),3,-84.700048,33.639928,9445 Browns Lake Road,The Bouckaert Farm,Fairburn,GA,30213,http://www.chatthillseventing.com/
17309,"APRIL 3-5, 2020",Chattahoochee Hills  ,Chattahoochee Hills H.T. (Aug 2019),3,-84.700048,33.639928,9445 Browns Lake Road,The Bouckaert Farm,Fairburn,GA,30213,http://www.chatthillseventing.com/
17343,"MAY 16-17, 2020",Chattahoochee Hills  ,Chattahoochee Hills H.T. (Aug 2020),3,-84.700048,33.639928,9445 Browns Lake Road,The Bouckaert Farm,Fairburn,GA,30213,http://www.chatthillseventing.com/
17389,"JUNE 27-28, 2020",Chattahoochee Hills  ,Chattahoochee Hills H.T.(Feb 2020),3,-84.716462,33.630239,10045 Cedar Grove Road,Chattahoochee Hills,Fairburn,GA,30213,http://ChattHillsEventing.com
17396,"JULY 3-5, 2020",Chattahoochee Hills  ,Chattahoochee Hills H.T.(Oct 2019),3,-84.700048,33.639928,9445 Browns Lake Road,The Bouckaert Farm,Fairburn,GA,30213,http://www.chatthillseventing.com/
17502,"OCTOBER 24-25, 2020",Chattahoochee Hills  ,Chattahoochee Hills H.T.(Oct 2020),3,-84.716462,33.630239,10045 Cedar Grove Road,Chattahoochee Hills,Fairburn,GA,30213,http://www.chatthillseventing.com/
17584,"MARCH 6-7, 2021",Chattahoochee Hills  ,Chattahoochee Hills HT Summer 1,3,-84.700048,33.639928,9445 Browns Lake Road,The Bouckaert Farm,Fairburn,GA,30213,http://www.chatthillseventing.com/
17642,"MAY 22-23, 2021",Chattahoochee Hills  ,Chattahoochee Hills May H.T.,3,-84.700048,33.639928,9445 Browns Lake Road,The Bouckaert Farm,Fairburn,GA,30213,http://www.chatthillseventing.com/
17692,"JULY 3-4, 2021",Chattahoochee Hills  ,Chattahoochee Hills May H.T.,3,-84.700048,33.639928,9445 Browns Lake Road,The Bouckaert Farm,Fairburn,GA,30213,http://www.chatthillseventing.com/
17698,"JULY 10-11, 2021",Chattahoochee Hills  ,Chattahoochee Hills May H.T.,3,-84.700048,33.639928,9445 Browns Lake Road,The Bouckaert Farm,Fairburn,GA,30213,http://www.chatthillseventing.com/
17441,"AUGUST 29-30, 2020",Chattahoochee Hills   ,Chattahoochee Hills May H.T.,3,-84.716462,33.630239,10045 Cedar Grove Road,Chattahoochee Hills,Fairburn,GA,30213,http://www.chatthillseventing.com/
17607,"APRIL 9-11, 2021",Chattahoochee Hills   ,Chattahoochee Hills May H.T.,3,-84.700048,33.639928,9445 Browns Lake Road,The Bouckaert Farm,Fairburn,GA,30213,http://www.chatthillseventing.com/
17742,"SEPTEMBER 4-5, 2021",Chattahoochee Hills   ,Chattahoochee Hills May H.T.,3,-84.716462,33.630239,10045 Cedar Grove Road,Chattahoochee Hills,Fairburn,GA,30213,http://www.chatthillseventing.com/
17796,"OCTOBER 30-31, 2021",Chattahoochee Hills   ,Chattahoochee Hills May H.T.,3,-84.716462,33.630239,10045 Cedar Grove Road,Chattahoochee Hills,Fairburn,GA,30213,http://www.chatthillseventing.com/
17415,"JULY 31 - AUGUST 2, 2020",Cobblestone Farms  ,Glenarden Farms Horse Trials,8,-83.844574,42.365833,5601 Zeeb Road,Cobblestone Farm,Dexter,MI,48130,http://www.cobblestonefarmsllc.com
17390,"JUNE 27-28, 2020",Cobblestone Farms   I,Needs Key Lookup,8,-83.844574,42.365833,5601 Zeeb Road,Cobblestone Farm,Dexter,MI,48130,http://www.cobblestonefarmsllc.com
17693,"JULY 3-4, 2021",Cobblestone Farms  I ,Needs Key Lookup,8,-83.844574,42.365833,5601 Zeeb Road,Cobblestone Farm,Dexter,MI,48130,http://www.cobblestonefarmsllc.com
17718,"AUGUST 6-8, 2021",Cobblestone Farms II,Needs Key Lookup,8,-83.844574,42.365833,5601 Zeeb Road,Cobblestone Farm,Dexter,MI,48130,http://www.cobblestonefarmsllc.com
17347,"SEPTEMBER 12-13, 2020",Coconino,Needs Key Lookup,10,-111.6929297,35.144368,Fort TutHill Fairgrounds,Fort Tut Hill Fairgrounds,Flagstaff,AZ,86001,http://www.coconinohorsetrials.com/
17394,"JULY 3-5, 2020",Coconino Summer I    ,Needs Key Lookup,10,-111.6929297,35.144368,Fort TutHill Fairgrounds,Fort Tut Hill Fairgrounds,Flagstaff,AZ,86001,http://www.coconinohorsetrials.com/
17695,"JULY 2-4, 2021",Coconino Summer I    ,Needs Key Lookup,10,-111.6929297,35.144368,Fort TutHill Fairgrounds,Fort Tut Hill Fairgrounds,Flagstaff,AZ,86001,http://www.coconinohorsetrials.com/
17356,"MAY 30-31, 2020",Colorado Horse Park  ,Colorado Horse Park H.T.(June 2019),9,-104.743507,39.436527,7522 South Pinery Drive,Colorado Horse Park Western Arena Complex,Parker,CO,80134,http://www.coloradohorsepark.com/
17658,"JUNE 5-6, 2021",Colorado Horse Park  ,Colorado Horse Park H.T.(June 2019),9,-104.743507,39.436527,7522 South Pinery Drive,Colorado Horse Park Western Arena Complex,Parker,CO,80134,http://www.coloradohorsepark.com/
17588,"MARCH 12-14, 2021",Copper Meadows ,Needs Key Lookup,6,-116.904612,33.041472,633 Montecito Way,Copper Meadows Horse Park,Ramona,CA,92065,http://www.copper-meadows.com/
17294,"MARCH 13-15, 2020",Copper Meadows  ,Needs Key Lookup,6,-116.904612,33.041472,633 Montecito Way,Copper Meadows Horse Park,Ramona,CA,92065,http://www.copper-meadows.com/
17446,"SEPTEMBER 4-6, 2020",Copper Meadows   ,Needs Key Lookup,6,-116.904612,33.041472,633 Montecito Way,Copper Meadows Horse Park,Ramona,CA,92065,http://www.copper-meadows.com
17746,"SEPTEMBER 10-12, 2021","Copper Meadows Eventing, LLC   ",Needs Key Lookup,6,-116.904612,33.041472,633 Montecito Way,Copper Meadows Horse Park,Ramona,CA,92065,http://www.copper-meadows.com
17442,5-Sep,Course Brook  ,Course Brook Farm Fall Horse Trials,1,-71.399742,42.252289,39 Brush Hill Rd,Course Brook Farm,Sherborn,MA,1770,https://coursebrookfarm.com/
17747,4-Sep,Course Brook    ,Course Brook Farm Horse Trials,1,-71.399742,42.252289,39 Brush Hill Rd,Course Brook Farm,Sherborn,MA,1770,https://coursebrookfarm.com/
17534,"JULY 18-19, 2020",Course Brook Farm  ,Course Brook Farm Horse Trials,1,-71.399742,42.252289,39 Brush Hill Rd,Course Brook Farm,Sherborn,MA,1770,https://www.coursebrookfarm.com/usef-usea-horse-trials
17534,"JULY 18-19, 2020",Course Brook Farm  ,Course Brook Farm Fall Horse Trials,1,-71.399742,42.252289,39 Brush Hill Rd,Course Brook Farm,Sherborn,MA,1770,https://www.coursebrookfarm.com/usef-usea-horse-trials
17712,"JULY 24-25, 2021",Course Brook Farm    ,Course Brook Farm Horse Trials,1,-71.399742,42.252289,39 Brush Hill Rd,Course Brook Farm,Sherborn,MA,1770,https://www.coursebrookfarm.com/usef-usea-horse-trials
17393,"MARCH 27-28, 2020",Designer Builders Stable View Spring CCI-S,Stable View Spring Horse Trials,3,-81.799975,33.648594,117 Stable Dr,Stable View Farm,Aiken,SC,29801,http://StableViewFarm.com
17354,"MAY 29-31, 2020",Equestrians' Institute  ,Needs Key Lookup,7,-120.966752,47.194533,1202 Douglas Munro Blvd,Washington State Horse Park,Cle Elum,WA,98922,http://einw.org
17651,"MAY 28-30, 2021",Equestrians' Institute  ,Needs Key Lookup,7,-120.966752,47.194533,1202 Douglas Munro Blvd,Washington State Horse Park,Cle Elum,WA,98922,http://einw.org
17463,"SEPTEMBER 18-20, 2020",Equestrians' Institute   ,Needs Key Lookup,7,-120.966752,47.194533,1202 Douglas Munro Blvd,Washington State Horse Park,Cle Elum,WA,98922,http://einw.org
17741,"SEPTEMBER 3-5, 2021",Equestrians' Institute   ,Needs Key Lookup,7,-120.966752,47.194533,1202 Douglas Munro Blvd,Washington State Horse Park,Cle Elum,WA,98922,http://einw.org
17474,27-Sep,ESDCTA New Jersey   ,ESDCTA New Jersey H.T. at the Horsepark,2,-74.498207,40.193207,626 Rte 524,The Horsepark of New Jersey,Allentown,NJ,8501,https://www.esdcta.org
17766,"SEPTEMBER 25-26, 2021",ESDCTA New Jersey    ,ESDCTA New Jersey H.T. at the Horsepark,2,-74.498207,40.193207,626 Rte 524,The Horsepark of New Jersey,Allentown,NJ,8501,https://www.esdcta.org
17407,"JULY 17-19, 2020",Essex  ,Essex Horse Trials,2,-74.6361311,40.6847539,50 US Highway 202,Moorland Farm,Far Hills,NJ,7931,http://www.essexhorsetrials.org
17703,"JULY 16-18, 2021",Essex   ,Essex Horse Trials,2,-74.6361311,40.6847539,50 US Highway 202,Moorland Farm,Far Hills,NJ,7931,http://www.essexhorsetrials.org
17411,"JULY 24-26, 2020",Event at Rebecca Farm,Needs Key Lookup,7,-114.376572,48.229515,1010 West Springcreek Rd,Rebecca Farm,Kalispell,MT,59901,http://www.rebeccafarm.org/
17706,"JULY 21-25, 2021",Event at Rebecca Farm,Needs Key Lookup,7,-114.376572,48.229515,1010 West Springcreek Rd,Rebecca Farm,Kalispell,MT,59901,http://www.rebeccafarm.org/
17344,"MAY 16-17, 2020",Fair Hill International  ,Fair Hill International April Horse Trials,2,-75.860126,39.701706,4600 Telegraph Rd,Fair Hill - Telegraph,Elkton,MD,21921,http://www.fairhillinternational.org
17426,"AUGUST 7-9, 2020",Fair Hill International  ,Fair Hill International August Horse Trials,2,-75.860126,39.701706,4600 Telegraph Rd,Fair Hill - Telegraph,Elkton,MD,21921,http://fairhillinternational.org/
17643,"MAY 15-16, 2021",Fair Hill International   ,Fair Hill International CCI****/***,2,-75.860126,39.701706,4600 Telegraph Rd,Fair Hill - Telegraph,Elkton,MD,21921,http://www.fairhillinternational.org
17719,"AUGUST 7-8, 2021",Fair Hill International    ,Fair Hill International H.T.(May 2019),2,-75.860126,39.701706,4600 Telegraph Rd,Fair Hill - Telegraph,Elkton,MD,21921,http://fairhillinternational.org/
17315,"APRIL 10-12, 2020",Fair Hill International April   and CCI-S,Fair Hill International June Starter HT,2,-75.860126,39.701706,4600 Telegraph Rd,Fair Hill - Telegraph,Elkton,MD,21921,http://www.fairhillinternational.org
17606,"APRIL 9-11, 2021",Fair Hill International April   and CCI-S,Fair Hill International May Starter HT,2,-75.860126,39.701706,4600 Telegraph Rd,Fair Hill - Telegraph,Elkton,MD,21921,http://www.fairhillinternational.org
17315,"APRIL 10-12, 2020",Fair Hill International April   and CCI-S,Fair Hill Starter Horse Trials ,2,-75.860126,39.701706,4600 Telegraph Rd,Fair Hill - Telegraph,Elkton,MD,21921,http://www.fairhillinternational.org
17606,"APRIL 9-11, 2021",Fair Hill International April   and CCI-S,Fair Hill Starter Horse Trials (September 2019),2,-75.860126,39.701706,4600 Telegraph Rd,Fair Hill - Telegraph,Elkton,MD,21921,http://www.fairhillinternational.org
17363,6-Jun,Feather Creek Farm  ,Feather Creek Farm H.T.(Aug 2019),5,-97.331001,35.237457,1501 72nd Ave,Feather Creek Farm,Norman,OK,73026,https://www.facebook.com/Feather-Creek-Farm-116967058316156/
17363,6-Jun,Feather Creek Farm  ,Feather Creek Farm H.T.(June 2020),5,-97.331001,35.237457,1501 72nd Ave,Feather Creek Farm,Norman,OK,73026,https://www.facebook.com/Feather-Creek-Farm-116967058316156/
17438,22-Aug,Feather Creek Farm  ,Feather Creek Farm H.T.(Sept 2019),5,-97.331001,35.237457,1501 72nd Ave,Feather Creek Farm,Norman,OK,73026,https://www.facebook.com/Feather-Creek-Farm-116967058316156/
17555,"OCTOBER 22-24, 2020",FEH & YEH Last Chance Qualifier & West Coast Championship,Needs Key Lookup,6,-120.692764,35.727787,8715 N. River Rd,Twin Rivers Horse Park,Paso Robles,CA,93446,http://twinrivershorsepark.com/
17531,"SEPTEMBER 26-27, 2020",FEH Championships at Loch Moy Farm,Needs Key Lookup,2,-77.429489,39.270748,1235 Park Mills Road,Loch Moy Farm,Adamstown,MD,21710,http://www.themarylandhorsetrials.com
17821,25-Sep,FEH Championships at Loch Moy Farm,Needs Key Lookup,2,-77.429489,39.270748,1235 Park Mills Road,Loch Moy Farm,Adamstown,MD,21710,http://www.themarylandhorsetrials.com
17484,25-Sep,FEH/YEH Qualifier at Loch Moy Farm,Needs Key Lookup,2,-77.429489,39.270748,1235 Park Mills Road,Loch Moy Farm,Adamstown,MD,21710,http://www.themarylandhorsetrials.com
17820,24-Sep,FEH/YEH Qualifier at Loch Moy Farm,Needs Key Lookup,2,-77.429489,39.270748,1235 Park Mills Road,Loch Moy Farm,Adamstown,MD,21710,http://www.themarylandhorsetrials.com
17316,"JULY 25-26, 2020",FENCE  ,FENCE Horse Trial ,3,-82.176845,35.196822,3381 Hunting Country Rd.,Fence Equestrian Center - FENCE,Tryon,NC,28782,http://www.fence.org
17613,"APRIL 17-18, 2021",FENCE  ,FENCE Horse Trial (April 2019),3,-82.176845,35.196822,3381 Hunting Country Rd.,Fence Equestrian Center - FENCE,Tryon,NC,28782,http://www.fence.org
17448,"SEPTEMBER 5-6, 2020",Five Points  ,Five Points Horse Trials,2,-79.366325,35.01506,2814 Montrose Rd,Carolina Horse Park,Raeford,NC,28376,http://www.carolinahorsepark.com
17737,"AUGUST 28-29, 2021",Five Points   ,Five Points Horse Trials,2,-79.366325,35.01506,2814 Montrose Rd,Carolina Horse Park,Raeford,NC,28376,http://www.carolinahorsepark.com
17471,"SEPTEMBER 26-27, 2020",Fleur de Leap  ,Fleur de Leap Horse Trials,5,-90.184767,30.643,13349 Verger Road,LAGNIAPPE EQUESTRIAN CENTER,Folsom,LA,70437,http://www.sedariders.org/
17775,"OCTOBER 2-3, 2021",Fleur de Leap  ,Fleur de Leap Horse Trials,5,-90.184767,30.643,13349 Verger Road,LAGNIAPPE EQUESTRIAN CENTER,Folsom,LA,70437,http://www.sedariders.org/
17456,"SEPTEMBER 12-13, 2020",Flora Lea Fall   ,Flora Lea Fall H.T. (Sep 2020),2,-74.814918,39.896675,21 Branin Rd.,Flora Lea Farm,Medford,NJ,8055,http://www.floraleafarm.com
17750,"SEPTEMBER 11-12, 2021",Flora Lea Fall    ,Flora Lea Fall H.T.(Sep 2019),2,-74.814918,39.896675,21 Branin Rd.,Flora Lea Farm,Medford,NJ,8055,http://www.floraleafarm.com
17537,23-Aug,Flora Lea Farm YEH  and Mini Event,Flora Lea Spring Horse Trials,2,-74.814918,39.896675,21 Branin Rd.,Flora Lea Farm,Medford,NJ,8055,http://floraleafarm.com
17734,21-Aug,Flora Lea Farm YEH  and Mini Event,Flora Lea Fall H.T. (Sep 2020),2,-74.814918,39.896675,21 Branin Rd.,Flora Lea Farm,Medford,NJ,8055,http://floraleafarm.com
17536,21-Jun,Flora Lea Farm YEH and Mini Event  ,Flora Lea Fall H.T.(Sep 2019),2,-74.814918,39.896675,21 Branin Rd.,Flora Lea Farm,Medford,NJ,8055,http://floraleafarm.com
17678,20-Jun,Flora Lea Farm YEH and Mini Event  ,Flora Lea Spring Horse Trials,2,-74.814918,39.896675,21 Branin Rd.,Flora Lea Farm,Medford,NJ,8055,http://floraleafarm.com
17352,"MAY 23-24, 2020",Flora Lea Spring  ,Flora Lea Spring Horse Trials,2,-74.814918,39.896675,21 Branin Rd.,Flora Lea Farm,Medford,NJ,8055,http://floraleafarm.com
17647,"MAY 22-23, 2021",Flora Lea Spring   ,Flora Lea Spring Horse Trials,2,-74.814918,39.896675,21 Branin Rd.,Flora Lea Farm,Medford,NJ,8055,http://floraleafarm.com
17452,"SEPTEMBER 10-13, 2020",Flying Cross Farm  ,Full Gallop Farm HT,8,-85.523209,38.426964,9220 W Hwy 42,Flying Cross Farm,Goshen,KY,40026,www.flyingcrossfarm.org
17756,"SEPTEMBER 17-19, 2021",Flying Cross Farm  ,Full Gallop Farm HT,8,-85.523209,38.426964,9220 W Hwy 42,Flying Cross Farm,Goshen,KY,40026,www.flyingcrossfarm.org
17383,"JUNE 25-28, 2020",Fox River Valley Pony Club   ,Fox River Valley Pony Club HT,4,-88.223786,42.145417,254 Bateman Rd,Barrington Hills Park Riding Center,Barrington,IL,60010,http://www.FRVPCHorsetrials.org
17681,"JUNE 24-27, 2021",Fox River Valley Pony Club   ,Fox River Valley Pony Club HT,4,-88.223786,42.145417,254 Bateman Rd,Barrington Hills Park Riding Center,Barrington,IL,60010,http://www.FRVPCHorsetrials.org
17563,"JANUARY 16-17, 2021",Fresno County Horse Park,Radnor Hunt Horse Trials,6,-119.923032,36.843311,7430 N. Weber Ave,Fresno County Horsepark,Fresno,CA,93722,http://www.FresnoCountyHorsePark.com
17317,"APRIL 17-19, 2020",Fresno County Horse Park  ,Texas Rose Horse Park Fall HT,6,-119.923032,36.843311,7430 N. Weber Ave,Fresno County Horsepark,Fresno,CA,93722,http://www.FresnoCountyHorsePark.com
17496,"OCTOBER 16-18, 2020",Fresno County Horse Park  ,Texas Rose Horse Park Fall HT,6,-119.923032,36.843311,7430 N. Weber Ave,Fresno County Horsepark,Fresno,CA,93722,http://www.fresnocountyhorsep.com
17518,"NOVEMBER 13-15, 2020",Fresno County Horse Park  ,Texas Rose Horse Park Fall HT,6,-119.923032,36.843311,7430 N. Weber Ave,Fresno County Horsepark,Fresno,CA,93722,http://www.Fresnocountyhorsep.com
17574,"FEBRUARY 12-14, 2021",Fresno County Horse Park  ,Texas Rose Horse Park Fall HT,6,-119.923032,36.843311,7430 N. Weber Ave,Fresno County Horsepark,Fresno,CA,93722,http://www.FresnoCountyHorsePark.com
17622,"APRIL 30 - MAY 2, 2021",Fresno County Horse Park  ,Texas Rose Horse Park Fall HT,6,-119.923032,36.843311,7430 N. Weber Ave,Fresno County Horsepark,Fresno,CA,93722,http://www.FresnoCountyHorsePark.com
17789,"OCTOBER 22-24, 2021",Fresno County Horse Park    ,Texas Rose Horse Park Fall HT,6,-119.923032,36.843311,7430 N. Weber Ave,Fresno County Horsepark,Fresno,CA,93722,http://www.fresnocountyhorsep.com
17810,"NOVEMBER 19-21, 2021",Fresno County Horse Park    ,Texas Rose Horse Park Fall HT,6,-119.923032,36.843311,7430 N. Weber Ave,Fresno County Horsepark,Fresno,CA,93722,http://www.Fresnocountyhorsep.com
17282,"FEBRUARY 14-16, 2020",Fresno County Horse Park CCI &  ,Texas Rose Horse Park Fall HT,6,-119.923032,36.843311,7430 N. Weber Ave,Fresno County Horsepark,Fresno,CA,93722,http://www.FresnoCountyHorsePark.com
17283,"JANUARY 25-26, 2020",Fresno County Horse Park Combined Test,Texas Rose Horse Park Fall HT,6,-119.923032,36.843311,7430 N. Weber Ave,Fresno County Horsepark,Fresno,CA,93722,http://www.FresnoCountyHorsePark.com
17429,"AUGUST 15-16, 2020",Full Gallop Farm August HT,Full Gallop Farm August HT(Aug 2019),3,-81.584045,33.570454,3828 Wagener Rd.,Full Gallop Farm,Aiken,SC,29805,http://www.fullgallopfarm.com/
17727,"AUGUST 21-22, 2021",Full Gallop Farm August HT  ,Full Gallop Farm August HT(Aug 2020),3,-81.584045,33.570454,3828 Wagener Rd.,Full Gallop Farm,Aiken,SC,29805,http://www.fullgallopfarm.com/
17519,13-Dec,Full Gallop Farm December  ,Full Gallop Farm August Schooling HT,3,-81.584045,33.570454,3828 Wagener Rd.,Full Gallop Farm,Aiken,SC,29805,http://www.fullgallopfarm.com
17277,5-Feb,Full Gallop Farm February I  ,Full Gallop Farm December Schooling Show ,3,-81.584045,33.570454,3828 Wagener Rd.,Full Gallop Farm,Aiken,SC,29805,http://www.fullgallopfarm.com
17571,10-Feb,Full Gallop Farm February I  ,Full Gallop Farm February H.T.,3,-81.584045,33.570454,3828 Wagener Rd.,Full Gallop Farm,Aiken,SC,29805,http://fullgallopfarm.com
17286,"FEBRUARY 25-26, 2020",Full Gallop Farm February II  ,Full Gallop Farm February Horse Trials,3,-81.584045,33.570454,3828 Wagener Rd.,Full Gallop Farm,Aiken,SC,29805,http://www.fullgallopfarm.com
17273,"JANUARY 25-26, 2020",Full Gallop Farm January H.T,Full Gallop Farm February II H.T.(Feb 2020),3,-81.584045,33.570454,3828 Wagener Rd.,Full Gallop Farm,Aiken,SC,29805,http://www.fullgallopfarm.com/
17567,31-Jan,Full Gallop Farm January H.T,Full Gallop Farm HT,3,-81.584045,33.570454,3828 Wagener Rd.,Full Gallop Farm,Aiken,SC,29805,https://fullgallopfarm.com/
17306,"JULY 18-19, 2020",Full Gallop Farm July  ,Full Gallop Farm January H.T(Jan 2020),3,-81.584045,33.570454,3828 Wagener Rd.,Full Gallop Farm,Aiken,SC,29805,http://www.fullgallopfarm.com
17375,"JUNE 13-14, 2020",Full Gallop Farm June  ,Full Gallop Farm January HT,3,-81.584045,33.570454,3828 Wagener Rd.,Full Gallop Farm,Aiken,SC,29805,http://www.fullgallopfarm.com
17679,20-Jun,Full Gallop Farm June  ,Full Gallop Farm January Schooling Show,3,-81.584045,33.570454,3828 Wagener Rd.,Full Gallop Farm,Aiken,SC,29805,http://www.fullgallopfarm.com
17292,"MARCH 7-8, 2020",Full Gallop Farm March  ,Full Gallop Farm June Horse Trials,3,-81.584045,33.570454,3828 Wagener Rd.,Full Gallop Farm,Aiken,SC,29805,http://www.fullgallopfarm.com/
17582,"MARCH 2-3, 2021",Full Gallop Farm March  ,Full Gallop Farm June Schooling Show,3,-81.584045,33.570454,3828 Wagener Rd.,Full Gallop Farm,Aiken,SC,29805,http://www.fullgallopfarm.com/
17590,"MARCH 13-14, 2021",Full Gallop Farm March I   ,Full Gallop Farm March H.T.,3,-81.584045,33.570454,3828 Wagener Rd.,Full Gallop Farm,Aiken,SC,29805,http://www.fullgallopfarm.com/
17601,28-Mar,Full Gallop Farm March II  ,Full Gallop Farm March I HT,3,-81.584045,33.570454,3828 Wagener Rd.,Full Gallop Farm,Aiken,SC,29805,http://www.fullgallopfarm.com/
17655,24-Feb,Full Gallop Farm Mid February  ,Full Gallop Farm March II H.T. (2019),3,-81.584045,33.570454,3828 Wagener Rd.,Full Gallop Farm,Aiken,SC,29805,http://www.fullgallopfarm.com
17807,7-Nov,Full Gallop Farm November   ,Full Gallop Farm Nov HT,3,-81.584045,33.570454,3828 Wagener Rd.,Full Gallop Farm,Aiken,SC,29805,http://www.fullgallopfarm.com
17807,7-Nov,Full Gallop Farm November   ,Full Gallop Farm November HT,3,-81.584045,33.570454,3828 Wagener Rd.,Full Gallop Farm,Aiken,SC,29805,http://www.fullgallopfarm.com
17807,7-Nov,Full Gallop Farm November   ,Full Gallop Farm Schooling Show (June2020),3,-81.584045,33.570454,3828 Wagener Rd.,Full Gallop Farm,Aiken,SC,29805,http://www.fullgallopfarm.com
17807,7-Nov,Full Gallop Farm November   ,Full Gallop Farm Schooling Show (March 11),3,-81.584045,33.570454,3828 Wagener Rd.,Full Gallop Farm,Aiken,SC,29805,http://www.fullgallopfarm.com
17807,7-Nov,Full Gallop Farm November   ,Full Gallop Farm Schooling Show (May 2020),3,-81.584045,33.570454,3828 Wagener Rd.,Full Gallop Farm,Aiken,SC,29805,http://www.fullgallopfarm.com
17807,7-Nov,Full Gallop Farm November   ,Full Gallop Farm Sept. Schooling HT,3,-81.584045,33.570454,3828 Wagener Rd.,Full Gallop Farm,Aiken,SC,29805,http://www.fullgallopfarm.com
17807,7-Nov,Full Gallop Farm November   ,Full Gallop February Schooling HT,3,-81.584045,33.570454,3828 Wagener Rd.,Full Gallop Farm,Aiken,SC,29805,http://www.fullgallopfarm.com
17807,7-Nov,Full Gallop Farm November   ,Full Gallop July 6th Schooling ,3,-81.584045,33.570454,3828 Wagener Rd.,Full Gallop Farm,Aiken,SC,29805,http://www.fullgallopfarm.com
17807,7-Nov,Full Gallop Farm November   ,Full Gallop March Schooling Show ,3,-81.584045,33.570454,3828 Wagener Rd.,Full Gallop Farm,Aiken,SC,29805,http://www.fullgallopfarm.com
17807,7-Nov,Full Gallop Farm November   ,Full Gallop March Schooling Show II ,3,-81.584045,33.570454,3828 Wagener Rd.,Full Gallop Farm,Aiken,SC,29805,http://www.fullgallopfarm.com
17409,"JULY 18-19, 2020",Full Moon Farms  ,Full Moon Farms 2019 Spring Thing,2,-76.913864,39.457195,4326 Louisville Rd,Full Moon Farm,Finksburg,MD,21048,http://fullmoonfarm.com/
17515,8-Nov,Full Moon Farms  ,Full Moon Farms H.T.(Jul 2019),2,-76.913864,39.457195,4326 Louisville Rd,Full Moon Farm,Finksburg,MD,21048,http://fullmoonfarm.com/
17705,18-Jul,Full Moon Farms  ,Full Moon Farms H.T.(Jul),2,-76.913864,39.457195,4326 Louisville Rd,Full Moon Farm,Finksburg,MD,21048,http://fullmoonfarm.com/
17803,7-Nov,Full Moon Farms  ,Full Moon Farms H.T.(Nov 2020),2,-76.913864,39.457195,4326 Louisville Rd,Full Moon Farm,Finksburg,MD,21048,http://fullmoonfarm.com/
17803,7-Nov,Full Moon Farms  ,Full Moon Farms Starter H.T. ,2,-76.913864,39.457195,4326 Louisville Rd,Full Moon Farm,Finksburg,MD,21048,http://fullmoonfarm.com/
17568,"JANUARY 29-31, 2021",Galway Downs,Galway Downs Horse Trials (July 2020),6,-117.033958,33.487278,38801 Los Corralitos Rd,Galway Downs,Temecula,CA,92592,http://www.galwaydowns.net
17797,"NOVEMBER 3-7, 2021",Galway Downs,Galway Downs International Event & H.T. (Nov 2019),6,-117.033958,33.487278,38801 Los Corralitos Rd,Galway Downs,Temecula,CA,92592,http://www.galwaydowns.net
17302,"MARCH 27-29, 2020",Galway Downs International  ,Galway Downs International Event & H.T.(Oct 2020),6,-117.033958,33.487278,38801 Los Corralitos Rd,Galway Downs,Temecula,CA,92592,http://www.galwaydowns.net
17596,"MARCH 26-28, 2021",Galway Downs International  ,Galway Downs International Event and H.T. (2019),6,-117.033958,33.487278,38801 Los Corralitos Rd,Galway Downs,Temecula,CA,92592,http://www.galwaydowns.net
17508,"OCTOBER 28 - NOVEMBER 1, 2020",Galway Downs International Event &  ,Galway Downs Spring Horse Trials (2019),6,-117.033958,33.487278,38801 Los Corralitos Rd,Galway Downs,Temecula,CA,92592,http://www.galwaydowns.net
17550,"JULY 17-19, 2020",Galway Downs July  ,Galway Downs Winter H.T.(Jan 2020),6,-117.033958,33.487278,38801 Los Corralitos Rd,Galway Downs,Temecula,CA,92592,http://www.galwaydowns.net
17333,"MAY 1-3, 2020",Galway Downs Spring  ,Galway Downs Winter Horse Trials,6,-117.033958,33.487278,38801 Los Corralitos Rd,Galway Downs,Temecula,CA,92592,http://www.galwaydowns.net
17633,"MAY 14-16, 2021",Galway Downs Spring  ,Galway Downs Spring Horse Trials (2019),6,-117.033958,33.487278,38801 Los Corralitos Rd,Galway Downs,Temecula,CA,92592,http://www.galwaydowns.net
17274,"JANUARY 31 - FEBRUARY 2, 2020",Galway Downs Winter  ,Galway Downs Winter Horse Trials,6,-117.033958,33.487278,38801 Los Corralitos Rd,Galway Downs,Temecula,CA,92592,http://www.galwaydowns.net
17402,"JULY 11-12, 2020",Genesee Valley Hunt,Needs Key Lookup,1,-77.8161,42.84355,Roots Tavern Rd and Nations Rd,GVHC - Nations Farm ,Geneseo,NY,14454,http://www.geneseevalleyhunt.org/
17704,"JULY 17-18, 2021",Genesee Valley Hunt   ,Needs Key Lookup,1,-77.8161,42.84355,Roots Tavern Rd and Nations Rd,GVHC - Nations Farm ,Geneseo,NY,14454,http://www.geneseevalleyhunt.org/
17430,"AUGUST 15-16, 2020",Genesee Valley Riding,Needs Key Lookup,1,-77.787109,42.842808,4222 Roots Tavern Road,Hideaway Farm,Geneseo,NY,14454,http://www.gvrdc.org/
17360,4-Oct,Genesee Valley Riding,Needs Key Lookup,1,-77.787109,42.842808,4222 Roots Tavern Road,Hideaway Farm,Geneseo,NY,14454,http://www.gvrdc.org/
17728,"AUGUST 21-22, 2021",Genesee Valley Riding ,Needs Key Lookup,1,-77.787109,42.842808,4222 Roots Tavern Road,Hideaway Farm,Geneseo,NY,14454,http://www.gvrdc.org/
17659,6-Jun,Genesee Valley Riding  ,Needs Key Lookup,1,-77.787109,42.842808,4222 Roots Tavern Road,Hideaway Farm,Geneseo,NY,14454,http://www.gvrdc.org/
17759,"SEPTEMBER 18-19, 2021",GMHA ,GMHA Festival of Eventing August Horse Trials(Aug ,1,-72.539261,43.557084,5491 South Road,GMHA,South Woodstock,VT,5071,http://www.gmhainc.org
17421,"AUGUST 7-9, 2020",GMHA Festival of Eventing August  ,GMHA June Horse Trials,1,-72.539261,43.557084,5491 South Road,GMHA,South Woodstock,VT,5071,http://gmhainc.org/
17723,"AUGUST 13-15, 2021",GMHA Festival of Eventing August   ,GMHA September H.T.(Sep 2020),1,-72.539261,43.557084,5491 South Road,GMHA,South Woodstock,VT,5071,http://gmhainc.org/
17357,"JUNE 27-28, 2020",GMHA June,GMHA September Horse Trials,1,-72.539261,43.557084,5491 South Road,GMHA,South Woodstock,VT,5071,http://www.gmhainc.org
17660,"JUNE 5-6, 2021",GMHA June  ,GMHA Starter Horse Trials (Aug 2020),1,-72.539261,43.557084,5491 South Road,GMHA,South Woodstock,VT,5071,http://www.gmhainc.org
17457,"SEPTEMBER 12-13, 2020",GMHA September  ,GMHA September Horse Trials,1,-72.539261,43.557084,5491 South Road,GMHA,South Woodstock,VT,5071,http://www.gmhainc.org
17457,"SEPTEMBER 12-13, 2020",GMHA September  ,GMHA September Horse Trials,1,-72.539261,43.557084,5491 South Road,GMHA,South Woodstock,VT,5071,http://www.gmhainc.org
17676,"JUNE 12-13, 2021",Golden Spike  ,Needs Key Lookup,9,-112.008549,41.275977,1000 N 1200 W,Golden Spike Event Center,Ogden,UT,84404,https://www.wasatchponyclub.com/events-1/golden-spike-horse-trials-2020
17371,"JUNE 13-14, 2020",Golden Spike   ,Needs Key Lookup,9,-112.008549,41.275977,1000 N 1200 W,Golden Spike Event Center,Ogden,UT,84404,https://www.wasatchponyclub.com/events-1/golden-spike-horse-trials-2020
17503,24-Oct,Grand Oaks  ,Grand Oaks Horse Trials,3,-82.213234,29.403458,17500 N US Hwy 441,Exmoor Farm,Reddick,FL,32686,http://www.thegrandoaks.com/
17521,"NOVEMBER 21-22, 2020",Grand Oaks  ,Grand Oaks Horse Trials(Jan 2020),3,-82.213234,29.403458,17500 N US Hwy 441,Exmoor Farm,Reddick,FL,32686,http://www.thegrandoaks.com/
17269,"JANUARY 18-19, 2020",Grand Oaks   ,Grand Oaks Horse Trials,3,-82.213234,29.403458,17500 N US Hwy 441,Exmoor Farm,Reddick,FL,32686,http://thegrandoaks.com
17564,"JANUARY 23-24, 2021",Grand Oaks   ,Grand Oaks Horse Trials,3,-82.213234,29.403458,17500 N US Hwy 441,Exmoor Farm,Reddick,FL,32686,http://thegrandoaks.com
17435,"AUGUST 20-23, 2020",Great Meadow International ,Needs Key Lookup,2,-77.809738,38.828873,5089 Old Tavern Road,Great Meadow Horse Park,The Plains,VA,20198,http://www.greatmeadowinternational.com
17731,"AUGUST 18-22, 2021",Great Meadow International  ,Needs Key Lookup,2,-77.809738,38.828873,5089 Old Tavern Road,Great Meadow Horse Park,The Plains,VA,20198,http://www.greatmeadowinternational.com
17384,"JUNE 26-28, 2020",Groton House Farm,Groton House Farm Horse Trials,1,-70.871843,42.648485,746 Highland St.,Groton House Farm,Hamilton,MA,1982,http://www.grotonhousefarm.com/
17683,"JUNE 25-27, 2021",Groton House Farm    ,Groton House Farm Horse Trials,1,-70.871843,42.648485,746 Highland St.,Groton House Farm,Hamilton,MA,1982,http://www.grotonhousefarm.com/
17788,"OCTOBER 20-24, 2021",Hagyard Midsouth Three-day Event,Needs Key Lookup,8,-84.5168,38.151688,4089 Iron Works Pkwy,Kentucky Horse Park,Lexington,KY,40511,http://www.kyevents.net
17494,"OCTOBER 14-18, 2020",Hagyard Midsouth Three-day Event & Team Challenge  ,Needs Key Lookup,8,-84.5168,38.151688,4089 Iron Works Pkwy,Kentucky Horse Park,Lexington,KY,40511,http://www.kyevents.net
17479,"OCTOBER 2-4, 2020",Heritage Park   ,Needs Key Lookup,4,-94.734299,38.823833,"16801 Pflumm Rd, Olathe",Heritage Park Horse Park,Olathe,KS,66062,https://www.midamericaeventing.com/heritage-park-usea-ht
17779,"OCTOBER 8-10, 2021",Heritage Park   ,Needs Key Lookup,4,-94.734299,38.823833,"16801 Pflumm Rd, Olathe",Heritage Park Horse Park,Olathe,KS,66062,https://www.midamericaeventing.com/heritage-park-usea-ht
17341,"JULY 18-19, 2020",Hitching Post Farm  ,Needs Key Lookup,1,-72.563259,43.810049,2096 Back River Rd.,Hitching Post Farm,S. Royalton,VT,5068,http://www.hitchingpostfarm.com/
17486,10-Oct,Hitching Post Farm  ,Sporting Days Farm Feb. HT,1,-72.563259,43.810049,2096 Back River Rd.,Hitching Post Farm,S. Royalton,VT,5068,http://www.hitchingpostfarm.com/
17636,15-May,Hitching Post Farm  ,Sporting Days Farm Feb. HT,1,-72.563259,43.810049,2096 Back River Rd.,Hitching Post Farm,S. Royalton,VT,5068,http://www.hitchingpostfarm.com/
17785,9-Oct,Hitching Post Farm    ,Sporting Days Farm Feb. HT,1,-72.563259,43.810049,2096 Back River Rd.,Hitching Post Farm,S. Royalton,VT,5068,http://www.hitchingpostfarm.com/
17815,17-Feb,Holland Eventing at Holly Berry Farm Young Event Horse,Needs Key Lookup,3,-74.814918,39.896675,21 Branin Rd.,Flora Lea Farm,Medford,NJ,8055,http://www.hollandeventing.com
17793,"OCTOBER 23-24, 2021",Holly Hill,Holly Hill Fall Horse Trials,5,-93.764526,32.734516,1296 Old Plain Dealing Rd,Holly Hill Farm,Blenton,LA,71006,http://www.hollyhillfarm.net/
17319,"APRIL 18-19, 2020",Holly Hill  ,Holly Hill H.T.(Oct 2020),5,-93.764526,32.734516,1296 Old Plain Dealing Rd,Holly Hill Farm,Blenton,LA,71006,http://www.hollyhillfarm.net/
17504,"OCTOBER 24-25, 2020",Holly Hill  ,Holly Hill Spring H.T. (April 2019),5,-93.764526,32.734516,1296 Old Plain Dealing Rd,Holly Hill Farm,Blenton,LA,71006,http://www.hollyhillfarm.net/
17614,"APRIL 17-18, 2021",Holly Hill  ,Holly Hill H.T.(Oct 2020),5,-93.764526,32.734516,1296 Old Plain Dealing Rd,Holly Hill Farm,Blenton,LA,71006,http://www.hollyhillfarm.net/
17370,"JULY 25-26, 2020",Honey Run  ,Needs Key Lookup,8,-83.859131,42.263641,1478 Honey Run Dr,,Ann Arbor,MI,48103,http://www.eventingmichigan.org
17677,"JUNE 19-20, 2021",Honey Run  ,Needs Key Lookup,8,-83.859131,42.263641,1478 Honey Run Dr,,Ann Arbor,MI,48103,http://www.eventingmichigan.org
17713,"AUGUST 6-8, 2021",Hoosier    ,Needs Key Lookup,8,-86.041138,39.307491,"Hoosier Horse Park, Camp Atterbury",Hoosier Horse Park,Edinburgh,IN,46124,http://www.pennyoaksstables.com
17412,"JULY 24-26, 2020",Horse Park of New Jersey,Horse Park of New Jersey H.T. I,2,-74.498207,40.193207,626 Rte 524,The Horsepark of New Jersey,Allentown,NJ,8501,http://www.horseparkofnewjersey.com
17688,"JUNE 19-20, 2021",Horse Park of New Jersey ,Horse Park of New Jersey H.T. II,2,-74.498207,40.193207,626 Rte 524,The Horsepark of New Jersey,Allentown,NJ,8501,http://www.horseparkofnewjersey.com
17385,"JUNE 27-28, 2020",Horse Park of New Jersey   I,Horse Park of New Jersey H.T. II(July 2019),2,-74.498207,40.193207,626 Rte 524,The Horsepark of New Jersey,Allentown,NJ,8501,http://www.horseparkofnewjersey.com
17708,"JULY 23-25, 2021",Horse Park of New Jersey   II,Horse Park of New Jersey H.T. II,2,-74.498207,40.193207,626 Rte 524,The Horsepark of New Jersey,Allentown,NJ,8501,http://www.horseparkofnewjersey.com
17413,25-Jul,Hunt Club Farms  ,Hunt Club Farm Starter HT,2,-78.036232,39.191025,294 Longmarsh Rd,Hunt Club Farms,Berryville,VA,22611,http://www.huntclubfarms.net
17498,17-Oct,Hunt Club Farms  ,Hunt Club Farms H.T.(Jul 2019),2,-78.036232,39.191025,294 Longmarsh Rd,Hunt Club Farms,Berryville,VA,22611,http://www.huntclubfarms.net
17637,"MAY 14-15, 2021",Hunt Club Farms  ,Hunt Club Farms H.T.(Jul 2020),2,-78.036232,39.191025,294 Longmarsh Rd,Hunt Club Farms,Berryville,VA,22611,http://www.huntclubfarms.net
17709,"JULY 30-31, 2021",Hunt Club Farms   ,Hunt Club Farms H.T.(Oct 2020),2,-78.036232,39.191025,294 Longmarsh Rd,Hunt Club Farms,Berryville,VA,22611,http://www.huntclubfarms.net
17637,"MAY 14-15, 2021",Hunt Club Farms  ,Hunt Club Farms May Starter Horse Trials,2,-78.036232,39.191025,294 Longmarsh Rd,Hunt Club Farms,Berryville,VA,22611,http://www.huntclubfarms.net
17709,"JULY 30-31, 2021",Hunt Club Farms   ,Hunt Club Farms-Eventing For The Cure!,2,-78.036232,39.191025,294 Longmarsh Rd,Hunt Club Farms,Berryville,VA,22611,http://www.huntclubfarms.net
17403,"JULY 11-12, 2020",Huntington Farm  ,Needs Key Lookup,1,-72.354309,43.834476,130 Justin Morrill Hwy,Huntington Farm,South Strafford,VT,5070,http://www.area1usea.org
17433,16-Aug,Huntington Farm  ,WindRidge Farm HT,1,-72.354309,43.834476,130 Justin Morrill Hwy,Huntington Farm,South Strafford,VT,5070,http://www.area1usea.org
17699,"JULY 10-11, 2021",Huntington Farm   ,WindRidge Farm HT,1,-72.354309,43.834476,130 Justin Morrill Hwy,Huntington Farm,South Strafford,VT,5070,http://www.area1usea.org
17735,22-Aug,Huntington Farm   ,WindRidge Farm HT,1,-72.354309,43.834476,130 Justin Morrill Hwy,Huntington Farm,South Strafford,VT,5070,http://www.area1usea.org
17353,"AUGUST 7-9, 2020",IEA,Needs Key Lookup,8,-86.041138,39.307491,"Hoosier Horse Park, Camp Atterbury",Hoosier Horse Park,Edinburgh,IN,46124,http://www.indyeventers.org/
17657,"JUNE 3-6, 2021","IEA  , Classic Training & Novice 3-Day Event",Needs Key Lookup,8,-86.041138,39.307491,"Hoosier Horse Park, Camp Atterbury",Hoosier Horse Park,Edinburgh,IN,46124,http://www.indyeventers.org/
17386,"JUNE 26-28, 2020",Inavale Farm HT ,Needs Key Lookup,7,-123.381601,44.501595,31786 Horse Farm Lane,Inavale Farm,Philomath,OR,97370,http://www.inavalefarm.com
17684,"JUNE 25-27, 2021",Inavale Farm HT ,Needs Key Lookup,7,-123.381601,44.501595,31786 Horse Farm Lane,Inavale Farm,Philomath,OR,97370,http://www.inavalefarm.com
17626,"MAY 5-9, 2021",Jersey Fresh International ,Jersey Fresh International Three-day Event,2,-74.498207,40.193207,626 Rte 524,The Horsepark of New Jersey,Allentown,NJ,8501,http://www.jfi3d.com
17331,"MAY 6-10, 2020",Jersey Fresh International Three-day Event,Jersey Fresh International Three-day Event,2,-74.498207,40.193207,626 Rte 524,The Horsepark of New Jersey,Allentown,NJ,8501,http://www.jfi3d.com
17469,"SEPTEMBER 25-27, 2020",Jump Start  ,Needs Key Lookup,8,-84.602646,38.045734,4201 Versailles Rd,KHP - Keeneland Park,Lexington,KY,40510,https://keeneland.ponyclub.org
17771,"OCTOBER 1-3, 2021",Jump Start   ,Needs Key Lookup,8,-84.602646,38.045734,4201 Versailles Rd,KHP - Keeneland Park,Lexington,KY,40510,https://keeneland.ponyclub.org
17483,4-Oct,Kent School Fall  ,Kent School Fall H.T.(Oct 2019),1,-72.738304,41.573502,30 Westwoods Rd.,Kent School,Kent,CT,6359,http://www.area1usea.org/Resources/Links/Kent/Kentpage.htm
17782,10-Oct,Kent School Spring,Kent School Horse Trials,1,-72.738304,41.573502,30 Westwoods Rd.,Kent School,Kent,CT,6359,http://www.area1usea.org/Resources/Links/Kent/Kentpage.htm
17382,21-Jun,Kent School Spring,Kent School Horse Trials,1,-72.738304,41.573502,30 Westwoods Rd.,Kent School,Kent,CT,6359,https://area1usea.org/competitions/sanctioned-events/
17382,21-Jun,Kent School Spring,Kent School Fall H.T.(Oct 2019),1,-72.738304,41.573502,30 Westwoods Rd.,Kent School,Kent,CT,6359,https://area1usea.org/competitions/sanctioned-events/
17680,20-Jun,Kent School Spring   ,Kent School Horse Trials,1,-72.738304,41.573502,30 Westwoods Rd.,Kent School,Kent,CT,6359,https://area1usea.org/competitions/sanctioned-events/
17324,"APRIL 22-26, 2020",Land Rover Kentucky Three-Day Event ,Needs Key Lookup,8,-84.5168,38.151688,4089 Iron Works Pkwy,Kentucky Horse Park,Lexington,KY,40511,https://kentuckythreedayevent.com/
17617,"APRIL 21-25, 2021",Land Rover Kentucky Three-Day Event ,Needs Key Lookup,8,-84.5168,38.151688,4089 Iron Works Pkwy,Kentucky Horse Park,Lexington,KY,40511,https://kentuckythreedayevent.com/
17376,14-Jun,Larkin Hill,Larkin Hill HT,1,-73.644314,42.479086,114 Woodward Rd,Larkin Hill Farm,Nassau,NY,12123,http://www.larkinhill.com
17410,"JULY 4-5, 2020",Larkin Hill,Larkin Hill HT,1,-73.644314,42.479086,114 Woodward Rd,Larkin Hill Farm,Nassau,NY,12123,http://www.larkinhill.com
17475,"SEPTEMBER 26-27, 2020",Larkin Hill  ,Larkin Hill HT,1,-73.644314,42.479086,114 Woodward Rd,Larkin Hill Farm,Nassau,NY,12123,http://www.larkinhill.com
17767,26-Sep,Larkin Hill  ,Larkin Hill HT,1,-73.644314,42.479086,114 Woodward Rd,Larkin Hill Farm,Nassau,NY,12123,http://www.larkinhill.com
17694,"JULY 3-4, 2021",Larkin Hill    ,Larkin Hill HT,1,-73.644314,42.479086,114 Woodward Rd,Larkin Hill Farm,Nassau,NY,12123,http://www.larkinhill.com
17489,"OCTOBER 10-11, 2020",Las Cruces  ,Needs Key Lookup,10,-106.698944,32.452377,65 County Rd D-66,Isaacks Ranch,Las Cruces,NM,88012,http://www.lchanm.us
17320,"APRIL 18-19, 2020",Longleaf Pine  ,Long Leaf Pine Horse Trials - CHP,2,-79.366325,35.01506,2814 Montrose Rd,Carolina Horse Park,Raeford,NC,28376,http://www.carolinahorsepark.com/
17615,"APRIL 17-18, 2021",Longleaf Pine  ,Long Leaf Pine Horse Trials - CHP,2,-79.366325,35.01506,2814 Montrose Rd,Carolina Horse Park,Raeford,NC,28376,http://www.carolinahorsepark.com/
17325,"APRIL 25-26, 2020",Loudoun Hunt Pony Club Spring  ,Loudoun Hunt Pony Club Spring Horse Trial (April 2,2,-77.555274,39.145424,41793 Tutt Lane,Morven Park Equestrian Center,Leesburg,VA,20176,https://loudounhunt.ponyclub.org/pages/334.aspx
17619,"APRIL 24-25, 2021",Loudoun Hunt Pony Club Spring  ,Loudoun Hunt Pony Club Spring Horse Trial (April 2,2,-77.555274,39.145424,41793 Tutt Lane,Morven Park Equestrian Center,Leesburg,VA,20176,https://loudounhunt.ponyclub.org/pages/334.aspx
17391,"JUNE 27-28, 2020",Loudoun Hunt Pony Club Summer  ,Loudoun Hunt Pony Club Summer H.T.,2,-77.555274,39.145424,41793 Tutt Lane,Morven Park Equestrian Center,Leesburg,VA,20176,https://loudounhunt.ponyclub.org/pages/542.aspx
17689,"JUNE 26-27, 2021",Loudoun Hunt Pony Club Summer   ,Loudoun Hunt Pony Club Summer H.T.,2,-77.555274,39.145424,41793 Tutt Lane,Morven Park Equestrian Center,Leesburg,VA,20176,https://loudounhunt.ponyclub.org/pages/542.aspx
17639,"MAY 15-16, 2021",Majestic Oaks Ocala    ,Majestic Oaks Schooling Show,3,-82.213234,29.403458,17500 N US Hwy 441,Exmoor Farm,Reddick,FL,32686,http://majesticoaksocala.com
17804,"NOVEMBER 13-14, 2021", Horse Trials at Majestic Oaks,Majestic Oaks Horse Trials,3,-82.213234,29.403458,17500 N US Hwy 441,Exmoor Farm,Reddick,FL,32686,http://www.MajesticOaksOcala.com
17268,"JANUARY 10-12, 2020", Horse Trials at Majestic Oaks ,Majestic Oaks June Schooling Show,3,-82.213234,29.403458,17500 N US Hwy 441,Exmoor Farm,Reddick,FL,32686,http://majesticoaksocala.com
17338,"MAY 9-10, 2020", Horse Trials at Majestic Oaks ,Majestic Oaks Schooling Horse Trials,3,-82.213234,29.403458,17500 N US Hwy 441,Exmoor Farm,Reddick,FL,32686,http://majesticoaksocala.com
17299,3-Oct, Horse Trials at Majestic Oaks ,Majestic Oaks Schooling Show,3,-82.213234,29.403458,17500 N US Hwy 441,Exmoor Farm,Reddick,FL,32686,http://majesticoaksocala.com
17466,20-Sep,Marlborough H.T,Marlborough Horse Trials,2,-76.77887,38.779716,Rosaryville State Park,Rosaryville State Park,Upper Marlboro,MD,20772,http://www.marlboroughhorsetrials.org
17760,"SEPTEMBER 18-19, 2021",Marlborough H.T ,Marlborough Starter H.T.,2,-76.77887,38.779716,Rosaryville State Park,Rosaryville State Park,Upper Marlboro,MD,20772,http://www.marlboroughhorsetrials.org
17495,"OCTOBER 14-18, 2020",Maryland 5 Star at Fair Hill,Fair Hill International April Horse Trials,2,-75.839974,39.685218,400 Gallaher Rd,Fair Hill - Gallaher,Elkton,MD,21921,http://www.fairhillinternational.org
17784,"OCTOBER 13-17, 2021",Maryland 5 Star at Fair Hill,Fair Hill International August Horse Trials,2,-75.839974,39.685218,400 Gallaher Rd,Fair Hill - Gallaher,Elkton,MD,21921,http://www.fairhillinternational.org
17495,"OCTOBER 14-18, 2020",Maryland 5 Star at Fair Hill,Fair Hill International CCI****/***,2,-75.839974,39.685218,400 Gallaher Rd,Fair Hill - Gallaher,Elkton,MD,21921,http://www.fairhillinternational.org
17495,"OCTOBER 14-18, 2020",Maryland 5 Star at Fair Hill,Fair Hill International H.T.(May 2019),2,-75.839974,39.685218,400 Gallaher Rd,Fair Hill - Gallaher,Elkton,MD,21921,http://www.fairhillinternational.org
17495,"OCTOBER 14-18, 2020",Maryland 5 Star at Fair Hill,Fair Hill International June Starter HT,2,-75.839974,39.685218,400 Gallaher Rd,Fair Hill - Gallaher,Elkton,MD,21921,http://www.fairhillinternational.org
17495,"OCTOBER 14-18, 2020",Maryland 5 Star at Fair Hill,Fair Hill International May Starter HT,2,-75.839974,39.685218,400 Gallaher Rd,Fair Hill - Gallaher,Elkton,MD,21921,http://www.fairhillinternational.org
17495,"OCTOBER 14-18, 2020",Maryland 5 Star at Fair Hill,Fair Hill Starter Horse Trials ,2,-75.839974,39.685218,400 Gallaher Rd,Fair Hill - Gallaher,Elkton,MD,21921,http://www.fairhillinternational.org
17495,"OCTOBER 14-18, 2020",Maryland 5 Star at Fair Hill,Fair Hill Starter Horse Trials (September 2019),2,-75.839974,39.685218,400 Gallaher Rd,Fair Hill - Gallaher,Elkton,MD,21921,http://www.fairhillinternational.org
17348,"MAY 22-24, 2020",May-Daze at the Park  ,Needs Key Lookup,8,-84.5168,38.151688,4089 Iron Works Pkwy,Kentucky Horse Park,Lexington,KY,40511,http://www.champagnerun.com
17649,"MAY 28-30, 2021",May-Daze at the Park  ,Needs Key Lookup,8,-84.5168,38.151688,4089 Iron Works Pkwy,Kentucky Horse Park,Lexington,KY,40511,http://www.champagnerun.com
17645,"MAY 22-23, 2021",MCTA   at Shawan Downs,Needs Key Lookup,2,-76.695723,39.496716,1401 Shawan Rd.,Shawan Downs,Cockeysville,MD,21030,http://www.mdcta.com/
17329,"MAY 2-3, 2020","MCTA  , Inc","MCTA H.T., Inc(May 2019)",2,-76.695723,39.496716,1401 Shawan Rd.,Shawan Downs,Cockeysville,MD,21030,http://www.mdcta.com/
17298,"MARCH 13-15, 2020",MeadowCreek Park,Meadow Creek Park - The Spring Social Event,5,-96.640597,31.26988,1332 Highway 14 South,Meadowcreek Park,Kosse,TX,76653,http://www.MCPTexas.com
17589,"MARCH 13-14, 2021",MeadowCreek Park - The Spring Social Event,Meadowcreek Park HT-The Fall Social Event,5,-96.640597,31.26988,1332 Highway 14 South,Meadowcreek Park,Kosse,TX,76653,http://www.MCPTexas.com
17464,"SEPTEMBER 19-20, 2020",MeadowCreek Park H.T - The Fall Social Event,Meadowcreek Park HT-The Fall Social Event,5,-96.640597,31.26988,1332 Highway 14 South,Meadowcreek Park,Kosse,TX,76653,http://www.MCPTexas.com
17762,"SEPTEMBER 18-19, 2021",MeadowCreek Park H.T - The Fall Social Event ,Meadowcreek Park HT-The Fall Social Event,5,-96.640597,31.26988,1332 Highway 14 South,Meadowcreek Park,Kosse,TX,76653,http://www.MCPTexas.com
17525,"AUGUST 15-16, 2020",Metamora Hunt II Pony Club  ,Needs Key Lookup,8,-85.982407,42.132523,79561 Stapleton Rd,Chardon Valley Farm,Decatur,MI,49045,http://www.huntersrunfarm.com/
17730,"AUGUST 21-22, 2021",Metamora Hunt II Pony Club  ,Needs Key Lookup,8,-85.982407,42.132523,79561 Stapleton Rd,Chardon Valley Farm,Decatur,MI,49045,http://www.huntersrunfarm.com/
17816,"MAY 8-9, 2021",Miami Valley at Twin Towers,Needs Key Lookup,8,-80.908832,40.807526,31407 Schneider Rd,Stone Gate Farm,Hanoverton,OH,44423,http://
17488,10-Oct,Middle Tennessee Pony Club  ,Needs Key Lookup,3,-86.890627,36.055367,2500 Old Hickory Blvd,Percy Warner Park Eq Center,Nashville,TN,37221,https://middletennessee.ponyclub.org
17773,2-Oct,Middle Tennessee Pony Club  ,Needs Key Lookup,3,-86.890627,36.055367,2500 Old Hickory Blvd,Percy Warner Park Eq Center,Nashville,TN,37221,https://middletennessee.ponyclub.org
17378,"JUNE 19-21, 2020",Midsouth Pony Club  ,Bath Pony Club Mini Trial,8,-84.5168,38.151688,4089 Iron Works Pkwy,Kentucky Horse Park,Lexington,KY,40511,https://midsouth.ponyclub.org/
17685,"JUNE 25-27, 2021",Midsouth Pony Club  ,Bath Pony Club Mini Trial,8,-84.5168,38.151688,4089 Iron Works Pkwy,Kentucky Horse Park,Lexington,KY,40511,https://midsouth.ponyclub.org/
17339,25-Jul,Mill Creek Pony Club,Fox River Valley Pony Club HT,4,-94.475287,38.893713,12600 Old Raytown Rd,Longview Horse Park,Grandview,MO,64146,http://millcreek.ponyclub.org
17640,"MAY 15-16, 2021",Mill Creek Pony Club,Fox River Valley Pony Club HT,4,-94.475287,38.893713,12600 Old Raytown Rd,Longview Horse Park,Grandview,MO,64146,http://millcreek.ponyclub.org
17414,"JULY 30 - AUGUST 2, 2020",Millbrook  ,Millbrook H.T.(Aug 2019),1,-73.61338,41.861046,1031 Bangall-Amenia Rd,Riga Meadow at Coole Park,Millbrook,NY,12545,http://www.millbrookhorsetrials.com/
17716,"AUGUST 5-8, 2021",Millbrook   ,Millbrook H.T.(Aug 2019),1,-73.61338,41.861046,1031 Bangall-Amenia Rd,Riga Meadow at Coole Park,Millbrook,NY,12545,http://www.millbrookhorsetrials.com/
17801,"OCTOBER 2-3, 2021",Moqui Meadows   ,Needs Key Lookup,9,-105.073921,40.39275,8445 E County Rd,,Loveland,CO,80534,www.useventing.com
17777,"OCTOBER 6-10, 2021",Morven Park Fall International ,Morven Park Fall International H.T. & CCIS,2,-77.555274,39.145424,41793 Tutt Lane,Morven Park Equestrian Center,Leesburg,VA,20176,http://www.morvenpark.org
17476,"OCTOBER 1-4, 2020",Morven Park Fall International   & CCIS,Morven Park Fall International H.T. & CCIS-2/3/4*,2,-77.555274,39.145424,41793 Tutt Lane,Morven Park Equestrian Center,Leesburg,VA,20176,http://www.morvenpark.org
17307,"NOVEMBER 14-15, 2020",Morven Park Spring  ,Morven Park Spring Horse Trials,2,-77.555274,39.145424,41793 Tutt Lane,Morven Park Equestrian Center,Leesburg,VA,20176,http://www.morvenpark.org
17599,"MARCH 27-28, 2021",Morven Park Spring  ,Morven Park Spring Horse Trials,2,-77.555274,39.145424,41793 Tutt Lane,Morven Park Equestrian Center,Leesburg,VA,20176,http://www.morvenpark.org
17652,29-May,Mystic Valley Hunt Club  ,Fox River Valley Pony Club HT,1,-72.040755,41.404597,645 Long Cove Rd,Mystic Valley Hunt Club,Gales Ferry,CA,6335,http://www.info@mvhchorse.com/
17350,23-May,Mystic Valley Hunt Club.,Needs Key Lookup,1,-72.040755,41.404597,645 Long Cove Rd,Mystic Valley Hunt Club,Gales Ferry,CA,6335,http://www.info@mvhchorse.com/
17361,31-May,NJ Region's  ,NJ Region's H.T.(June 2019),2,-74.498207,40.193207,626 Rte 524,The Horsepark of New Jersey,Allentown,NJ,8501,https://www.njregionponyclub.org/nj-regions-horse-trials--5-31-2020.html
17665,6-Jun,NJ Region's    ,NJ Region's H.T.(June 2019),2,-74.498207,40.193207,626 Rte 524,The Horsepark of New Jersey,Allentown,NJ,8501,https://www.njregionponyclub.org/
17787,"OCTOBER 16-17, 2021",Ocala Fall  ,Ocala Fall HT(Oct 2019),3,-82.139862,29.056026,11008 S Hwy 475,Florida Horse Park,Ocala ,FL,34480,https://flhorsepark.com/
17490,"OCTOBER 10-11, 2020",Ocala Fall HT,Ocala Fall HT(Oct 2020),3,-82.139862,29.056026,11008 S Hwy 475,Florida Horse Park,Ocala ,FL,34480,https://flhorsepark.com/
17313,"APRIL 8-12, 2020",Ocala International 3-Day Festival of Eventing,Ocala International 3-Day Festival of Eventing,3,-82.139862,29.056026,11008 S Hwy 475,Florida Horse Park,Ocala ,FL,34480,http://www.flhorsepark.com
17611,"APRIL 15-18, 2021",Ocala International Festival of Eventing,Ocala Jockey Club International 3-Day Event,3,-82.139862,29.056026,11008 S Hwy 475,Florida Horse Park,Ocala ,FL,34480,http://www.flhorsepark.com
17517,"NOVEMBER 12-15, 2020",Ocala Jockey Club 3-Day International Event,Ocala Summer H.T. I(June 2019),3,-82.27048,29.40728,8720 W Hwy 318,Ocala Jockey Club,Reddick,FL,32686,http://www.OJC3DE.com
17358,"SEPTEMBER 12-13, 2020",Ocala Summer   I,Ocala Summer H.T. I(Sep 2020) RESCHEDULED ,3,-82.139862,29.056026,11008 S Hwy 475,Florida Horse Park,Ocala ,FL,34480,https://flhorsepark.com/ocala-eventing-series/
17431,"AUGUST 15-16, 2020",Ocala Summer   II,Ocala Summer H.T. II(Aug 2019),3,-82.139862,29.056026,11008 S Hwy 475,Florida Horse Park,Ocala ,FL,34480,https://flhorsepark.com/ocala-eventing-series/
17662,"JUNE 5-6, 2021",Ocala Summer I  ,Ocala Summer H.T. II(Aug 2020),3,-82.139862,29.056026,11008 S Hwy 475,Florida Horse Park,Ocala ,FL,34480,https://flhorsepark.com/ocala-eventing-series/
17729,"AUGUST 21-22, 2021",Ocala Summer II  ,Ocala Winter I H.T. ,3,-82.139862,29.056026,11008 S Hwy 475,Florida Horse Park,Ocala ,FL,34480,https://flhorsepark.com/ocala-eventing-series/
17278,"FEBRUARY 6-9, 2020",Ocala Winter I  ,Ocala Winter I Horse Trials,3,-82.139862,29.056026,11008 S Hwy 475,Florida Horse Park,Ocala ,FL,34480,http://www.flhorsepark.com
17572,"FEBRUARY 11-14, 2021",Ocala Winter I  ,Ocala Winter II H.T.(Mar 2020),3,-82.139862,29.056026,11008 S Hwy 475,Florida Horse Park,Ocala ,FL,34480,http://www.flhorsepark.com
17295,"MARCH 12-15, 2020",Ocala Winter II  ,Ocala Winter II Horse Trials,3,-82.139862,29.056026,11008 S Hwy 475,Florida Horse Park,Ocala ,FL,34480,http://www.flhorsepark.com
17592,"MARCH 18-21, 2021",Ocala Winter II  ,Ocala Winter I H.T. ,3,-82.139862,29.056026,11008 S Hwy 475,Florida Horse Park,Ocala ,FL,34480,http://www.flhorsepark.com
17799,"SEPTEMBER 25-26, 2021",Old Tavern   ,Needs Key Lookup,2,-77.736947,38.990605,36800 Glenwood Park Lane,Glenwood Park,Middleburg,VA,20117,http://www.mocpony.club
17420,2-Aug,Olney Farm  ,Olney Farm Horse Trials,2,-76.371651,39.47731,1001 Old Joppa Road,Olney Farm,Joppa,MD,21085,http://www.olneyfarm.com
17715,1-Aug,Olney Farm   ,Olney Farm Horse Trials,2,-76.371651,39.47731,1001 Old Joppa Road,Olney Farm,Joppa,MD,21085,http://www.olneyfarm.com
17453,"SEPTEMBER 11-13, 2020",Otter Creek Fall   ,Otter Creek Fall Horse Trial,4,-91.896561,45.103241,Otter Creek Farm 1170th Ave,Otter Creek Farm,Wheeler,WI,54772,http://www.ottercreekfarm.com/
17757,"SEPTEMBER 17-19, 2021",Otter Creek Fall   ,Otter Creek Fall Horse Trial,4,-91.896561,45.103241,Otter Creek Farm 1170th Ave,Otter Creek Farm,Wheeler,WI,54772,http://www.ottercreekfarm.com/
17342,"MAY 15-17, 2020",Otter Creek Spring  ,Otter Creek Spring H.T.(May 2019),4,-91.896561,45.103241,Otter Creek Farm 1170th Ave,Otter Creek Farm,Wheeler,WI,54772,http://www.ottercreekfarm.com/
17641,"MAY 21-23, 2021",Otter Creek Spring  ,Otter Creek Summer HT,4,-91.896561,45.103241,Otter Creek Farm 1170th Ave,Otter Creek Farm,Wheeler,WI,54772,http://www.ottercreekfarm.com/
17423,"AUGUST 7-9, 2020",Otter Creek Summer  ,Otter Creek Summer HT,4,-91.896561,45.103241,Otter Creek Farm 1170th Ave,Otter Creek Farm,Wheeler,WI,54772,http://www.ottercreekfarm.com
17724,"AUGUST 13-15, 2021",Otter Creek Summer  ,Otter Creek Summer HT,4,-91.896561,45.103241,Otter Creek Farm 1170th Ave,Otter Creek Farm,Wheeler,WI,54772,http://www.ottercreekfarm.com
17281,"FEBRUARY 14-16, 2020",Paradise Farm   ,Paradise Farm H.T.(Oct 2019),3,-81.557846,33.578014,4069 Wagener Rd.,Paradise Farm,Aiken,SC,29805,http://www.paradisefarmaiken.com
17576,"FEBRUARY 19-21, 2021",Paradise Farm   ,Paradise Farm Horse Trials (February 2019),3,-81.557846,33.578014,4069 Wagener Rd.,Paradise Farm,Aiken,SC,29805,http://www.paradisefarmaiken.com
17408,"JULY 18-19, 2020",Penny Oaks  ,Penny Oaks Horse Trials,8,-86.041138,39.307491,"Hoosier Horse Park, Camp Atterbury",Hoosier Horse Park,Edinburgh,IN,46124,http://www.pennyoaksstables.com
17497,17-Oct,Pine Hill Fall  ,Holly Hill Fall Horse Trials,5,-96.239609,29.958752,1720 Hwy 159 East Bellville,Pine Hill,Bellville,TX,77418,http://www.pinehilltexas.com/
17786,16-Oct,Pine Hill Fall  ,Holly Hill Fall Horse Trials,5,-96.239609,29.958752,1720 Hwy 159 East Bellville,Pine Hill,Bellville,TX,77418,http://www.pinehilltexas.com/
17310,4-Apr,Pine Hill Spring  ,Pine Top Spring Horse Trials,5,-96.239609,29.958752,1720 Hwy 159 East Bellville,Pine Hill,Bellville,TX,77418,http://www.pinehilltexas.com/
17604,"APRIL 3-4, 2021",Pine Hill Spring  ,Pine Top Spring Horse Trials,5,-96.239609,29.958752,1720 Hwy 159 East Bellville,Pine Hill,Bellville,TX,77418,http://www.pinehilltexas.com/
17284,"FEBRUARY 21-23, 2020",Pine Top Advanced  ,Pine Top Advanced Horse Trials,3,-82.466227,33.453217,1432 Augusta Hwy,Pine Top Farm,Thomson,GA,30824,http://www.pinetopfarm.com
17577,"FEBRUARY 26-28, 2021",Pine Top Advanced  ,Pine Top Intermediate Horse Trials,3,-82.466227,33.453217,1432 Augusta Hwy,Pine Top Farm,Thomson,GA,30824,http://www.pinetopfarm.com
17279,"FEBRUARY 7-9, 2020",Pine Top Intermediate  ,Pine Top Spring Horse Trials,3,-82.466227,33.453217,1432 Augusta Hwy,Pine Top Farm,Thomson,GA,30824,http://www.pinetopfarm.com/#home0
17573,"FEBRUARY 12-14, 2021",Pine Top Intermediate  ,Pine Top Thanksgiving Horse Trials,3,-82.466227,33.453217,1432 Augusta Hwy,Pine Top Farm,Thomson,GA,30824,http://www.pinetopfarm.com/#home0
17296,"MARCH 13-15, 2020",Pine Top Spring  ,Pine Top Spring Horse Trials,3,-82.466227,33.453217,1432 Augusta Hwy,Pine Top Farm,Thomson,GA,30824,http://www.pinetopfarm.com/
17593,"MARCH 19-21, 2021",Pine Top Spring  ,Pine Top Spring Horse Trials,3,-82.466227,33.453217,1432 Augusta Hwy,Pine Top Farm,Thomson,GA,30824,http://www.pinetopfarm.com/
17526,"NOVEMBER 28-29, 2020",Pine Top Thanksgiving  ,Pine Top Thanksgiving Horse Trials,3,-82.466227,33.453217,1432 Augusta Hwy,Pine Top Farm,Thomson,GA,30824,http://www.pinetopfarm.com
17812,"NOVEMBER 27-28, 2021",Pine Top Thanksgiving    ,Pine Top Thanksgiving Horse Trials,3,-82.466227,33.453217,1432 Augusta Hwy,Pine Top Farm,Thomson,GA,30824,http://www.pinetopfarm.com
17364,"JUNE 5-6, 2020",Plantation Field  ,Plantation Field H.T.(June 2019),2,-75.787444,39.908737,450 Apple Grove Rd.,Plantation Field,Coatesville,PA,19320,http://www.Plantationfield.com
17663,5-Jun,Plantation Field   ,Plantation Field H.T.(June 2020),2,-75.787444,39.908737,450 Apple Grove Rd.,Plantation Field,Coatesville,PA,19320,http://www.Plantationfield.com
17321,"APRIL 18-19, 2020",Plantation Field April  ,Plantation Field International,2,-75.787444,39.908737,450 Apple Grove Rd.,Plantation Field,Coatesville,PA,19320,http://www.plantationfield.com
17616,"APRIL 17-18, 2021",Plantation Field April  ,Plantation Field International CCI-S(Sep 2020),2,-75.787444,39.908737,450 Apple Grove Rd.,Plantation Field,Coatesville,PA,19320,http://www.plantationfield.com
17461,"SEPTEMBER 16-20, 2020",Plantation Field International CCI-S,Plantation Field June Starter Horse Trials,2,-75.787444,39.908737,450 Apple Grove Rd.,Plantation Field,Coatesville,PA,19320,http://plantationfield.com
17753,"SEPTEMBER 15-19, 2021",Plantation Field International CCI-S  ,Plantation Field May HT,2,-75.787444,39.908737,450 Apple Grove Rd.,Plantation Field,Coatesville,PA,19320,http://plantationfield.com
17336,9-May,Plantation Field May  ,Plantation Field May Starter Horse Trials,2,-75.787444,39.908737,450 Apple Grove Rd.,Plantation Field,Coatesville,PA,19320,http://www.plantationfield.com
17628,8-May,Plantation Field May   ,Plantation Field Nov. Starter Horse Trials,2,-75.787444,39.908737,450 Apple Grove Rd.,Plantation Field,Coatesville,PA,19320,http://www.plantationfield.com
17628,8-May,Plantation Field May   ,Plantation Field October Starter Horse Trials,2,-75.787444,39.908737,450 Apple Grove Rd.,Plantation Field,Coatesville,PA,19320,http://www.plantationfield.com
17628,8-May,Plantation Field May   ,Plantation Field Spring Horse Trials (Apr 2019),2,-75.787444,39.908737,450 Apple Grove Rd.,Plantation Field,Coatesville,PA,19320,http://www.plantationfield.com
17355,"OCTOBER 2-4, 2020",Poplar Place Farm   ,Poplar Place Farm H.T.  & Area Championships,3,-84.865074,32.702297,8191 US Highway 27 E,Poplar Place Farm,Hamilton,GA,31811,http://www.poplarplacefarm.com/
17780,"OCTOBER 9-10, 2021",Poplar Place Farm   ,Poplar Place Farm June HT & Area Championships,3,-84.865074,32.702297,8191 US Highway 27 E,Poplar Place Farm,Hamilton,GA,31811,http://www.poplarplacefarm.com/
17664,"JUNE 5-6, 2021",Poplar Place Farm June  ,Poplar Place Farm May H.T.(JULY 2020),3,-84.865074,32.702297,8191 US Highway 27 E,Poplar Place Farm,Hamilton,GA,31811,http://www.poplarplacefarm.com/
17300,"MARCH 21-22, 2020",Poplar Place Farm March  ,Poplar Place Farm September HorseTrials,3,-84.865074,32.702297,8191 US Highway 27 E,Poplar Place Farm,Hamilton,GA,31811,http://www.poplarplacefarm.com/
17600,"MARCH 27-28, 2021",Poplar Place Farm March  ,Poplar Place March Horse Trials (2019),3,-84.865074,32.702297,8191 US Highway 27 E,Poplar Place Farm,Hamilton,GA,31811,http://www.poplarplacefarm.com/
17630,"MAY 8-9, 2021",Poplar Place Farm May   ,Poplar Place May Horse Trials,3,-84.865074,32.702297,8191 US Highway 27 E,Poplar Place Farm,Hamilton,GA,31811,http://www.poplarplacefarm.com/
17330,"JULY 11-12, 2020",Poplar Place Farm May (July)  ,Poplar Place Farm May H.T.(JULY 2020),3,-84.865074,32.702297,8191 US Highway 27 E,Poplar Place Farm,Hamilton,GA,31811,http://www.poplarplacefarm.com/
17458,"SEPTEMBER 12-13, 2020",Poplar Place Farm September  ,Poplar Place Farm September HorseTrials,3,-84.865074,32.702297,8191 US Highway 27 E,Poplar Place Farm,Hamilton,GA,31811,http://www.poplarplacefarm.com
17404,"JULY 11-12, 2020",Powder Basin  ,Needs Key Lookup,9,-105.444402,44.279338,Camplex Equestrian Park,Camplex Equestrian Park,Gillette,WY,82718,http://www.powderbasinequestrian.com/
17700,"JULY 10-11, 2021",Powder Basin   ,Needs Key Lookup,9,-105.444402,44.279338,Camplex Equestrian Park,Camplex Equestrian Park,Gillette,WY,82718,http://www.powderbasinequestrian.com/
17372,"JUNE 13-14, 2020",Queeny Park  ,Needs Key Lookup,4,-90.495112,38.60505,555 Weidman Rd.,Edgar M. Queeny County Park,Ballwin,MO,63011,http://www.qpee.org
17669,"JUNE 12-13, 2021",Queeny Park  ,Needs Key Lookup,4,-90.495112,38.60505,555 Weidman Rd.,Edgar M. Queeny County Park,Ballwin,MO,63011,http://www.qpee.org
17776,9-Oct,Radnor Hunt,Radnor Hunt Horse Trials,2,-75.483719,39.995613,826 Providence Rd,Radnor Hunt Field,Malvern,PA,19355,http://www.radnorhuntht.org
17487,10-Oct,Radnor Hunt  ,Radnor Hunt Horse Trials,2,-75.483719,39.995613,826 Providence Rd,Radnor Hunt Field,Malvern,PA,19355,http://www.radnorhuntht.org
17291,"MARCH 5-8, 2020",Red Hills International  ,Red Hills International Horse Trial ,3,-84.30026,30.538531,"Gate B, 1775 Miller Landing Road",Elinor Klapp Phipps Park,Tallahassee,FL,32312,http://www.RHHT.org
17587,"MARCH 11-14, 2021",Red Hills International  ,Red Hills International Horse Trial (March 2019),3,-84.30026,30.538531,"Gate B, 1775 Miller Landing Road",Elinor Klapp Phipps Park,Tallahassee,FL,32312,http://www.RHHT.org
17535,10-May,Riga Meadow at Coole Park Combined Test,Needs Key Lookup,1,-73.425545,42.014503,339 Undermountain Rd.,Riga Meadow Equestrian Center,Salisbury,CT,6068,http://www.area1usea.org/
17513,"NOVEMBER 7-8, 2020",River Glen Fall  ,Needs Key Lookup,3,-83.622204,36.137849,1979 London Rd.,River Glen Equestrian,New Market,TN,37820,http://www.river-glen.com/
17805,"NOVEMBER 12-14, 2021",River Glen Fall    ,Needs Key Lookup,3,-83.622204,36.137849,1979 London Rd.,River Glen Equestrian,New Market,TN,37820,http://www.river-glen.com/
17366,"JUNE 6-7, 2020",River Glen June  ,Needs Key Lookup,3,-83.622204,36.137849,1979 London Rd.,River Glen Equestrian,New Market,TN,37820,http://www.river-glen.com/
17670,"JUNE 12-13, 2021",River Glen June  ,Needs Key Lookup,3,-83.622204,36.137849,1979 London Rd.,River Glen Equestrian,New Market,TN,37820,http://www.river-glen.com/
17322,"APRIL 18-19, 2020",River Glen Spring  ,Needs Key Lookup,3,-83.622204,36.137849,1979 London Rd.,River Glen Equestrian,New Market,TN,37820,http://www.river-glen.com/
17623,"APRIL 30 - MAY 2, 2021",River Glen Spring  ,Needs Key Lookup,3,-83.622204,36.137849,1979 London Rd.,River Glen Equestrian,New Market,TN,37820,http://www.river-glen.com/
17419,"AUGUST 1-2, 2020",River Glen Summer  ,Needs Key Lookup,3,-83.622204,36.137849,1979 London Rd.,River Glen Equestrian,New Market,TN,37820,http://www.river-glen.com/
17720,"AUGUST 6-8, 2021",River Glen Summer   ,Needs Key Lookup,3,-83.622204,36.137849,1979 London Rd.,River Glen Equestrian,New Market,TN,37820,http://www.river-glen.com/
17304,"DECEMBER 5-6, 2020",Rocking Horse December  ,Rocking Horse Fall H.T.(Oct 2020),3,-81.641426,28.993049,44200 S.R. 19 N,Rocking Horse Farm,Altoona,FL,32702,http://www.rockinghorseeventing.com
17511,"OCTOBER 31 - NOVEMBER 1, 2020",Rocking Horse Fall  ,Rocking Horse Fall Horse Trials,3,-81.641426,28.993049,44200 S.R. 19 N,Rocking Horse Farm,Altoona,FL,32702,http://www.rockinghorseeventing.com/
17798,"NOVEMBER 6-7, 2021",Rocking Horse Fall   ,Rocking Horse Spring Horse Trials ,3,-81.641426,28.993049,44200 S.R. 19 N,Rocking Horse Farm,Altoona,FL,32702,http://www.rockinghorseeventing.com/
17288,"FEBRUARY 28 - MARCH 1, 2020",Rocking Horse III  ,Rocking Horse Winter 1 HT,3,-81.641426,28.993049,44200 S.R. 19 N,Rocking Horse Farm,Altoona,FL,32702,http://www.rockinghorseeventing.com
17603,"APRIL 2-4, 2021",Rocking Horse Spring  ,Rocking Horse Winter 2 Horse Trials,3,-81.641426,28.993049,44200 S.R. 19 N,Rocking Horse Farm,Altoona,FL,32702,http://www.rockinghorseeventing.com
17272,"JANUARY 24-26, 2020",Rocking Horse Winter I  ,Rocking Horse Winter I H.T.(Jan 2020),3,-81.641426,28.993049,44200 S.R. 19 N,Rocking Horse Farm,Altoona,FL,32702,http://www.rockinghorseeventing.com/
17566,"JANUARY 29-31, 2021",Rocking Horse Winter I  ,Rocking Horse Winter III Horse Trials,3,-81.641426,28.993049,44200 S.R. 19 N,Rocking Horse Farm,Altoona,FL,32702,http://www.rockinghorseeventing.com/
17280,"FEBRUARY 13-16, 2020",Rocking Horse Winter II Advanced   ,Rocking Horse Winter 1 HT,3,-81.641426,28.993049,44200 S.R. 19 N,Rocking Horse Farm,Altoona,FL,32702,http://www.rockinghorseeventing.com
17575,"FEBRUARY 18-21, 2021",Rocking Horse Winter II Advanced   ,Rocking Horse Winter 1 HT,3,-81.641426,28.993049,44200 S.R. 19 N,Rocking Horse Farm,Altoona,FL,32702,http://www.rockinghorseeventing.com
17583,"MARCH 5-7, 2021",Rocking Horse Winter III  ,Rocking Horse Winter 1 HT,3,-81.641426,28.993049,44200 S.R. 19 N,Rocking Horse Farm,Altoona,FL,32702,http://www.rockinghorseeventing.com
17401,11-Jul,Round Top  ,Needs Key Lookup,9,-104.861244,39.437568,1393 Mesa Ridge Ln,,Castle Rock,CO,80108,www.useventing.com
17697,10-Jul,Round Top  ,Needs Key Lookup,9,-104.861244,39.437568,1393 Mesa Ridge Ln,,Castle Rock,CO,80108,www.useventing.com
17449,"SEPTEMBER 5-6, 2020",Seneca Valley Pony Club  ,Needs Key Lookup,2,-77.360199,39.091164,14401B Partnership Rd,Seneca - Bittersweet Field,Poolesville,MD,20837,http://www.senecavalleyponyclub.org
17738,"AUGUST 28-29, 2021",Seneca Valley Pony Club   ,Needs Key Lookup,2,-77.360199,39.091164,14401B Partnership Rd,Seneca - Bittersweet Field,Poolesville,MD,20837,http://www.senecavalleyponyclub.org
17373,"JUNE 12-14, 2020",Seneca Valley Pony Club Spring  ,Needs Key Lookup,2,-77.360199,39.091164,14401B Partnership Rd,Seneca - Bittersweet Field,Poolesville,MD,20837,http://www.senecavalleyponyclub.org/
17667,"JUNE 11-13, 2021",Seneca Valley Pony Club Spring   ,Needs Key Lookup,2,-77.360199,39.091164,14401B Partnership Rd,Seneca - Bittersweet Field,Poolesville,MD,20837,http://www.senecavalleyponyclub.org/
17436,"AUGUST 21-23, 2020",Shepherd Ranch,Needs Key Lookup,6,-120.067222,34.62442,1460 Hwy 154,Shepherd Ranch,Santa Ynez,CA,93460,http://www.shepherdrancheventing.com
17673,"JUNE 18-20, 2021",Shepherd Ranch,Needs Key Lookup,6,-120.067222,34.62442,1460 Hwy 154,Shepherd Ranch,Santa Ynez,CA,93460,http://www.shepherdrancheventing.com
17736,"AUGUST 27-29, 2021",Shepherd Ranch,Needs Key Lookup,6,-120.067222,34.62442,1460 Hwy 154,Shepherd Ranch,Santa Ynez,CA,93460,http://www.shepherdrancheventing.com
17379,"JUNE 19-21, 2020",Shepherd Ranch SYVPC   I,Needs Key Lookup,6,-120.067222,34.62442,1460 Hwy 154,Shepherd Ranch,Santa Ynez,CA,93460,http://www.shepherdrancheventing.com
17443,29-Aug,Silverwood Farm Fall  ,Silverwood Farm Fall H.T.(Aug 2020),4,-88.155205,42.535473,28426 98th Street,Silverwood Farm,Trevor,WI,53179,http://www.silverwoodfarm.net/
17743,4-Sep,Silverwood Farm Fall  ,Silverwood Farm Fall HT,4,-88.155205,42.535473,28426 98th Street,Silverwood Farm,Trevor,WI,53179,http://www.silverwoodfarm.net/
17560,17-Oct,Silverwood Farm October  ,Silverwood Farm Spring Horse Trials,4,-88.155205,42.535473,28426 98th Street,Silverwood Farm,Trevor,WI,53179,http://www.silverwoodfarm.net/
17368,13-Jun,Silverwood Farm Spring  ,Silverwood Farm Summer Horse Trials,4,-88.155205,42.535473,28426 98th Street,Silverwood Farm,Trevor,WI,53179,http://www.silverwoodfarm.net/
17675,19-Jun,Silverwood Farm Spring  ,Silverwood Farm Unrecognized H.T.,4,-88.155205,42.535473,28426 98th Street,Silverwood Farm,Trevor,WI,53179,http://www.silverwoodfarm.net/
17406,18-Jul,Silverwood Farm Summer  ,Silverwood Farm Summer Horse Trials,4,-88.155205,42.535473,28426 98th Street,Silverwood Farm,Trevor,WI,53179,http://www.silverwoodfarm.net/
17710,24-Jul,Silverwood Farm Summer  ,Silverwood Farm Summer Horse Trials,4,-88.155205,42.535473,28426 98th Street,Silverwood Farm,Trevor,WI,53179,http://www.silverwoodfarm.net/
17397,"JULY 4-5, 2020",South Farm   ,South Farm H.T. (Jul 2019),8,-80.999176,41.44838,8398 Bundysburg Rd.,South Farm,Middlefield,OH,44062,http://www.southfarm.net
17297,"MARCH 21-22, 2020",Southern Arizona   ,Needs Key Lookup,10,-111.6929297,35.144368,Fort TutHill Fairgrounds,Fort Tut Hill Fairgrounds,Flagstaff,AZ,86001,http://www.southernarizonaeventing.org/
17522,"NOVEMBER 21-22, 2020",Southern Arizona   ,Needs Key Lookup,10,-111.6929297,35.144368,Fort TutHill Fairgrounds,Fort Tut Hill Fairgrounds,Flagstaff,AZ,86001,http://www.southernarizonaeventing.org/
17594,"MARCH 20-21, 2021",Southern Arizona   ,Needs Key Lookup,10,-111.6929297,35.144368,Fort TutHill Fairgrounds,Fort Tut Hill Fairgrounds,Flagstaff,AZ,86001,http://www.southernarizonaeventing.org/
17806,"NOVEMBER 20-21, 2021",Southern Arizona    ,Needs Key Lookup,10,-111.6929297,35.144368,Fort TutHill Fairgrounds,Fort Tut Hill Fairgrounds,Flagstaff,AZ,86001,http://www.southernarizonaeventing.org/
17293,"MARCH 7-8, 2020",Southern Pines   ,Southern Pines Horse Trials - Carolina Horse Park,2,-79.366325,35.01506,2814 Montrose Rd,Carolina Horse Park,Raeford,NC,28376,http://www.carolinahorsepark.com/
17586,"MARCH 6-7, 2021",Southern Pines   ,Southern Pines Horse Trials - CHP (Mar 2020),2,-79.366325,35.01506,2814 Montrose Rd,Carolina Horse Park,Raeford,NC,28376,http://www.carolinahorsepark.com/
17332,"MAY 7-10, 2020",Spokane Sport Horse Farm 5th Annual  Spring  ,Needs Key Lookup,7,-117.46257,47.554176,10710 S Sherman Rd,Spokane Sport Horse Farm,Spokane,WA,99224,http://www.spokanesporthorse.com
17768,"SEPTEMBER 30 - OCTOBER 3, 2021",Spokane Sport Horse Seventh Annual Fall   ,Needs Key Lookup,7,-117.46257,47.554176,10710 S Sherman Rd,Spokane Sport Horse Farm,Spokane,WA,99224,http://www.spokanesporthorse.com
17477,"OCTOBER 1-4, 2020",Spokane Sport Horse Sixth Annual Fall  ,Needs Key Lookup,7,-117.46257,47.554176,10710 S Sherman Rd,Spokane Sport Horse Farm,Spokane,WA,99224,http://www.spokanesporthorse.com
17632,"MAY 13-16, 2021",Spokane Sport Horse Spring  ,Rocking Horse Spring Horse Trials ,7,-117.46257,47.554176,10710 S Sherman Rd,Spokane Sport Horse Farm,Spokane,WA,99224,http://www.spokanesporthorse.com
17267,7-Dec,Sporting Days Farm   IV,Sporting Days Farm April Horse Trials (2019),3,-81.59201,33.521385,3549 Charleston Hwy,Sporting Days Farm,Aiken,SC,29801,http://www.sportingdaysfarm.com/
17528,5-Dec,Sporting Days Farm   IV,Sporting Days Farm Feb. HT,3,-81.59201,33.521385,3549 Charleston Hwy,Sporting Days Farm,Aiken,SC,29801,http://www.sportingdaysfarm.com/
17318,18-Apr,Sporting Days Farm April   III ,Sporting Days Farm Horse Trials,3,-81.59201,33.521385,3549 Charleston Hwy,Sporting Days Farm,Aiken,SC,29801,http://www.sportingdaysfarm.com/
17612,17-Apr,Sporting Days Farm April   III ,Sporting Days Farm Horse Trials IV(Dec 2019),3,-81.59201,33.521385,3549 Charleston Hwy,Sporting Days Farm,Aiken,SC,29801,http://www.sportingdaysfarm.com/
17275,1-Feb,Sporting Days Farm February   ,Sporting Days Farm March Horse Trials,3,-81.59201,33.521385,3549 Charleston Hwy,Sporting Days Farm,Aiken,SC,29801,http://www.sportingdaysfarm.com/
17569,6-Feb,Sporting Days Farm February Trials I   ,Sporting Days Farm Horse Trials,3,-81.59201,33.521385,3549 Charleston Hwy,Sporting Days Farm,Aiken,SC,29801,http://www.sportingdaysfarm.com/
17290,"FEBRUARY 29 - MARCH 1, 2020",Sporting Days Farm March   II,Sporting Days Farm March Horse Trials,3,-81.59201,33.521385,3549 Charleston Hwy,Sporting Days Farm,Aiken,SC,29801,http://www.sportingdaysfarm.com/
17585,"MARCH 6-7, 2021",Sporting Days Farm March   II,Sporting Days Farm March Horse Trials,3,-81.59201,33.521385,3549 Charleston Hwy,Sporting Days Farm,Aiken,SC,29801,http://www.sportingdaysfarm.com/
17311,"APRIL 4-5, 2020",Spring Bay  ,Needs Key Lookup,8,-84.5168,38.151688,4089 Iron Works Pkwy,Kentucky Horse Park,Lexington,KY,40511,http://www.kyevents.net
17610,"APRIL 10-11, 2021",Spring Bay  ,Needs Key Lookup,8,-84.5168,38.151688,4089 Iron Works Pkwy,Kentucky Horse Park,Lexington,KY,40511,http://www.kyevents.net
17654,"MAY 29-30, 2021",Spring Coconino    ,Needs Key Lookup,10,-111.6929297,35.144368,Fort TutHill Fairgrounds,Fort Tut Hill Fairgrounds,Flagstaff,AZ,86001,http://www.coconinohorsetrials.com/
17345,"JULY 4-5, 2020",Spring Gulch  ,Spring Gulch Horse Trials,9,-104.995361,39.485371,Hwy 85,Spring Gulch Equestrian Area,Littleton,CO,92065,http://springgulchhorsetrials.com 
17427,"AUGUST 8-9, 2020",Spring Gulch  ,Spring Gulch Horse Trials,9,-104.995361,39.485371,Hwy 85,Spring Gulch Equestrian Area,Littleton,CO,92065,http://www.msea-ccc.org/
17646,"MAY 22-23, 2021",Spring Gulch  ,Spring Gulch Horse Trials,9,-104.995361,39.485371,Hwy 85,Spring Gulch Equestrian Area,Littleton,CO,92065,http://springgulchhorsetrials.com 
17721,"AUGUST 7-8, 2021",Spring Gulch   ,Spring Gulch Horse Trials,9,-104.995361,39.485371,Hwy 85,Spring Gulch Equestrian Area,Littleton,CO,92065,http://www.msea-ccc.org/
17818,"JUNE 25-27, 2021",Spring Hollow Equestrian Park  ,Needs Key Lookup,9,-104.743507,39.436527,7522 South Pinery Drive,Colorado Horse Park Western Arena Complex,Parker,CO,80134,http://www.coloradohorsepark.com/
17819,"OCTOBER 15-17, 2021",Spring Hollow Equestrian Park  ,Needs Key Lookup,9,-104.743507,39.436527,7522 South Pinery Drive,Colorado Horse Park Western Arena Complex,Parker,CO,80134,http://www.coloradohorsepark.com/
17618,"OCTOBER 9-10, 2021",St. Johns,Needs Key Lookup,10,-109.373999,34.51151,"845 W 4th N., St.",St. Johns Equestrian Center,Johns,AZ,85936,http://www.coconinohorsetrials.com
17323,"OCTOBER 10-11, 2020",St. Johns  ,Needs Key Lookup,10,-109.373999,34.51151,"845 W 4th N., St.",St. Johns Equestrian Center,Johns,AZ,85936,http://www.coconinohorsetrials.com
17271,"JANUARY 18-19, 2020",Stable View Aiken Opener  ,Stable View Aiken Opener H.T.,3,-81.799975,33.648594,117 Stable Dr,Stable View Farm,Aiken,SC,29801,http://www.stableviewfarm.com
17565,"JANUARY 23-24, 2021",Stable View Aiken Opener  ,Stable View Eventing Academy (December),3,-81.799975,33.648594,117 Stable Dr,Stable View Farm,Aiken,SC,29801,http://www.stableviewfarm.com
17769,"SEPTEMBER 23-26, 2021",Stable View Oktoberfest  2/3/4* and  ,Stable View Eventing Academy Schooling H.T.,3,-81.799975,33.648594,117 Stable Dr,Stable View Farm,Aiken,SC,29801,http://www.StableViewFarm.com
17470,"SEPTEMBER 24-27, 2020",Stable View Oktoberfest 1/ 2/3/4* and  ,Stable View Eventing Academy Schooling HorseTrial,3,-81.799975,33.648594,117 Stable Dr,Stable View Farm,Aiken,SC,29801,http://www.StableViewFarm.com
17620,"APRIL 24-25, 2021",Stable View Spring  ,Stable View Horse Trials (June),3,-81.799975,33.648594,117 Stable Dr,Stable View Farm,Aiken,SC,29801,http://www.stableviewfarm.com
17595,"MARCH 25-27, 2021",Stable View Spring 1/2/3/4*,Stable View Oktoberfest 1/ 2/3/4* and H.T.,3,-81.799975,33.648594,117 Stable Dr,Stable View Farm,Aiken,SC,29801,http://StableViewFarm.com
17381,"JUNE 19-21, 2020",Stable View Summer   ,Stable View Schooling Horse Trial,3,-81.799975,33.648594,117 Stable Dr,Stable View Farm,Aiken,SC,29801,http://stableviewfarm.com
17686,"JUNE 25-27, 2021",Stable View Summer   ,Stable View Schooling Horse Trial(November),3,-81.799975,33.648594,117 Stable Dr,Stable View Farm,Aiken,SC,29801,http://stableviewfarm.com
17686,"JUNE 25-27, 2021",Stable View Summer   ,Stable View Spring Horse Trials,3,-81.799975,33.648594,117 Stable Dr,Stable View Farm,Aiken,SC,29801,http://stableviewfarm.com
17686,"JUNE 25-27, 2021",Stable View Summer   ,Stable View Spring Horse Trials (2019),3,-81.799975,33.648594,117 Stable Dr,Stable View Farm,Aiken,SC,29801,http://stableviewfarm.com
17686,"JUNE 25-27, 2021",Stable View Summer   ,Stable View Summer Horse Trials,3,-81.799975,33.648594,117 Stable Dr,Stable View Farm,Aiken,SC,29801,http://stableviewfarm.com
17686,"JUNE 25-27, 2021",Stable View Summer   ,Stable View Winter CT - Jan,3,-81.799975,33.648594,117 Stable Dr,Stable View Farm,Aiken,SC,29801,http://stableviewfarm.com
17686,"JUNE 25-27, 2021",Stable View Summer   ,Stableview Eventing Academy- Aug,3,-81.799975,33.648594,117 Stable Dr,Stable View Farm,Aiken,SC,29801,http://stableviewfarm.com
17686,"JUNE 25-27, 2021",Stable View Summer   ,Stableview Eventing Academy- July,3,-81.799975,33.648594,117 Stable Dr,Stable View Farm,Aiken,SC,29801,http://stableviewfarm.com
17459,"SEPTEMBER 12-13, 2020",Stone Gate Farm  ,Needs Key Lookup,8,-80.908832,40.807526,31407 Schneider Rd,Stone Gate Farm,Hanoverton,OH,44423,http://www.stonegatefarm.org
17761,"SEPTEMBER 18-19, 2021",Stone Gate Farm  ,Needs Key Lookup,8,-80.908832,40.807526,31407 Schneider Rd,Stone Gate Farm,Hanoverton,OH,44423,http://www.stonegatefarm.org
17701,"JULY 8-10, 2021","Summer Coconino H.T and Western Underground, Inc TR, N, BN3D",Needs Key Lookup,10,-111.6929297,35.144368,Fort TutHill Fairgrounds,Fort Tut Hill Fairgrounds,Flagstaff,AZ,86001,http://www.coconinohorsetrials.com/
17465,"SEPTEMBER 18-20, 2020",Sundance Farm  ,Needs Key Lookup,4,-88.011779,43.776863,N6329 Branch Road,Sundance Farm,Plymouth,WI,53073,http://www.sundancefarm.net
17772,"OCTOBER 1-3, 2021",Sundance Farm   ,Needs Key Lookup,4,-88.011779,43.776863,N6329 Branch Road,Sundance Farm,Plymouth,WI,53073,http://www.sundancefarm.net
17380,"JUNE 19-21, 2020",Surefire Farm  ,Surefire Farm Horse Trials ,2,-77.741661,39.056019,Jeb Stuart Rd,Surefire Farm,Purcellville,VA,20132,http://www.surefireeventing.com/
17472,"SEPTEMBER 25-27, 2020",Surefire Farm  ,Surefire Horse Trials,2,-77.763374,39.050343,20490 St Louis Rd,Surefire Farm,Purcelville,VA,20132,http://www.surefireeventing.com/
17674,"JUNE 18-20, 2021",Surefire Farm   ,Surefire Farm Horse Trials ,2,-77.741661,39.056019,Jeb Stuart Rd,Surefire Farm,Purcellville,VA,20132,http://www.surefireeventing.com/
17305,"JUNE 19-21, 2020",Texas Rose Horse Park  ,Texas Rose Horse Park Fall HT,5,-95.503062,32.472261,14078 TX-110,Texas Rose Horse Park,Tyler,TX,75704,http://www.texasrosehorsepark.com
17597,"MARCH 26-28, 2021",Texas Rose Horse Park  ,Texas Rose Horse Park H.T.,5,-95.503062,32.472261,14078 TX-110,Texas Rose Horse Park,Tyler,TX,75704,http://www.texasrosehorsepark.com
17634,"MAY 15-16, 2021",Texas Rose Horse Park  ,Texas Rose Horse Park H.T.(Mar 2020),5,-95.503062,32.472261,14078 TX-110,Texas Rose Horse Park,Tyler,TX,75704,http://www.texasrosehorsepark.com
17514,"NOVEMBER 7-8, 2020",Texas Rose Horse Park Fall  ,Texas Rose Horse Park Summer Horse Trials,5,-95.503062,32.472261,14078 TX-110,Texas Rose Horse Park,Tyler,TX,75704,http://www.texasrosehorsepark.com
17802,"NOVEMBER 6-7, 2021",Texas Rose Horse Park Fall    ,Texas Rose Horse Trials (March 2019),5,-95.503062,32.472261,14078 TX-110,Texas Rose Horse Park,Tyler,TX,75704,http://www.texasrosehorsepark.com
17334,"MAY 8-10, 2020",Texas Rose Horse Park Summer  ,Texas Rose Horse Park Summer Horse Trials,5,-95.503062,32.472261,14078 TX-110,Texas Rose Horse Park,Tyler,TX,75704,http://www.texasrosehorsepark.com
17541,"MAY 29-31, 2020",The Event at Archer,Needs Key Lookup,9,-104.655,41.152444,3967 Archer Parkway,Archer Eventing Park,Cheyenne,WY,82009,http://www.EventatArcher.com
17437,"AUGUST 22-23, 2020",The Event at Archer,Needs Key Lookup,9,-104.655,41.152444,3967 Archer Parkway,Archer Eventing Park,Cheyenne,WY,82009,http://www.EventatArcher.com
17524,"SEPTEMBER 26-27, 2020",The Event at Archer,Needs Key Lookup,9,-104.655,41.152444,3967 Archer Parkway,Archer Eventing Park,Cheyenne,WY,82009,http://www.EventatArcher.com
17733,"AUGUST 20-22, 2021",The Event at Archer,Needs Key Lookup,9,-104.655,41.152444,3967 Archer Parkway,Archer Eventing Park,Cheyenne,WY,82009,http://www.EventatArcher.com
17817,"JUNE 4-6, 2021",The Event at Archer  ,Needs Key Lookup,9,-104.655,41.152444,3967 Archer Parkway,Archer Eventing Park,Cheyenne,WY,82009,http://www.EventatArcher.com
17538,"SEPTEMBER 26-27, 2020",The Event at Isaacks Ranch,Needs Key Lookup,10,-106.698944,32.452377,65 County Rd D-66,Isaacks Ranch,Las Cruces,NM,88012,www.isaacksranch.com
17764,"SEPTEMBER 25-26, 2021",The Event at Isaacks Ranch  ,Needs Key Lookup,10,-106.698944,32.452377,65 County Rd D-66,Isaacks Ranch,Las Cruces,NM,88012,www.isaacksranch.com
17327,"MAY 1-3, 2020",The Event at Skyline,Needs Key Lookup,9,-111.475851,39.531776,995 W 1000 S,Skyline Eventing Park,Mt Pleasant,UT,84647,www.facebook.com/SkylineEventingPark
17454,"SEPTEMBER 11-13, 2020",The Event at Skyline,Needs Key Lookup,9,-111.475851,39.531776,995 W 1000 S,Skyline Eventing Park,Mt Pleasant,UT,84647,http://www.skylineeventingpark.com
17627,"MAY 7-9, 2021",The Event at Skyline,Needs Key Lookup,9,-111.475851,39.531776,995 W 1000 S,Skyline Eventing Park,Mt Pleasant,UT,84647,www.facebook.com/SkylineEventingPark
17755,"SEPTEMBER 17-19, 2021",The Event at Skyline  ,Needs Key Lookup,9,-111.475851,39.531776,995 W 1000 S,Skyline Eventing Park,Mt Pleasant,UT,84647,http://www.skylineeventingpark.com
17783,"OCTOBER 8-10, 2021",The Event at TerraNova ,The Spring Event at Woodside (May 2019),3,-82.213234,29.403458,17500 N US Hwy 441,Exmoor Farm,Reddick,FL,32686,http://
17308,"APRIL 4-5, 2020",The Fork at TIEC ,The Fork at Tryon (April 2019),2,-82.066895,35.282646,4066 Pea Ridge Rd,Tryon International Equestrian Center,Mill Spring,NC,28756,http://www.tryon.com
17602,"APRIL 2-4, 2021",The Fork at TIEC ,The Fork at Tryon (April 2019),2,-82.066895,35.282646,4066 Pea Ridge Rd,Tryon International Equestrian Center,Mill Spring,NC,28756,http://www.tryon.com
17485,"OCTOBER 9-11, 2020",The Maryland   at Loch Moy Farm,Maryland H.T. at Loch Moy Farm II(Jul 2020),2,-77.429489,39.270748,1235 Park Mills Road,Loch Moy Farm,Adamstown,MD,21710,http://www.themarylandhorsetrials.com
17400,"JULY 10-12, 2020",The Maryland   at Loch Moy Farm II,MDHT at Loch Moy Farm Classic BN3 Day Event & H.T.,2,-77.429489,39.270748,1235 Park Mills Road,Loch Moy Farm,Adamstown,MD,21710,http://www.themarylandhorsetrials.com/
17770,"OCTOBER 1-3, 2021",The Maryland at Loch Moy Farm,Maryland H.T. at Loch Moy Farm II(Jul 2020),2,-77.429489,39.270748,1235 Park Mills Road,Loch Moy Farm,Adamstown,MD,21710,http://www.themarylandhorsetrials.com
17696,"JULY 9-11, 2021",The Maryland at Loch Moy Farm II ,Maryland H.T. at Loch Moy Farm II(Jul 2020),2,-77.429489,39.270748,1235 Park Mills Road,Loch Moy Farm,Adamstown,MD,21710,http://www.themarylandhorsetrials.com/
17395,"JULY 3-5, 2020",The Maryland International +  ,The Maryland International + H.T.(Jul 2019),2,-77.429489,39.270748,1235 Park Mills Road,Loch Moy Farm,Adamstown,MD,21710,http://www.themarylandhorsetrials.com/
17691,"JULY 2-4, 2021",The Maryland International +   ,The Maryland International + H.T.(Jul 2019),2,-77.429489,39.270748,1235 Park Mills Road,Loch Moy Farm,Adamstown,MD,21710,http://www.themarylandhorsetrials.com/
17365,"JUNE 6-7, 2020",The Middleburg  ,Needs Key Lookup,2,-77.736947,38.990605,36800 Glenwood Park Lane,Glenwood Park,Middleburg,VA,20117,http://www.mocpony.club
17551,"SEPTEMBER 26-27, 2020",The Middleburg  ,Needs Key Lookup,2,-77.736947,38.990605,36800 Glenwood Park Lane,Glenwood Park,Middleburg,VA,20117,http://www.mocpony.club
17661,"JUNE 5-6, 2021",The Middleburg   ,Needs Key Lookup,2,-77.736947,38.990605,36800 Glenwood Park Lane,Glenwood Park,Middleburg,VA,20117,http://www.mocpony.club
17349,"MAY 22-24, 2020",The Spring Event at Woodside,The Spring Event at Woodside (May 2019),6,-122.245483,37.407471,3674 Sand Hill Rd.,Woodside Horse Park,Woodside,CA,94062,http://woodsideeventing.com/
17650,"MAY 28-30, 2021",The Spring Event at Woodside,The Spring Event at Woodside (May 2019),6,-122.245483,37.407471,3674 Sand Hill Rd.,Woodside Horse Park,Woodside,CA,94062,http://woodsideeventing.com/
17422,"AUGUST 6-9, 2020",The Summer Event at Woodside ,The Summer Event at Woodside (Aug 2019),6,-122.245483,37.407471,3674 Sand Hill Rd.,Woodside Horse Park,Woodside,CA,94062,http://www.woodsideeventing.com
17725,"AUGUST 12-15, 2021",The Summer Event at Woodside ,The Summer Event at Woodside (Aug 2020),6,-122.245483,37.407471,3674 Sand Hill Rd.,Woodside Horse Park,Woodside,CA,94062,http://www.woodsideeventing.com
17795,"OCTOBER 28-31, 2021",The VHT International,The VHT International & H.T.(Oct 2020),2,-79.424185,37.809507,487 Maury River Rd,The Virginia Horse Center,Lexington,VA,24435,http://www.vahorsetrials.com
17509,"OCTOBER 28 - NOVEMBER 1, 2020",The VHT International ,The VHT International H.T.(Oct 2019),2,-79.424185,37.809507,487 Maury River Rd,The Virginia Horse Center,Lexington,VA,24435,http://www.vahorsetrials.com
17276,"FEBRUARY 1-2, 2020",Three Lakes Winter I   at Caudle Ranch,Three Lakes Winter 1,3,-81.831535,28.619129,18543 Highway 19,Caudle Ranch,Groveland,FL,34736,http://www.threelakesht.com
17570,"FEBRUARY 6-7, 2021",Three Lakes Winter I   at Caudle Ranch,Three Lakes Winter II HT ,3,-81.831535,28.619129,18543 Highway 19,Caudle Ranch,Groveland,FL,34736,http://www.threelakesht.com
17285,"FEBRUARY 22-23, 2020",Three Lakes Winter II   at Caudle Ranch,Three Lakes Winter II HT ,3,-81.831535,28.619129,18543 Highway 19,Caudle Ranch,Groveland,FL,34736,http://www.threelakesht.com
17578,"FEBRUARY 27-28, 2021",Three Lakes Winter II   at Caudle Ranch,Three Lakes Winter II HT ,3,-81.831535,28.619129,18543 Highway 19,Caudle Ranch,Groveland,FL,34736,http://www.threelakesht.com
17439,22-Aug,Town Hill Farm  ,Town Hill Farm Horse Trials(Aug 2019),1,-73.431159,41.936805,55 Lime Rock Rd (Rt. 112),Town Hill Farm,Lakeville,CT,6039,http://www.townhillfarm.com
17739,"AUGUST 28-29, 2021",Town Hill Farm  ,Town Hill Farm Horse Trials(Aug 2020),1,-73.431159,41.936805,55 Lime Rock Rd (Rt. 112),Town Hill Farm,Lakeville,CT,6039,http://www.townhillfarm.com
17748,"SEPTEMBER 10-12, 2021",Tryon Fall   ,Tryon Riding & Hunt Club H.T.,2,-82.066895,35.282646,4066 Pea Ridge Rd,Tryon International Equestrian Center,Mill Spring,NC,28756,http://www.tryon.com
17558,"NOVEMBER 11-15, 2020",Tryon International 3-Day Event,Tryon Riding & Hunt Club H.T.,2,-82.066895,35.282646,4066 Pea Ridge Rd,Tryon International Equestrian Center,Mill Spring,NC,28756,http://www.tryon.com
17809,"NOVEMBER 10-14, 2021",Tryon International 3-Day Event  ,Tryon Riding & Hunt Club H.T.,2,-82.066895,35.282646,4066 Pea Ridge Rd,Tryon International Equestrian Center,Mill Spring,NC,28756,http://www.tryon.com
17794,"OCTOBER 23-24, 2021",Tryon Riding & Hunt Club ,Tryon Riding & Hunt Club H.T.,3,-82.081436,35.236221,6985 S. NC Hwy. 9,Fence Equestrian Center - Tryon,Columbus,NC,28722,www.tryonridingandhuntclub.org
17499,"OCTOBER 17-18, 2020","Tryon Riding & Hunt Club ""Morris the Horse"" Trials",Tryon Riding & Hunt Club H.T.,3,-82.081436,35.236221,6985 S. NC Hwy. 9,Fence Equestrian Center - Tryon,Columbus,NC,28722,www.tryonridingandhuntclub.org
17314,"APRIL 9-12, 2020",Twin Rivers CCI &  ,Needs Key Lookup,6,-120.692764,35.727787,8715 N. River Rd,Twin Rivers Horse Park,Paso Robles,CA,93446,http://www.twinrivershorsepark.com
17763,"SEPTEMBER 23-26, 2021",Twin Rivers Fall International,Needs Key Lookup,6,-120.692764,35.727787,8715 N. River Rd,Twin Rivers Horse Park,Paso Robles,CA,93446,http://twinrivershorsepark.com/
17462,"SEPTEMBER 17-20, 2020",Twin Rivers Fall International ,Needs Key Lookup,6,-120.692764,35.727787,8715 N. River Rd,Twin Rivers Horse Park,Paso Robles,CA,93446,http://twinrivershorsepark.com/
17556,"NOVEMBER 13-15, 2020",Twin Rivers November   ,Needs Key Lookup,6,-120.692764,35.727787,8715 N. River Rd,Twin Rivers Horse Park,Paso Robles,CA,93446,http://twinrivershorsepark.com/
17605,"APRIL 8-11, 2021",Twin Rivers Spring International,Needs Key Lookup,6,-120.692764,35.727787,8715 N. River Rd,Twin Rivers Horse Park,Paso Robles,CA,93446,http://www.twinrivershorsepark.com
17392,"JULY 2-5, 2020",Twin Rivers Summer  ,Needs Key Lookup,6,-120.692764,35.727787,8715 N. River Rd,Twin Rivers Horse Park,Paso Robles,CA,93446,http://www.twinrivershorsepark.com
17690,"JULY 1-4, 2021",Twin Rivers Summer    ,Needs Key Lookup,6,-120.692764,35.727787,8715 N. River Rd,Twin Rivers Horse Park,Paso Robles,CA,93446,http://www.twinrivershorsepark.com
17287,"FEBRUARY 28 - MARCH 1, 2020",Twin Rivers Winter  ,Needs Key Lookup,6,-120.692764,35.727787,8715 N. River Rd,Twin Rivers Horse Park,Paso Robles,CA,93446,http://www.twinrivershorsepark.com
17579,"FEBRUARY 25-28, 2021",Twin Rivers Winter  ,Needs Key Lookup,6,-120.692764,35.727787,8715 N. River Rd,Twin Rivers Horse Park,Paso Robles,CA,93446,http://www.twinrivershorsepark.com
17326,"APRIL 25-26, 2020",University of New Hampshire,Needs Key Lookup,1,-70.939983,43.142417,288 Mast Road,UNH Equine Center,Durham,NH,3824,https://colsa.unh.edu/agriculture-nutrition-food-systems/horse-trials
17473,"SEPTEMBER 26-27, 2020",University of New Hampshire  ,Needs Key Lookup,1,-70.943655,43.143771,UNH Equine Center 278 Mast Rd,UNH Equine Center,Durham,NH,3824,https://colsa.unh.edu/agriculture-nutrition-food-systems/horse-trials
17765,"SEPTEMBER 25-26, 2021",University of New Hampshire    ,Needs Key Lookup,1,-70.943655,43.143771,UNH Equine Center 278 Mast Rd,UNH Equine Center,Durham,NH,3824,https://colsa.unh.edu/agriculture-nutrition-food-systems/horse-trials
17621,"APRIL 24-25, 2021",University of New Hampshire Spring  ,Needs Key Lookup,1,-70.939983,43.142417,288 Mast Road,UNH Equine Center,Durham,NH,3824,https://colsa.unh.edu/agriculture-nutrition-food-systems/horse-trials
17533,"JULY 14-17, 2020",US Pony Club Championships,Needs Key Lookup,8,,,,,,,,
17440,"AUGUST 25-30, 2020",USEA AEC,Needs Key Lookup,8,-84.5168,38.151688,4089 Iron Works Pkwy,Kentucky Horse Park,Lexington,KY,40511,http://useventing.com/aec
17740,"AUGUST 31 - SEPTEMBER 5, 2021","USEA AEC, $60,000 Adequan Advanced Final, and ATC Finals",Needs Key Lookup,8,-84.5168,38.151688,4089 Iron Works Pkwy,Kentucky Horse Park,Lexington,KY,40511,http://useventing.com/aec
17303,3-Aug,USEA APP Push event TEST 3,Needs Key Lookup,2,-78.007442,39.1703202,929 Kimble Road,CDCTA Eventing Facility,Berryville,VA,22611,www.useventing.com
17822,"OCTOBER 29-30, 2021",USEA FEH & YEH West Coast Championships,Needs Key Lookup,6,-120.692764,35.727787,8715 N. River Rd,Twin Rivers Horse Park,Paso Robles,CA,93446,http://twinrivershorsepark.com/
17529,12-Apr,USEA MDHT FEH/YEH/NEH Qualifier,Needs Key Lookup,2,-77.429489,39.270748,1235 Park Mills Road,Loch Moy Farm,Adamstown,MD,21710,http://www.themarylandhorsetrials.com
17530,24-May,USEA MDHT FEH/YEH/NEH Qualifier,Needs Key Lookup,2,-77.429489,39.270748,1235 Park Mills Road,Loch Moy Farm,Adamstown,MD,21710,http://www.themarylandhorsetrials.com
17451,13-Sep,USEA MDHT FEH/YEH/NEH Qualifier,Needs Key Lookup,2,-77.429489,39.270748,1235 Park Mills Road,Loch Moy Farm,Adamstown,MD,21710,http://www.themarylandhorsetrials.com
17609,18-Apr,USEA MDHT FEH/YEH/NEH Qualifier,Needs Key Lookup,2,-77.429489,39.270748,1235 Park Mills Road,Loch Moy Farm,Adamstown,MD,21710,http://www.themarylandhorsetrials.com
17644,28-May,USEA MDHT FEH/YEH/NEH Qualifier,Needs Key Lookup,2,-77.429489,39.270748,1235 Park Mills Road,Loch Moy Farm,Adamstown,MD,21710,http://www.themarylandhorsetrials.com
17751,11-Sep,USEA MDHT FEH/YEH/NEH Qualifier,Needs Key Lookup,2,-77.429489,39.270748,1235 Park Mills Road,Loch Moy Farm,Adamstown,MD,21710,http://www.themarylandhorsetrials.com
17559,17-Oct,USEA MDHT YEH Qualifier and NEH Final,Needs Key Lookup,2,-77.429489,39.270748,1235 Park Mills Road,Loch Moy Farm,Adamstown,MD,21710,http://www.themarylandhorsetrials.com
15200,"DECEMBER 7-8, 2020",USEA XENTRY DEMO EVENT,Needs Key Lookup,2,-77.555274,39.145424,41793 Tutt Lane,Morven Park Equestrian Center,Leesburg,VA,20176,www.useventing.com
15800,"NOVEMBER 14-16, 2020",USEA XENTRY DEMO EVENT ROLL OVER TEST 5,Needs Key Lookup,2,-77.763374,39.050343,20490 St Louis Rd,Surefire Farm,Purcelville,VA,20132,www.useventing.com
17377,30-Aug,Valinor Farm  ,Valinor Farm Horse Trials(June 2019),1,-70.572205,41.861244,1067 Old Sandwich Rd,Valinor Farm,Plymouth,MA,2360,http://www.valinorfarm.com
17672,13-Jun,Valinor Farm   ,Valinor Farm Horse Trials(June 2019),1,-70.572205,41.861244,1067 Old Sandwich Rd,Valinor Farm,Plymouth,MA,2360,http://www.valinorfarm.com
17346,"JULY 20-24, 2020",VHT International ,The VHT International & H.T.(Oct 2020),2,-79.424185,37.809507,487 Maury River Rd,The Virginia Horse Center,Lexington,VA,24435,http://www.vahorsetrials.com/
17648,"MAY 27-30, 2021",VHT International &  ,The VHT International H.T.(Oct 2019),2,-79.424185,37.809507,487 Maury River Rd,The Virginia Horse Center,Lexington,VA,24435,http://www.vahorsetrials.com/
17547,23-Aug,War Horse Event Series August  ,War Horse Event Series (Aug 2020),2,-79.366325,35.01506,2814 Montrose Rd,Carolina Horse Park,Raeford,NC,28376,http://www.carolinahorsepark.com/
17546,12-Jul,War Horse Event Series July  ,War Horse Event Series (August 2019),2,-79.366325,35.01506,2814 Montrose Rd,Carolina Horse Park,Raeford,NC,28376,http://www.carolinahorsepark.com/
17545,14-Jun,War Horse Event Series June  ,War Horse Event Series (July 2019),2,-79.366325,35.01506,2814 Montrose Rd,Carolina Horse Park,Raeford,NC,28376,http://www.carolinahorsepark.com/
17549,"NOVEMBER 7-8, 2020",War Horse Event Series November  ,War Horse Event Series (July 2020),2,-79.366325,35.01506,2814 Montrose Rd,Carolina Horse Park,Raeford,NC,28376,http://www.carolinahorsepark.com/
17548,11-Oct,War Horse Event Series October  ,War Horse Event Series (June 2019),2,-79.366325,35.01506,2814 Montrose Rd,Carolina Horse Park,Raeford,NC,28376,http://www.carolinahorsepark.com/
17548,11-Oct,War Horse Event Series October  ,War Horse Event Series (June 2020),2,-79.366325,35.01506,2814 Montrose Rd,Carolina Horse Park,Raeford,NC,28376,http://www.carolinahorsepark.com/
17548,11-Oct,War Horse Event Series October  ,War Horse Event Series (November 2019),2,-79.366325,35.01506,2814 Montrose Rd,Carolina Horse Park,Raeford,NC,28376,http://www.carolinahorsepark.com/
17548,11-Oct,War Horse Event Series October  ,War Horse Event Series (October 2019),2,-79.366325,35.01506,2814 Montrose Rd,Carolina Horse Park,Raeford,NC,28376,http://www.carolinahorsepark.com/
17548,11-Oct,War Horse Event Series October  ,War Horse Event Series May HT,2,-79.366325,35.01506,2814 Montrose Rd,Carolina Horse Park,Raeford,NC,28376,http://www.carolinahorsepark.com/
17548,11-Oct,War Horse Event Series October  ,War Horse Event Series November H.T.(Nov 2020),2,-79.366325,35.01506,2814 Montrose Rd,Carolina Horse Park,Raeford,NC,28376,http://www.carolinahorsepark.com/
17548,11-Oct,War Horse Event Series October  ,War Horse Event Series October H.T.(Oct 2020),2,-79.366325,35.01506,2814 Montrose Rd,Carolina Horse Park,Raeford,NC,28376,http://www.carolinahorsepark.com/
17359,13-Jun,Waredaca  ,Waredaca Classic Horse Trials,2,-77.080605,39.233318,4015 Damascus Rd,Waredaca Equestrian Facility,Laytonsville,MD,20882,http://www.waredaca.com
17624,"MAY 1-2, 2021",Waredaca   ,Waredaca Classic Horse Trials (Oct 2020),2,-77.080605,39.233318,4015 Damascus Rd,Waredaca Equestrian Facility,Laytonsville,MD,20882,http://www.waredaca.com
17790,"OCTOBER 22-24, 2021",Waredaca Classic Three Day Event,Waredaca Farm August HT,2,-77.080605,39.233318,4015 Damascus Rd,Waredaca Equestrian Facility,Laytonsville,MD,20882,http://www.waredaca.com
17500,"OCTOBER 22-25, 2020",Waredaca Classic Three Day Event ,Waredaca Farm H.T.(Aug 2020),2,-77.080605,39.233318,4015 Damascus Rd,Waredaca Equestrian Facility,Laytonsville,MD,20882,http://www.waredaca.com
17432,"AUGUST 15-16, 2020",Waredaca Farm  ,Waredaca H.T.(June 2019),2,-77.080605,39.233318,4015 Damascus Rd,Waredaca Equestrian Facility,Laytonsville,MD,20882,http://www.waredaca.com
17726,"AUGUST 14-15, 2021",Waredaca Farm   ,Waredaca H.T.(June 2020),2,-77.080605,39.233318,4015 Damascus Rd,Waredaca Equestrian Facility,Laytonsville,MD,20882,http://www.waredaca.com
17726,"AUGUST 14-15, 2021",Waredaca Farm   ,Waredaca June Starter Horse Trials ,2,-77.080605,39.233318,4015 Damascus Rd,Waredaca Equestrian Facility,Laytonsville,MD,20882,http://www.waredaca.com
17726,"AUGUST 14-15, 2021",Waredaca Farm   ,Waredaca November Starter Horse Trials,2,-77.080605,39.233318,4015 Damascus Rd,Waredaca Equestrian Facility,Laytonsville,MD,20882,http://www.waredaca.com
17726,"AUGUST 14-15, 2021",Waredaca Farm   ,Waredaca Starter Horse Trials ,2,-77.080605,39.233318,4015 Damascus Rd,Waredaca Equestrian Facility,Laytonsville,MD,20882,http://www.waredaca.com
17398,"JULY 9-11, 2020","Western Underground, Inc Coconino Summer HT & T/N/BN3D Event",Needs Key Lookup,10,-111.6929297,35.144368,Fort TutHill Fairgrounds,Fort Tut Hill Fairgrounds,Flagstaff,AZ,86001,http://www.coconinohorsetrials.com/
17351,23-May,Willow Draw Charity Show,Needs Key Lookup,5,-97.784668,32.79479,401 North Bend Rd,Willow Draw Equestrian,Weatherford,TX,76085,http://www.willowdraw.com
17481,3-Oct,Willow Draw Charity Show,Needs Key Lookup,5,-97.784668,32.79479,401 North Bend Rd,Willow Draw Equestrian,Weatherford,TX,76085,http://www.willowdraw.com
17653,29-May,Willow Draw Charity Show,Needs Key Lookup,5,-97.784668,32.79479,401 North Bend Rd,Willow Draw Equestrian,Weatherford,TX,76085,http://www.willowdraw.com
17774,2-Oct,Willow Draw Charity Show,Needs Key Lookup,5,-97.784668,32.79479,401 North Bend Rd,Willow Draw Equestrian,Weatherford,TX,76085,http://www.willowdraw.com
17501,"OCTOBER 23-25, 2020",Windermere Run,Windridge Farm Summer HT,4,-94.475287,38.893713,12600 Old Raytown Rd,Longview Horse Park,Grandview,MO,64146,http://www.windermerestables.net
17791,"OCTOBER 22-24, 2021",Windermere Run,Windridge Farm Summer HT,4,-94.475287,38.893713,12600 Old Raytown Rd,Longview Horse Park,Grandview,MO,64146,http://www.windermerestables.net
17340,"MAY 9-10, 2020",WindRidge Farm  ,Windridge Eventing Weekends-Dec,2,-81.828506,35.227467,882 Goodes Creek Church Rd,Windridge Farm,Mooresboro,NC,28114,http://www.WindridgeFarmsNC.com
17631,"MAY 8-9, 2021",WindRidge Farm   ,WindRidge Farm 2019-2020 Eventing Series (March),2,-81.828506,35.227467,882 Goodes Creek Church Rd,Windridge Farm,Mooresboro,NC,28114,http://www.WindridgeFarmsNC.com
17482,"OCTOBER 3-4, 2020",WindRidge Farm Fall  ,WindRidge Farm Fall H.T.(Oct 2020),2,-81.828506,35.227467,882 Goodes Creek Church Rd,Windridge Farm,Mooresboro,NC,28114,http://www.WindridgeFarmsNC.com
17781,"OCTOBER 9-10, 2021",WindRidge Farm Fall   ,Windridge Farm Fall HT,2,-81.828506,35.227467,882 Goodes Creek Church Rd,Windridge Farm,Mooresboro,NC,28114,http://www.WindridgeFarmsNC.com
17428,"AUGUST 8-9, 2020",WindRidge Farm Summer  ,WindRidge Farm HT,2,-81.828506,35.227467,882 Goodes Creek Church Rd,Windridge Farm,Mooresboro,NC,28114,http://www.WindridgeFarmsNC.com
17722,"AUGUST 14-15, 2021",WindRidge Farm Summer    ,Windridge Farm Summer HT,2,-81.828506,35.227467,882 Goodes Creek Church Rd,Windridge Farm,Mooresboro,NC,28114,http://www.WindridgeFarmsNC.com
17335,"JULY 3-5, 2020",Winona  ,Needs Key Lookup,8,-80.908832,40.807526,31407 Schneider Rd,Stone Gate Farm,Hanoverton,OH,44423,http://www.stonegatefarm.org/
17635,"MAY 14-16, 2021",Winona  ,Needs Key Lookup,8,-80.908832,40.807526,31407 Schneider Rd,Stone Gate Farm,Hanoverton,OH,44423,http://www.stonegatefarm.org/
17337,9-May,Woodland Stallion Station  ,Needs Key Lookup,6,-121.876749,38.692305,34270 County Road 20,Woodland Stallion Station,Woodland ,CA,95695,http://woodlandstallion.com/shows/usea-horse-trials/
17369,13-Jun,Woodland Stallion Station  ,Needs Key Lookup,6,-121.876749,38.692305,34270 County Road 20,Woodland Stallion Station,Woodland ,CA,95695,woodlandstallion.com
17444,29-Aug,Woodland Stallion Station  ,Needs Key Lookup,6,-121.876749,38.692305,34270 County Road 20,Woodland Stallion Station,Woodland ,CA,95695,http://woodlandstallion.com/
17638,15-May,Woodland Stallion Station  ,Needs Key Lookup,6,-121.876749,38.692305,34270 County Road 20,Woodland Stallion Station,Woodland ,CA,95695,http://woodlandstallion.com/shows/usea-horse-trials/
17668,12-Jun,Woodland Stallion Station   ,Needs Key Lookup,6,-121.876749,38.692305,34270 County Road 20,Woodland Stallion Station,Woodland ,CA,95695,woodlandstallion.com
17744,4-Sep,Woodland Stallion Station    ,Needs Key Lookup,6,-121.876749,38.692305,34270 County Road 20,Woodland Stallion Station,Woodland ,CA,95695,http://woodlandstallion.com/
17778,"OCTOBER 7-10, 2021",Woodside International ,Woodside International H.T.(Oct 2019),6,-122.245483,37.407471,3674 Sand Hill Rd.,Woodside Horse Park,Woodside,CA,94062,http://www.woodsideeventing.com
17478,"OCTOBER 8-11, 2020",Woodside International  ,Woodside International H.T.(Oct 2020),6,-122.245483,37.407471,3674 Sand Hill Rd.,Woodside Horse Park,Woodside,CA,94062,http://www.woodsideeventing.com
17800,"OCTOBER 21-24, 2021",World Equestrian Center International 3-Day Event,Ocala Jockey Club International 3-Day Event,3,-82.27048,29.40728,8720 W Hwy 318,Ocala Jockey Club,Reddick,FL,32686,http://www.OJC3DE.com