EventID,EventDateDisplayRange,Title,Area,City,State,Zip,Begindate,Enddate,Opendate,Closedate,SearchLevels,DisplayLevels,Result,Lon,Lat,ProvisionalCalendar,EventVenueAddress,EventVenueFacilityName,EventVenueCity,EventVenueState,EventVenueZip,XEntryStatus,EventWebsite,UseaApprovalStatus,FEIOpenDate,FEICloseDate
17621,"APRIL 24-25, 2021",University of New Hampshire Spring H.T.,1,Durham,NH,03824,4/24/2021,4/25/2021,3/9/2021,4/6/2021,"BN,N,T,P","BN,N,T,P",0,-70.939983,43.142417,True,288 Mast Road,UNH Equine Center,Durham,NH,3824,False,https://colsa.unh.edu/agriculture-nutrition-food-systems/horse-trials,approved,,
17629,MAY 8,Apple Knoll Farm H.T.,1,Millis,MA,02054,5/8/2021,5/8/2021,3/23/2021,4/20/2021,"BN,N,T","BN,N,T",0,-70.572205,41.861244,True,1067 Old Sandwich Rd,Valinor Farm,Plymouth,MA,2360,False,http://www.appleknoll.com/,approved,,
17636,MAY 15,Hitching Post Farm H.T.,1,South Royalton,VT,05068,5/15/2021,5/15/2021,3/30/2021,4/27/2021,"Intro,BN,N,T,M,P","Intro,BN,N,T,M,P",0,-72.563259,43.810049,True,2096 Back River Rd.,Hitching Post Farm,S. Royalton,VT,5068,False,http://www.hitchingpostfarm.com/,approved,,
17652,MAY 29,Mystic Valley Hunt Club H.T.,1,Gales Ferry,CT,06335,5/29/2021,5/29/2021,4/13/2021,5/11/2021,"Starter,BN,BN,N,N,TN,T","Starter,CT-BN,BN,CT-N,N,TN,CT-T",0,-72.040755,41.404597,True,645 Long Cove Rd,Mystic Valley Hunt Club,Gales Ferry,CA,6335,False,http://www.info@mvhchorse.com/,approved,,
17660,"JUNE 5-6, 2021",GMHA June H.T.,1,South Woodstock,VT,05071,6/5/2021,6/6/2021,4/20/2021,5/18/2021,"BN,N,T,P","BN,N,T,P",0,-72.539261,43.557084,True,5491 South Road,GMHA,South Woodstock,VT,5071,False,http://www.gmhainc.org,approved,,
17659,JUNE 6,Genesee Valley Riding & Driving Club Spring H.T. ,1,Geneseo,NY,14454,6/6/2021,6/6/2021,4/20/2021,5/18/2021,"Intro,BN,N,TN","Intro,BN,N,TN",0,-77.787109,42.842808,True,4222 Roots Tavern Road,Hideaway Farm,Geneseo,NY,14454,False,http://www.gvrdc.org/,approved,,
17672,JUNE 13,Valinor Farm H.T. ,1,Plymouth,MA,02360,6/13/2021,6/13/2021,4/27/2021,5/25/2021,"Intro,BN,N,T,M","Intro,BN,N,T,M",0,-70.572205,41.861244,True,1067 Old Sandwich Rd,Valinor Farm,Plymouth,MA,2360,False,http://www.valinorfarm.com,approved,,
17680,JUNE 20,Kent School Spring H.T. ,1,Kent,CT,06757,6/20/2021,6/20/2021,5/4/2021,6/1/2021,"Intro,BN,N,T,M","Intro,BN,N,T,M",0,-72.738304,41.573502,True,30 Westwoods Rd.,Kent School,Kent,CT,6359,False,https://area1usea.org/competitions/sanctioned-events/,approved,,
17683,"JUNE 25-27, 2021",Groton House Farm H.T. - Pending USEF Approval,1,Hamilton,MA,01982,6/25/2021,6/27/2021,5/11/2021,6/8/2021,"N,TN,T,PT,P,IP","N,TN,T,PT,P,IP",0,-70.871843,42.648485,True,746 Highland St.,Groton House Farm,Hamilton,MA,1982,False,http://www.grotonhousefarm.com/,approved,,
17694,"JULY 3-4, 2021",Larkin Hill H.T. - Pending USEF Approval,1,North Chatham,NY,12123,7/3/2021,7/4/2021,5/18/2021,6/15/2021,"Intro,BN,N,T,P","Intro,BN,N,T,P",0,-73.644314,42.479086,True,114 Woodward Rd,Larkin Hill Farm,Nassau,NY,12123,False,http://www.larkinhill.com,approved,,
17699,"JULY 10-11, 2021",Huntington Farm H.T. ,1,South Strafford,VT,05070,7/10/2021,7/11/2021,5/25/2021,6/22/2021,"BN,N,T,P","BN,N,T,P",0,-72.354309,43.834476,True,130 Justin Morrill Hwy,Huntington Farm,South Strafford,VT,5070,False,http://www.area1usea.org,approved,,
17704,"JULY 17-18, 2021",Genesee Valley Hunt H.T. ,1,Geneseo,NY,14454,7/17/2021,7/18/2021,6/1/2021,6/29/2021,"Intro,BN,N,TN,T,M","Intro,BN,N,TN,T,M",0,-77.8161,42.84355,True,Roots Tavern Rd and Nations Rd,GVHC - Nations Farm ,Geneseo,NY,14454,False,http://www.geneseevalleyhunt.org/,approved,,
17712,"JULY 24-25, 2021",Course Brook Farm H.T.  ,1,Sherborn,MA,01770,7/24/2021,7/25/2021,6/8/2021,7/6/2021,"Intro,BN,N,T,MT,P","Intro,BN,N,T,MT,P",0,-71.399742,42.252289,True,39 Brush Hill Rd,Course Brook Farm,Sherborn,MA,1770,False,https://www.coursebrookfarm.com/usef-usea-horse-trials,approved,,
17716,"AUGUST 5-8, 2021",Millbrook H.T. ,1,Millbrook,NY,12545,8/5/2021,8/8/2021,6/22/2021,7/20/2021,"BN,N,T,P,I,A","BN,N,T,P,I,A",0,-73.61338,41.861046,True,1031 Bangall-Amenia Rd,Riga Meadow at Coole Park,Millbrook,NY,12545,False,http://www.millbrookhorsetrials.com/,approved,,
17723,"AUGUST 13-15, 2021",GMHA Festival of Eventing August H.T. ,1,South Woodstock,VT,05071,8/13/2021,8/15/2021,6/29/2021,7/27/2021,"BN,N,T,PT,P,I,CCI2-S,CCI3-S","BN,N,T,PT,P,I,CCI2-S,CCI3-S",0,-72.539261,43.557084,True,5491 South Road,GMHA,South Woodstock,VT,5071,False,http://gmhainc.org/,approved,,
17728,"AUGUST 21-22, 2021",Genesee Valley Riding & Driving Club H.T. ,1,Geneseo,NY,14454,8/21/2021,8/22/2021,7/6/2021,8/3/2021,"Intro,FEH-YEAR,2S,3S,4S,BN,N,T,M,P","FEH-2,FEH-3,FEH-4,FEH-YEAR,Intro,BN,N,T,M,P",0,-77.787109,42.842808,True,4222 Roots Tavern Road,Hideaway Farm,Geneseo,NY,14454,False,http://www.gvrdc.org/,approved,,
17735,AUGUST 22,Huntington Farm H.T. ,1,South Strafford,VT,05070,8/22/2021,8/22/2021,7/6/2021,8/3/2021,"BN,N,T,PT,P","BN,N,T,PT,P",0,-72.354309,43.834476,True,130 Justin Morrill Hwy,Huntington Farm,South Strafford,VT,5070,False,http://www.area1usea.org,approved,,
17739,"AUGUST 28-29, 2021",Town Hill Farm H.T.,1,Lakeville,CT,06039,8/28/2021,8/29/2021,7/13/2021,8/10/2021,"Starter,BN,N,T,P","Starter,BN,N,T,P",0,-73.431159,41.936805,True,55 Lime Rock Rd (Rt. 112),Town Hill Farm,Lakeville,CT,6039,False,http://www.townhillfarm.com,approved,,
17747,SEPTEMBER 4,Course Brook H.T. - Pending USEF Approval,1,Sherborn,MA,01770,9/4/2021,9/4/2021,7/20/2021,8/17/2021,"Starter,BN,N,T,MT,P","Starter,BN,N,T,MT,P",0,-71.399742,42.252289,True,39 Brush Hill Rd,Course Brook Farm,Sherborn,MA,1770,False,https://coursebrookfarm.com/,approved,,
17758,SEPTEMBER 18,Apple Knoll Farm H.T.,1,Millis,MA,02054,9/18/2021,9/18/2021,8/3/2021,8/31/2021,"BN,N,T","BN,N,T",0,-70.572205,41.861244,True,1067 Old Sandwich Rd,Valinor Farm,Plymouth,MA,2360,False,http://www.appleknoll.com/,approved,,
17759,"SEPTEMBER 18-19, 2021",GMHA September H.T. & 2021 Area 1 Championships,1,South Woodstock,VT,05071,9/18/2021,9/19/2021,8/3/2021,8/31/2021,"BN,N,T,P","BN,N,T,P",0,-72.539261,43.557084,True,5491 South Road,GMHA,South Woodstock,VT,5071,False,http://www.gmhainc.org,approved,,
17765,"SEPTEMBER 25-26, 2021",University of New Hampshire H.T. - Pending USEF Approval,1,Durham,NH,03824,9/25/2021,9/26/2021,8/10/2021,9/7/2021,"BN,N,T,P","BN,N,T,P",0,-70.943655,43.143771,True,UNH Equine Center 278 Mast Rd,UNH Equine Center,Durham,NH,3824,False,https://colsa.unh.edu/agriculture-nutrition-food-systems/horse-trials,approved,,
17767,SEPTEMBER 26,Larkin Hill H.T.,1,North Chatham,NY,12123,9/26/2021,9/26/2021,8/10/2021,9/7/2021,"Intro,BN,N,T,PT","Intro,BN,N,T,PT",0,-73.644314,42.479086,True,114 Woodward Rd,Larkin Hill Farm,Nassau,NY,12123,False,http://www.larkinhill.com,approved,,
17785,OCTOBER 9,Hitching Post Farm H.T. - Pending USEF Approval,1,South Royalton,VT,05068,10/9/2021,10/9/2021,8/24/2021,9/21/2021,"BN,N,T,M","BN,N,T,M",0,-72.563259,43.810049,True,2096 Back River Rd.,Hitching Post Farm,S. Royalton,VT,5068,False,http://www.hitchingpostfarm.com/,approved,,
17782,OCTOBER 10,Kent School Fall H.T. ,1,Kent,CT,06757,10/10/2021,10/10/2021,8/24/2021,9/21/2021,"Intro,BN,N,T,M","Intro,BN,N,T,M",0,-72.738304,41.573502,True,30 Westwoods Rd.,Kent School,Kent,CT,6359,False,http://www.area1usea.org/Resources/Links/Kent/Kentpage.htm,approved,,
15200,"DECEMBER 7-8, 2020",USEA XENTRY DEMO EVENT,2,Leesburg,VA,20176,12/7/2020,12/8/2020,10/20/2020,10/30/2020,"YEH,BN,BN3D,N,N3D,T,T3D,P,P3D,CCI2-S","YEH,BN,BN3D,N,N3D,T,T3D,P,P3D,CCI2-S",0,-77.555274,39.145424,True,41793 Tutt Lane,Morven Park Equestrian Center,Leesburg,VA,20176,True,www.useventing.com,approved,6/15/2020,3/16/2015
17586,"MARCH 6-7, 2021",Southern Pines H.T. ,2,Raeford,NC,28376,3/6/2021,3/7/2021,1/19/2021,2/16/2021,"BN,BN,N,N,T,T,M,M,P,P,I,A","CT-BN,BN,CT-N,N,CT-T,T,CT-M,M,CT-P,P,CT-I,CT-A",0,-79.366325,35.01506,True,2814 Montrose Rd,Carolina Horse Park,Raeford,NC,28376,True,http://www.carolinahorsepark.com/,approved,,
17591,"MARCH 17-21, 2021",Carolina International CCI and H.T.,2,Raeford,NC,28376,3/17/2021,3/21/2021,2/2/2021,3/2/2021,"T,M,P,I,A,CCI2-S,CCI3-S,CCI4-S","T,M,P,I,A,CCI2-S,CCI3-S,CCI4-S",0,-79.366325,35.01506,True,2814 Montrose Rd,Carolina Horse Park,Raeford,NC,28376,True,http://www.carolinainternationalcci.com/,approved,,
17599,"MARCH 27-28, 2021",Morven Park Spring H.T.,2,Leesburg,VA,20176,3/27/2021,3/28/2021,2/9/2021,3/9/2021,"BN,N,T,P,I","BN,N,T,P,I",0,-77.555274,39.145424,True,41793 Tutt Lane,Morven Park Equestrian Center,Leesburg,VA,20176,True,http://www.morvenpark.org,approved,,
17602,"APRIL 2-4, 2021",The Fork at TIEC ,2,Mill Spring,NC,28756,4/2/2021,4/4/2021,2/16/2021,3/16/2021,"BN,N,T,M,P,I,A,CCI1-S,CCI2-S,CCI3-S,CCI4-S","BN,N,T,M,P,I,A,CCI1-S,CCI2-S,CCI3-S,CCI4-S",0,-82.066895,35.282646,True,4066 Pea Ridge Rd,Tryon International Equestrian Center,Mill Spring,NC,28756,False,http://www.tryon.com,approved,,
17606,"APRIL 9-11, 2021",Fair Hill International April H.T. and CCI-S,2,Elkton,MD,21921,4/9/2021,4/11/2021,2/23/2021,3/23/2021,"T,P,I,A,A,CCI2-S,CCI3-S,CCI4-S","T,P,I,CT-A,A,CCI2-S,CCI3-S,CCI4-S",0,-75.860126,39.701706,True,4600 Telegraph Rd,Fair Hill - Telegraph,Elkton,MD,21921,False,http://www.fairhillinternational.org,approved,,
17608,APRIL 11,CDCTA Spring H.T.,2,Berryville,VA,22611,4/11/2021,4/11/2021,2/23/2021,3/23/2021,"Intro,BN,N,T,P","Intro,BN,N,T,P",0,-78.007442,39.1703202,True,929 Kimble Road,CDCTA Eventing Facility,Berryville,VA,22611,False,http://www.cdcta.com/,approved,,
17616,"APRIL 17-18, 2021",Plantation Field April H.T.,2,Unionville,PA,19375,4/17/2021,4/18/2021,3/2/2021,3/30/2021,"BN,N,T,P,I","BN,N,T,P,I",0,-75.787444,39.908737,True,450 Apple Grove Rd.,Plantation Field,Coatesville,PA,19320,False,http://www.plantationfield.com,approved,,
17615,"APRIL 17-18, 2021",Longleaf Pine H.T.,2,Raeford,NC,28376,4/17/2021,4/18/2021,3/2/2021,3/30/2021,"BN,BN,N,N,T,T,M,M,P,P,I,A","CT-BN,BN,CT-N,N,CT-T,T,CT-M,M,CT-P,P,CT-I,CT-A",0,-79.366325,35.01506,True,2814 Montrose Rd,Carolina Horse Park,Raeford,NC,28376,False,http://www.carolinahorsepark.com/,approved,,
17609,APRIL 18,USEA MDHT FEH/YEH/NEH Qualifier,2,Adamstown,MD,21710,4/18/2021,4/18/2021,3/9/2021,4/6/2021,"FEH-YEAR,YEH-5,NEH,4S,2S,3S,4S","FEH-2,FEH-3,FEH-4,FEH-YEAR,NEH,YEH-4,YEH-5",0,-77.429489,39.270748,True,1235 Park Mills Road,Loch Moy Farm,Adamstown,MD,21710,False,http://www.themarylandhorsetrials.com,approved,,
17619,"APRIL 24-25, 2021",Loudoun Hunt Pony Club Spring H.T.,2,Leesburg,VA,20176,4/24/2021,4/25/2021,3/9/2021,4/6/2021,"BN,N,T,P,I","BN,N,T,P,I",0,-77.555274,39.145424,True,41793 Tutt Lane,Morven Park Equestrian Center,Leesburg,VA,20176,False,https://loudounhunt.ponyclub.org/pages/334.aspx,approved,,
17624,"MAY 1-2, 2021",Waredaca H.T. ,2,Gaithersburg,MD,20882,5/1/2021,5/2/2021,3/16/2021,4/13/2021,"BN,N,T,M,P,I","BN,N,T,M,P,I",0,-77.080605,39.233318,True,4015 Damascus Rd,Waredaca Equestrian Facility,Laytonsville,MD,20882,False,http://www.waredaca.com,approved,,
17626,"MAY 5-9, 2021",Jersey Fresh International ,2,Allentown,NJ,08501,5/5/2021,5/9/2021,3/23/2021,4/20/2021,"P,CCI3-S,CCI4-S,CCI3-L,CCI4-L","P,CCI3-S,CCI4-S,CCI3-L,CCI4-L",0,-74.498207,40.193207,True,626 Rte 524,The Horsepark of New Jersey,Allentown,NJ,8501,False,http://www.jfi3d.com,approved,3/23/2021,4/27/2021
17628,MAY 8,Plantation Field May H.T. ,2,Unionville,PA,19320,5/8/2021,5/8/2021,3/23/2021,4/20/2021,"BN,N,T,P,I","BN,N,T,P,I",0,-75.787444,39.908737,True,450 Apple Grove Rd.,Plantation Field,Coatesville,PA,19320,False,http://www.plantationfield.com,approved,,
17631,"MAY 8-9, 2021",WindRidge Farm H.T. ,2,Mooresboro,NC,28114,5/8/2021,5/9/2021,3/23/2021,4/20/2021,"Starter,Starter,BN,BN,N,N,T,T,P,P","CT-Starter,Starter,CT-BN,BN,CT-N,N,CT-T,T,CT-P,P",0,-81.828506,35.227467,True,882 Goodes Creek Church Rd,Windridge Farm,Mooresboro,NC,28114,False,http://www.WindridgeFarmsNC.com,approved,,
17637,"MAY 14-15, 2021",Hunt Club Farms H.T.,2,Berryville,VA,22611,5/14/2021,5/15/2021,3/30/2021,4/27/2021,"YEH-5,4S,BN,N,T,PT,P","YEH-4,YEH-5,BN,N,T,PT,P",0,-78.036232,39.191025,True,294 Longmarsh Rd,Hunt Club Farms,Berryville,VA,22611,False,http://www.huntclubfarms.net,approved,,
17643,"MAY 15-16, 2021",Fair Hill International H.T. ,2,Elkton,MD,21921,5/15/2021,5/16/2021,4/6/2021,5/4/2021,"N,T,P,I","N,T,P,I",0,-75.860126,39.701706,True,4600 Telegraph Rd,Fair Hill - Telegraph,Elkton,MD,21921,False,http://www.fairhillinternational.org,approved,,
17645,"MAY 22-23, 2021",MCTA H.T. at Shawan Downs,2,Cockeysville,MD,21030,5/22/2021,5/23/2021,4/6/2021,5/4/2021,"BN,N,T,M,P,P,I,I,A","BN,N,T,M,CT-P,P,CT-I,I,CT-A",0,-76.695723,39.496716,True,1401 Shawan Rd.,Shawan Downs,Cockeysville,MD,21030,False,http://www.mdcta.com/,approved,,
17647,"MAY 22-23, 2021",Flora Lea Spring H.T. ,2,Medford,NJ,08055,5/22/2021,5/23/2021,4/6/2021,5/4/2021,"BN,N,T,P","BN,N,T,P",0,-74.814918,39.896675,True,21 Branin Rd.,Flora Lea Farm,Medford,NJ,8055,False,http://floraleafarm.com,approved,,
17648,"MAY 27-30, 2021",VHT International & H.T.,2,Lexington,VA,24450,5/27/2021,5/30/2021,4/13/2021,5/11/2021,"YEH-5,4S,Starter,BN,N,T,M,P,I,AI,CCI2-S,CCI1-L,CCI3-S,CCI2-L","Starter,YEH-4,YEH-5,BN,N,T,M,P,I,AI,CCI1-L,CCI2-S,CCI3-S,CCI2-L",0,-79.424185,37.809507,True,487 Maury River Rd,The Virginia Horse Center,Lexington,VA,24435,False,http://www.vahorsetrials.com/,approved,6/8/2021,7/6/2021
17644,MAY 28,USEA MDHT FEH/YEH/NEH Qualifier,2,Adamstown,MD,21710,5/28/2021,5/28/2021,4/13/2021,5/11/2021,"FEH-YEAR,YEH-5,NEH,4S,2S,3S,4S","FEH-2,FEH-3,FEH-4,FEH-YEAR,NEH,YEH-4,YEH-5",0,-77.429489,39.270748,True,1235 Park Mills Road,Loch Moy Farm,Adamstown,MD,21710,False,http://www.themarylandhorsetrials.com,approved,,
17661,"JUNE 5-6, 2021",The Middleburg H.T. ,2,The Plains,VA,20198,6/5/2021,6/6/2021,4/20/2021,5/18/2021,"BN,N,T,P","BN,N,T,P",0,-77.736947,38.990605,True,36800 Glenwood Park Lane,Glenwood Park,Middleburg,VA,20117,False,http://www.mocpony.club,approved,,
17663,JUNE 5,Plantation Field H.T. ,2,Unionville,PA,19320,6/5/2021,6/5/2021,4/20/2021,5/18/2021,"BN,N,T,P,I","BN,N,T,P,I",0,-75.787444,39.908737,True,450 Apple Grove Rd.,Plantation Field,Coatesville,PA,19320,False,http://www.Plantationfield.com,approved,,
17665,JUNE 6,NJ Region's H.T. - Pending USEF Approval,2,Allentown,NJ,08501,6/6/2021,6/6/2021,4/20/2021,5/18/2021,"BN,N,T,M","BN,N,T,M",0,-74.498207,40.193207,True,626 Rte 524,The Horsepark of New Jersey,Allentown,NJ,8501,False,https://www.njregionponyclub.org/,approved,,
17667,"JUNE 11-13, 2021",Seneca Valley Pony Club Spring H.T. ,2,Poolesville,MD,20837,6/11/2021,6/13/2021,4/27/2021,5/25/2021,"FEH-YEAR,2S,3S,4S,Starter,BN,N,T,M,P,I","FEH-2,FEH-3,FEH-4,FEH-YEAR,Starter,BN,N,T,M,P,I",0,-77.360199,39.091164,True,14401B Partnership Rd,Seneca - Bittersweet Field,Poolesville,MD,20837,False,http://www.senecavalleyponyclub.org/,approved,,
17671,JUNE 13,Bucks County Horse Park H.T.,2,Revere,PA,18953,6/13/2021,6/13/2021,4/27/2021,5/25/2021,"BN,N,T,PT","BN,N,T,PT",0,-75.17031,40.516807,True,8934 Easton Rd.,Bucks County Horse Park,Revere,PA,18953,False,http://www.buckscountyhorsepark.org/,approved,,
17674,"JUNE 18-20, 2021",Surefire Farm H.T. ,2,Purcellville,VA,20132,6/18/2021,6/20/2021,5/4/2021,6/1/2021,"YEH-5,4S,BN,N,T,P,I",EVENT CANCELLED,0,-77.741661,39.056019,True,Jeb Stuart Rd,Surefire Farm,Purcellville,VA,20132,False,http://www.surefireeventing.com/,cancelled,,
17688,"JUNE 19-20, 2021",Horse Park of New Jersey H.T. I  -Pending USEF Approval,2,Allentown,NJ,08501,6/19/2021,6/20/2021,5/4/2021,6/1/2021,"BN,N,T,P,I,A","BN,N,T,P,I,A",0,-74.498207,40.193207,True,626 Rte 524,The Horsepark of New Jersey,Allentown,NJ,8501,False,http://www.horseparkofnewjersey.com,approved,,
17678,JUNE 20,Flora Lea Farm YEH and Mini Event  ,2,Medford,NJ,08055,6/20/2021,6/20/2021,5/4/2021,6/1/2021,"YEH-5,4S,Starter","Starter,YEH-4,YEH-5",0,-74.814918,39.896675,True,21 Branin Rd.,Flora Lea Farm,Medford,NJ,8055,False,http://floraleafarm.com,approved,,
17689,"JUNE 26-27, 2021",Loudoun Hunt Pony Club Summer H.T. ,2,Leesburg,VA,20176,6/26/2021,6/27/2021,5/11/2021,6/8/2021,"BN,N,T,P,I","BN,N,T,P,I",0,-77.555274,39.145424,True,41793 Tutt Lane,Morven Park Equestrian Center,Leesburg,VA,20176,False,https://loudounhunt.ponyclub.org/pages/542.aspx,approved,,
17691,"JULY 2-4, 2021",The Maryland International + Horse Trials ,2,Adamstown,MD,21710,7/2/2021,7/4/2021,5/18/2021,6/15/2021,"BN,N,T,M,P,I,CCI1-S,CCI2-S,CCI3-S","BN,N,T,M,P,I,CCI1-S,CCI2-S,CCI3-S",0,-77.429489,39.270748,True,1235 Park Mills Road,Loch Moy Farm,Adamstown,MD,21710,False,http://www.themarylandhorsetrials.com/,approved,,
17696,"JULY 9-11, 2021",The Maryland H.T. at Loch Moy Farm II ,2,Adamstown,MD,21710,7/9/2021,7/11/2021,5/25/2021,6/22/2021,"FEH-YEAR,YEH-5,NEH,4S,2S,3S,4S,BN,N,T,M,P,I","FEH-2,FEH-3,FEH-4,FEH-YEAR,NEH,YEH-4,YEH-5,BN,N,T,M,P,I",0,-77.429489,39.270748,True,1235 Park Mills Road,Loch Moy Farm,Adamstown,MD,21710,False,http://www.themarylandhorsetrials.com/,approved,,
17703,"JULY 16-18, 2021",Essex H.T. ,2,Far Hills,NJ,07931,7/16/2021,7/18/2021,6/1/2021,6/29/2021,"BN,N,T,P,A","BN,N,T,P,A",0,-74.6361311,40.6847539,True,50 US Highway 202,Moorland Farm,Far Hills,NJ,07931,False,http://www.essexhorsetrials.org,approved,,
17705,JULY 18,Full Moon Farms H.T.,2,Finksburg,MD,21048,7/18/2021,7/18/2021,6/1/2021,6/29/2021,"Intro,Starter,BN,N,TN,T,PT","Intro,Starter,BN,N,TN,T,PT",0,-76.913864,39.457195,True,4326 Louisville Rd,Full Moon Farm,Finksburg,MD,21048,False,http://fullmoonfarm.com/,approved,,
17708,"JULY 23-25, 2021",Horse Park of New Jersey Horse Trials II,2,Allentown,NJ,08501,7/23/2021,7/25/2021,6/8/2021,7/6/2021,"BN,N,T,P,I,CCI2-S,CCI3-S","BN,N,T,P,I,CCI2-S,CCI3-S",0,-74.498207,40.193207,True,626 Rte 524,The Horsepark of New Jersey,Allentown,NJ,8501,False,http://www.horseparkofnewjersey.com,approved,,
17711,"JULY 24-25, 2021",Blue Ridge Mountain Horse Trials at TIEC-Pending USEF Approval,2,Mill Spring,NC,28756,7/24/2021,7/25/2021,6/8/2021,7/6/2021,"BN,N,T,M,P","BN,N,T,M,P",0,-82.066895,35.282646,True,4066 Pea Ridge Rd,Tryon International Equestrian Center,Mill Spring,NC,28756,False,http://www.tryon.com,approved,,
17709,"JULY 30-31, 2021",Hunt Club Farms H.T. ,2,Berryville,VA,22611,7/30/2021,7/31/2021,6/15/2021,7/13/2021,"YEH-5,4S,BN,N,T,PT,P","YEH-4,YEH-5,BN,N,T,PT,P",0,-78.036232,39.191025,True,294 Longmarsh Rd,Hunt Club Farms,Berryville,VA,22611,False,http://www.huntclubfarms.net,approved,,
17715,AUGUST 1,Olney Farm H.T. ,2,Joppa,MD,21085,8/1/2021,8/1/2021,6/15/2021,7/13/2021,"BN,N,T,M","BN,N,T,M",0,-76.371651,39.47731,True,1001 Old Joppa Road,Olney Farm,Joppa,MD,21085,False,http://www.olneyfarm.com,approved,,
17719,"AUGUST 7-8, 2021",Fair Hill International H.T. - Pending USEF Approval,2,Elkton,MD,21921,8/7/2021,8/8/2021,,,"N,T,P,I,CCI3-S","N,T,P,I,CCI3-S",0,-75.860126,39.701706,True,4600 Telegraph Rd,Fair Hill - Telegraph,Elkton,MD,21921,False,http://fairhillinternational.org/,approved,,
17726,"AUGUST 14-15, 2021",Waredaca Farm H.T. ,2,Gaithersburg,MD,20882,8/14/2021,8/15/2021,6/29/2021,7/27/2021,"YEH-5,4S,BN,N,T,M,P,I","YEH-4,YEH-5,BN,N,T,M,P,I",0,-77.080605,39.233318,True,4015 Damascus Rd,Waredaca Equestrian Facility,Laytonsville,MD,20882,False,http://www.waredaca.com,approved,,
17722,"AUGUST 14-15, 2021",WindRidge Farm Summer H.T. - Pending USEF Approval,2,Mooresboro,NC,28114,8/14/2021,8/15/2021,6/29/2021,7/27/2021,"Intro,Starter,BN,BN,N,N,T,T,P,P,I","Intro,Starter,CT-BN,BN,CT-N,N,CT-T,T,CT-P,P,I",0,-81.828506,35.227467,True,882 Goodes Creek Church Rd,Windridge Farm,Mooresboro,NC,28114,False,http://www.WindridgeFarmsNC.com,approved,,
17731,"AUGUST 18-22, 2021",Great Meadow International  ,2,The Plains,VA,20198,8/18/2021,8/22/2021,7/6/2021,8/3/2021,"P,CCI2-S,CCI3-S,CCI4-S","P,CCI2-S,CCI3-S,CCI4-S",0,-77.809738,38.828873,True,5089 Old Tavern Road,Great Meadow Horse Park,The Plains,VA,20198,False,http://www.greatmeadowinternational.com,approved,6/23/2021,7/21/2021
17734,AUGUST 21,Flora Lea Farm YEH  and Mini Event,2,Medford,NJ,08055,8/21/2021,8/21/2021,7/6/2021,8/3/2021,"YEH-5,4S,Starter","Starter,YEH-4,YEH-5",0,-74.814918,39.896675,True,21 Branin Rd.,Flora Lea Farm,Medford,NJ,8055,False,http://floraleafarm.com,approved,,
17737,"AUGUST 28-29, 2021",Five Points H.T. ,2,Raeford,NC,28374,8/28/2021,8/29/2021,7/13/2021,8/10/2021,"FEH-YEAR,YEH-5,NEH,4S,2S,3S,BN,BN,N,N,T,T,M,M,P,P,I,I,A,A","FEH-2,FEH-3,FEH-YEAR,NEH,YEH-4,YEH-5,CT-BN,BN,CT-N,N,CT-T,T,CT-M,M,CT-P,P,CT-I,I,CT-A,A",0,-79.366325,35.01506,True,2814 Montrose Rd,Carolina Horse Park,Raeford,NC,28376,False,http://www.carolinahorsepark.com,approved,,
17738,"AUGUST 28-29, 2021",Seneca Valley Pony Club H.T. ,2,Poolesville,MD,20837,8/28/2021,8/29/2021,7/13/2021,8/10/2021,"Starter,BN,N,T,M,P,I","Starter,BN,N,T,M,P,I",0,-77.360199,39.091164,True,14401B Partnership Rd,Seneca - Bittersweet Field,Poolesville,MD,20837,False,http://www.senecavalleyponyclub.org,approved,,
17745,SEPTEMBER 5,Bucks County Horse Park H.T.,2,Revere,PA,18953,9/5/2021,9/5/2021,7/20/2021,8/17/2021,"BN,N,T,PT","BN,N,T,PT",0,-75.17031,40.516807,True,8934 Easton Rd.,Bucks County Horse Park,Revere,PA,18953,False,http://www.buckscountyhorsepark.org,approved,,
17748,"SEPTEMBER 10-12, 2021",Tryon Fall H.T. ,2,Mill Spring,NC,28756,9/10/2021,9/12/2021,7/27/2021,8/24/2021,"YEH-5,4S,BN,N,TN,T,PT,M,P,IP,I,I,AI,A,A","YEH-4,YEH-5,BN,N,TN,T,PT,M,P,IP,CT-I,I,AI,CT-A,A",0,-82.066895,35.282646,True,4066 Pea Ridge Rd,Tryon International Equestrian Center,Mill Spring,NC,28756,False,http://www.tryon.com,approved,,
17750,"SEPTEMBER 11-12, 2021",Flora Lea Fall H.T. - Pending USEF Approval,2,Medford,NJ,08055,9/11/2021,9/12/2021,7/27/2021,8/24/2021,"BN,N,T,P","BN,N,T,P",0,-74.814918,39.896675,True,21 Branin Rd.,Flora Lea Farm,Medford,NJ,8055,False,http://www.floraleafarm.com,approved,,
17751,SEPTEMBER 11,USEA MDHT FEH/YEH/NEH Qualifier,2,Adamstown,MD,21710,9/11/2021,9/11/2021,7/27/2021,8/24/2021,"FEH-YEAR,YEH-5,NEH,4S,2S,3S,4S","FEH-2,FEH-3,FEH-4,FEH-YEAR,NEH,YEH-4,YEH-5",0,-77.429489,39.270748,True,1235 Park Mills Road,Loch Moy Farm,Adamstown,MD,21710,False,http://www.themarylandhorsetrials.com,approved,,
17752,SEPTEMBER 12,CDCTA Fall H.T. ,2,Berryville,VA,22611,9/12/2021,9/12/2021,7/27/2021,8/24/2021,"Intro,BN,N,T,P","Intro,BN,N,T,P",0,-78.007442,39.1703202,True,929 Kimble Road,CDCTA Eventing Facility,Berryville,VA,22611,False,https://cdcta.com/,approved,,
17753,"SEPTEMBER 15-19, 2021",Plantation Field International CCI-S - Pending USEF Approval,2,Unionville,PA,19375,9/15/2021,9/19/2021,8/3/2021,8/31/2021,"CCI2-S,CCI3-S,CCI4-S","CCI2-S,CCI3-S,CCI4-S",0,-75.787444,39.908737,True,450 Apple Grove Rd.,Plantation Field,Coatesville,PA,19320,False,http://plantationfield.com,approved,,
17760,"SEPTEMBER 18-19, 2021",Marlborough H.T ,2,Upper Marlboro,MD,20772,9/18/2021,9/19/2021,8/3/2021,8/31/2021,"Starter,Starter,BN,BN,N,N,T,T,M,P,P","CT-Starter,Starter,CT-BN,BN,CT-N,N,CT-T,T,CT-M,CT-P,P",0,-76.77887,38.779716,True,Rosaryville State Park,Rosaryville State Park,Upper Marlboro,MD,20772,False,http://www.marlboroughhorsetrials.org,approved,,
17820,SEPTEMBER 24,FEH/YEH Qualifier at Loch Moy Farm,2,Adamstown,MD,21710,9/24/2021,9/24/2021,8/10/2021,9/7/2021,"FEH-YEAR,YEH-5,NEH,4S,2S,3S,4S","FEH-2,FEH-3,FEH-4,FEH-YEAR,NEH,YEH-4,YEH-5",0,-77.429489,39.270748,True,1235 Park Mills Road,Loch Moy Farm,Adamstown,MD,21710,False,http://www.themarylandhorsetrials.com,approved,,
17766,"SEPTEMBER 25-26, 2021",ESDCTA New Jersey H.T. - Pending USEF Approval,2,Allentown,NJ,08501,9/25/2021,9/26/2021,8/10/2021,9/7/2021,"BN,N,T,P,I","BN,N,T,P,I",0,-74.498207,40.193207,True,626 Rte 524,The Horsepark of New Jersey,Allentown,NJ,8501,False,https://www.esdcta.org,approved,,
17821,SEPTEMBER 25,FEH Championships at Loch Moy Farm,2,Adamstown,MD,21710,9/25/2021,9/25/2021,8/10/2021,9/7/2021,"FEH-YEAR,2S,3S,4S","FEH-2,FEH-3,FEH-4,FEH-YEAR",0,-77.429489,39.270748,True,1235 Park Mills Road,Loch Moy Farm,Adamstown,MD,21710,False,http://www.themarylandhorsetrials.com,approved,,
17799,"SEPTEMBER 25-26, 2021",Old Tavern Horse Trials ,2,The Plains,VA,20198,9/25/2021,9/26/2021,8/10/2021,9/7/2021,"BN,N,T,P,I","BN,N,T,P,I",0,-77.736947,38.990605,True,36800 Glenwood Park Lane,Glenwood Park,Middleburg,VA,20117,False,http://www.mocpony.club,approved,,
17770,"OCTOBER 1-3, 2021",The Maryland Horse Trials at Loch Moy Farm-Pending USEF Approval,2,Adamstown,MD,21710,10/1/2021,10/3/2021,8/17/2021,9/14/2021,"BN,N,T,M,P,I,AI","BN,N,T,M,P,I,AI",0,-77.429489,39.270748,True,1235 Park Mills Road,Loch Moy Farm,Adamstown,MD,21710,False,http://www.themarylandhorsetrials.com,approved,,
17777,"OCTOBER 6-10, 2021","Morven Park Fall International CCI4*-L,CCI4/3*/2*-S & HT",2,Leesburg,VA,20176,10/6/2021,10/10/2021,8/24/2021,9/21/2021,"N,T,P,CCI2-S,CCI3-S,CCI4-S,CCI4-L","N,T,P,CCI2-S,CCI3-S,CCI4-S,CCI4-L",0,-77.555274,39.145424,True,41793 Tutt Lane,Morven Park Equestrian Center,Leesburg,VA,20176,False,http://www.morvenpark.org,approved,8/24/2021,9/21/2021
17781,"OCTOBER 9-10, 2021",WindRidge Farm Fall H.T. ,2,Mooresboro,NC,28114,10/9/2021,10/10/2021,8/24/2021,9/21/2021,"Intro,Starter,Starter,BN,BN,N,N,T,T,P,P,I","CT-Starter,Intro,Starter,CT-BN,BN,CT-N,N,CT-T,T,CT-P,P,I",0,-81.828506,35.227467,True,882 Goodes Creek Church Rd,Windridge Farm,Mooresboro,NC,28114,False,http://www.WindridgeFarmsNC.com,approved,,
17776,OCTOBER 9,Radnor Hunt H.T. -Pending USEF Approval,2,Malvern,PA,19355,10/9/2021,10/9/2021,8/24/2021,9/21/2021,"N,T,P","N,T,P",0,-75.483719,39.995613,True,826 Providence Rd,Radnor Hunt Field,Malvern,PA,19355,False,http://www.radnorhuntht.org,approved,,
17784,"OCTOBER 13-17, 2021",Maryland 5 Star at Fair Hill - Pending FEI/USEF Approval,2,Elkton,MD,21921,10/13/2021,10/17/2021,8/17/2021,9/14/2021,"YEH-5,4S,CCI3-L,CCI5-L","YEH-4,YEH-5,CCI3-L,CCI5-L",0,-75.839974,39.685218,True,400 Gallaher Rd,Fair Hill - Gallaher,Elkton,MD,21921,False,http://www.fairhillinternational.org,approved,8/17/2021,9/14/2021
17790,"OCTOBER 22-24, 2021",Waredaca Classic Three Day Event & H.T.-Pending USEF Approval,2,Gaithersburg,MD,20882,10/22/2021,10/24/2021,9/7/2021,10/5/2021,"BN,N,N3D,T,T3D,M,M3D,P,P3D","BN,N,N3D,T,T3D,M,M3D,P,P3D",0,-77.080605,39.233318,True,4015 Damascus Rd,Waredaca Equestrian Facility,Laytonsville,MD,20882,False,http://www.waredaca.com,approved,9/7/2021,10/5/2021
17795,"OCTOBER 28-31, 2021",The VHT International & H.T. - Pending USEF Approval,2,Lexington,VA,24450,10/28/2021,10/31/2021,9/14/2021,10/12/2021,"Starter,BN,N,T,M,P,I,AI,CCI2-S,CCI1-L,CCI3-S,CCI2-L,CCI3-L","Starter,BN,N,T,M,P,I,AI,CCI1-L,CCI2-S,CCI3-S,CCI2-L,CCI3-L",0,-79.424185,37.809507,True,487 Maury River Rd,The Virginia Horse Center,Lexington,VA,24435,False,http://www.vahorsetrials.com,approved,9/1/2021,9/29/2021
17803,NOVEMBER 7,Full Moon Farms H.T.,2,Finksburg,MD,21048,11/7/2021,11/7/2021,9/21/2021,10/19/2021,"Intro,Starter,BN,N,TN,T,PT","Intro,Starter,BN,N,TN,T,PT",0,-76.913864,39.457195,True,4326 Louisville Rd,Full Moon Farm,Finksburg,MD,21048,False,http://fullmoonfarm.com/,approved,,
17809,"NOVEMBER 10-14, 2021",Tryon International 3-Day Event - Pending USEF Approval,2,Mill Spring,NC,28756,11/10/2021,11/14/2021,9/28/2021,10/26/2021,"P,I,CCI4-S,CCI2-L,CCI3-L,CCI4-L","P,I,CCI4-S,CCI2-L,CCI3-L,CCI4-L",0,-82.066895,35.282646,True,4066 Pea Ridge Rd,Tryon International Equestrian Center,Mill Spring,NC,28756,False,http://www.tryon.com,approved,9/28/2021,10/26/2021
17528,DECEMBER 5,Sporting Days Farm Horse Trials IV,3,Aiken,SC,29801,12/5/2020,12/5/2020,10/20/2020,11/17/2020,"Starter,BN,N,TN,T,PT,P,I","Starter,BN,N,TN,T,PT,P,CT-I",1,-81.59201,33.521385,True,3549 Charleston Hwy,Sporting Days Farm,Aiken,SC,29801,True,http://www.sportingdaysfarm.com/,approved,,
17304,"DECEMBER 5-6, 2020",Rocking Horse December H.T.,3,Altoona,FL,32702,12/5/2020,12/6/2020,10/20/2020,11/17/2020,"BN,N,T,PT,P,I","BN,N,T,PT,P,I",1,-81.641426,28.993049,True,44200 S.R. 19 N,Rocking Horse Farm,Altoona,FL,32702,True,http://www.rockinghorseeventing.com,approved,,
17519,DECEMBER 13,Full Gallop Farm December H.T.,3,Aiken,SC,29805,12/13/2020,12/13/2020,10/27/2020,11/24/2020,"Starter,BN,N,TN,T,PT,P","Starter,BN,N,TN,T,PT,P",1,-81.584045,33.570454,True,3828 Wagener Rd.,Full Gallop Farm,Aiken,SC,29805,True,http://www.fullgallopfarm.com,approved,,
17581,"JANUARY 9-10, 2021",Barnstaple South H.T,3,Morriston,FL,32668,1/9/2021,1/10/2021,11/24/2020,12/22/2020,"BN,N,T,P","BN,N,T,P",1,-82.213234,29.403458,True,17500 N US Hwy 441,Exmoor Farm,Reddick,FL,32686,True,http://barnstaplesouth.com,approved,,
17562,"JANUARY 16-17, 2021",Horse Trials at Majestic Oaks ,3,Reddick,FL,32686,1/16/2021,1/17/2021,12/1/2020,12/29/2020,"Starter,BN,N,T,P","Starter,BN,N,T,P",1,-82.213234,29.403458,True,17500 N US Hwy 441,Exmoor Farm,Reddick,FL,32686,True,http://majesticoaksocala.com,approved,,
17564,"JANUARY 23-24, 2021",Grand Oaks H.T. ,3,Weirsdale,FL,32195,1/23/2021,1/24/2021,12/8/2020,1/5/2021,"BN,N,T,M,P","BN,N,T,M,P",1,-82.213234,29.403458,True,17500 N US Hwy 441,Exmoor Farm,Reddick,FL,32686,True,http://thegrandoaks.com,approved,,
17565,"JANUARY 23-24, 2021",Stable View Aiken Opener H.T.,3,Aiken,SC,29801,1/23/2021,1/24/2021,12/8/2020,1/5/2021,"BN,N,T,M,P","BN,N,T,M,P",1,-81.799975,33.648594,True,117 Stable Dr,Stable View Farm,Aiken,SC,29801,False,http://www.stableviewfarm.com,approved,,
17566,"JANUARY 29-31, 2021",Rocking Horse Winter I H.T.,3,Altoona,FL,32702,1/29/2021,1/31/2021,12/15/2020,1/12/2021,"BN,N,T,PT,P,IP,I","BN,N,T,PT,P,IP,I",1,-81.641426,28.993049,True,44200 S.R. 19 N,Rocking Horse Farm,Altoona,FL,32702,True,http://www.rockinghorseeventing.com/,approved,,
17567,JANUARY 31,Full Gallop Farm January H.T,3,Aiken,SC,29805,1/31/2021,1/31/2021,12/15/2020,1/12/2021,"Starter,BN,N,TN,T,PT,P","Starter,BN,N,TN,T,PT,P",1,-81.584045,33.570454,True,3828 Wagener Rd.,Full Gallop Farm,Aiken,SC,29805,True,https://fullgallopfarm.com/,approved,,
17569,FEBRUARY 6,Sporting Days Farm February Trials I H.T. ,3,Aiken,SC,29801,2/6/2021,2/6/2021,12/22/2020,1/19/2021,"Starter,BN,N,T,PT,P,I","Starter,BN,N,T,PT,P,CT-I",1,-81.59201,33.521385,True,3549 Charleston Hwy,Sporting Days Farm,Aiken,SC,29801,True,http://www.sportingdaysfarm.com/,approved,,
17570,"FEBRUARY 6-7, 2021",Three Lakes Winter I H.T. at Caudle Ranch,3,Groveland,FL,34736,2/6/2021,2/7/2021,12/22/2020,1/19/2021,"BN,N,T,P,IP","BN,N,T,P,IP",1,-81.831535,28.619129,True,18543 Highway 19,Caudle Ranch,Groveland,FL,34736,True,http://www.threelakesht.com,approved,,
17571,FEBRUARY 10,Full Gallop Farm February I H.T.,3,Aiken,SC,29805,2/10/2021,2/10/2021,12/29/2020,1/26/2021,"Starter,BN,N,TN,T,PT,P","Starter,BN,N,TN,T,PT,P",1,-81.584045,33.570454,True,3828 Wagener Rd.,Full Gallop Farm,Aiken,SC,29805,True,http://fullgallopfarm.com,approved,,
17572,"FEBRUARY 11-14, 2021",Ocala Winter I Horse Trials,3,Ocala,FL,34480,2/11/2021,2/14/2021,12/29/2020,1/26/2021,"BN,N,T,M,P,I,AI,A","BN,N,T,M,P,I,AI,CT-A",0,-82.139862,29.056026,True,11008 S Hwy 475,Florida Horse Park,Ocala ,FL,34480,True,http://www.flhorsepark.com,approved,,
17573,"FEBRUARY 12-14, 2021",Pine Top Intermediate H.T.,3,Thomson,GA,30824,2/12/2021,2/14/2021,12/29/2020,1/26/2021,"BN,N,TN,T,PT,P,I,AI","BN,N,TN,T,PT,P,I,AI",0,-82.466227,33.453217,True,1432 Augusta Hwy ,Pine Top Farm,Thomson,GA,30824,True,http://www.pinetopfarm.com/#home0  ,approved,,
17815,FEBRUARY 17,Holland Eventing at Holly Berry Farm Young Event Horse,3,Aiken,SC,29803,2/17/2021,2/17/2021,1/5/2021,2/2/2021,"YEH-5,4S","YEH-4,YEH-5",0,-74.814918,39.896675,True,21 Branin Rd.,Flora Lea Farm,Medford,NJ,8055,True,http://www.hollandeventing.com,approved,,
17575,"FEBRUARY 18-21, 2021",Rocking Horse Winter II Advanced  H.T.,3,Altoona,FL,32702,2/18/2021,2/21/2021,1/5/2021,2/2/2021,"BN,N,T,P,I,A","BN,N,T,P,I,A",0,-81.641426,28.993049,True,44200 S.R. 19 N,Rocking Horse Farm,Altoona,FL,32702,True,http://www.rockinghorseeventing.com,approved,,
17576,"FEBRUARY 19-21, 2021",Paradise Farm H.T. ,3,Aiken,SC,29805,2/19/2021,2/21/2021,1/5/2021,2/2/2021,"Starter,BN,N,T,PT,P,IP,I,A","Starter,BN,N,T,PT,P,IP,CT-I,CT-A",0,-81.557846,33.578014,True,4069 Wagener Rd.,Paradise Farm,Aiken,SC,29805,True,http://www.paradisefarmaiken.com,approved,,
17655,FEBRUARY 24,Full Gallop Farm Mid February H.T.,3,Aiken,SC,29805,2/24/2021,2/24/2021,1/12/2021,2/9/2021,"YEH-5,NEH,4S,Starter,BN,N,TN,T,PT,P","NEH,Starter,YEH-4,YEH-5,BN,N,TN,T,PT,P",0,-81.584045,33.570454,True,3828 Wagener Rd.,Full Gallop Farm,Aiken,SC,29805,True,http://www.fullgallopfarm.com,approved,,
17577,"FEBRUARY 26-28, 2021",Pine Top Advanced H.T.,3,Thomson,GA,30824,2/26/2021,2/28/2021,1/12/2021,2/9/2021,"N,TN,T,PT,P,I,A","N,TN,T,PT,P,I,A",0,-82.466227,33.453217,True,1432 Augusta Hwy ,Pine Top Farm,Thomson,GA,30824,True,http://www.pinetopfarm.com,approved,,
17578,"FEBRUARY 27-28, 2021",Three Lakes Winter II H.T. at Caudle Ranch,3,Groveland,FL,34736,2/27/2021,2/28/2021,1/12/2021,2/9/2021,"BN,N,T,P,IP","BN,N,T,P,IP",0,-81.831535,28.619129,True,18543 Highway 19,Caudle Ranch,Groveland,FL,34736,True,http://www.threelakesht.com,approved,,
17582,"MARCH 2-3, 2021",Full Gallop Farm March H.T.,3,Aiken,SC,29805,3/2/2021,3/3/2021,1/19/2021,2/16/2021,"YEH-5,NEH,4S,Starter,BN,N,TN,T,PT,P","NEH,Starter,YEH-4,YEH-5,BN,N,TN,T,PT,P",0,-81.584045,33.570454,True,3828 Wagener Rd.,Full Gallop Farm,Aiken,SC,29805,True,http://www.fullgallopfarm.com/,approved,,
17583,"MARCH 5-7, 2021",Rocking Horse Winter III H.T.,3,Altoona,FL,32702,3/5/2021,3/7/2021,1/19/2021,2/16/2021,"BN,N,T,P,I","BN,N,T,P,I",0,-81.641426,28.993049,True,44200 S.R. 19 N,Rocking Horse Farm,Altoona,FL,32702,True,http://www.rockinghorseeventing.com,approved,,
17585,"MARCH 6-7, 2021",Sporting Days Farm March H.T. II,3,Aiken,SC,29801,3/6/2021,3/7/2021,1/19/2021,2/16/2021,"Starter,BN,N,T,PT,P,I","Starter,BN,N,T,PT,P,CT-I",0,-81.59201,33.521385,True,3549 Charleston Hwy,Sporting Days Farm,Aiken,SC,29801,True,http://www.sportingdaysfarm.com/,approved,,
17584,"MARCH 6-7, 2021",Chattahoochee Hills H.T.,3,Fairburn,GA,30213,3/6/2021,3/7/2021,1/19/2021,2/16/2021,"BN,N,T,M,P,I","BN,N,T,M,P,I",0,-84.700048,33.639928,True,9445 Browns Lake Road,The Bouckaert Farm,Fairburn,GA,30213,True,http://www.chatthillseventing.com/,approved,,
17587,"MARCH 11-14, 2021",Red Hills International H.T.,3,Tallahassee,FL,32312,3/11/2021,3/14/2021,1/26/2021,2/23/2021,"P,I,A,CCI2-S,CCI3-S,CCI4-S","P,I,A,CCI2-S,CCI3-S,CCI4-S",0,-84.30026,30.538531,True,"Gate B, 1775 Miller Landing Road",Elinor Klapp Phipps Park,Tallahassee,FL,32312,True,http://www.RHHT.org,approved,,
17590,"MARCH 13-14, 2021",Full Gallop Farm March I H.T. ,3,Aiken,SC,29805,3/13/2021,3/14/2021,1/26/2021,2/23/2021,"YEH-5,NEH,4S,Starter,BN,N,TN,T,PT,P","NEH,Starter,YEH-4,YEH-5,BN,N,TN,T,PT,P",0,-81.584045,33.570454,True,3828 Wagener Rd.,Full Gallop Farm,Aiken,SC,29805,True,http://www.fullgallopfarm.com/,approved,,
17592,"MARCH 18-21, 2021",Ocala Winter II H.T.,3,Ocala,FL,34480,3/18/2021,3/21/2021,2/2/2021,3/2/2021,"BN,N,T,M,P,I,AI,A","BN,N,T,M,P,I,AI,CT-A",0,-82.139862,29.056026,True,11008 S Hwy 475,Florida Horse Park,Ocala ,FL,34480,True,http://www.flhorsepark.com,approved,,
17593,"MARCH 19-21, 2021",Pine Top Spring H.T.,3,Thomson,GA,30824,3/19/2021,3/21/2021,2/2/2021,3/2/2021,"BN,N,TN,T,PT,P,I","BN,N,TN,T,PT,P,I",0,-82.466227,33.453217,True,1432 Augusta Hwy ,Pine Top Farm,Thomson,GA,30824,True,http://www.pinetopfarm.com/,approved,,
17595,"MARCH 25-27, 2021",Stable View Spring 1/2/3/4* ,3,Aiken,SC,29801,3/25/2021,3/27/2021,2/9/2021,3/9/2021,"CCI1-S,CCI2-S,CCI3-S,CCI4-S","CCI1-S,CCI2-S,CCI3-S,CCI4-S",0,-81.799975,33.648594,True,117 Stable Dr,Stable View Farm,Aiken,SC,29801,True,http://StableViewFarm.com,approved,,
17598,"MARCH 26-28, 2021",March Horse Trials at Majestic Oaks ,3,Reddick,FL,32686,3/26/2021,3/28/2021,2/9/2021,3/9/2021,"Starter,BN,N,T,P","Starter,BN,N,T,P",0,-82.213234,29.403458,True,17500 N US Hwy 441,Exmoor Farm,Reddick,FL,32686,True,http://majesticoaksocala.com,approved,,
17600,"MARCH 27-28, 2021",Poplar Place Farm March H.T.,3,Hamilton,GA,31811,3/27/2021,3/28/2021,2/9/2021,3/9/2021,"Intro,Starter,BN,N,T,PT,M,P,IP","Intro,Starter,BN,N,T,PT,M,P,IP",0,-84.865074,32.702297,True,8191 US Highway 27 E,Poplar Place Farm,Hamilton,GA,31811,True,http://www.poplarplacefarm.com/,approved,,
17601,MARCH 28,Full Gallop Farm March II H.T.,3,Aiken,SC,29805,3/28/2021,3/28/2021,2/9/2021,3/9/2021,"Starter,BN,N,TN,T,PT,P","Starter,BN,N,TN,T,PT,P",0,-81.584045,33.570454,True,3828 Wagener Rd.,Full Gallop Farm,Aiken,SC,29805,True,http://www.fullgallopfarm.com/,approved,,
17603,"APRIL 2-4, 2021",Rocking Horse Spring H.T.,3,Altoona,FL,32702,4/2/2021,4/4/2021,2/16/2021,3/16/2021,"BN,N,T,PT,P,I","BN,N,T,PT,P,I",0,-81.641426,28.993049,True,44200 S.R. 19 N,Rocking Horse Farm,Altoona,FL,32702,False,http://www.rockinghorseeventing.com,approved,,
17607,"APRIL 9-11, 2021",Chattahoochee Hills H.T. ,3,Fairburn,GA,30213,4/9/2021,4/11/2021,2/23/2021,3/23/2021,"BN,N,T,M,P,I,A,CCI1-S,CCI2-S,CCI3-S,CCI4-S","BN,N,T,M,P,I,A,CCI1-S,CCI2-S,CCI3-S,CCI4-S",0,-84.700048,33.639928,True,9445 Browns Lake Road,The Bouckaert Farm,Fairburn,GA,30213,False,http://www.chatthillseventing.com/,approved,,
17611,"APRIL 15-18, 2021",Ocala International Festival of Eventing,3,Ocala,FL,34480,4/15/2021,4/18/2021,2/23/2021,3/23/2021,"N,T,M,P,I,AI,A,A,CCI1-L,CCI2-L,CCI3-L","N,T,M,P,I,AI,CT-A,A,CCI1-L,CCI2-L,CCI3-L",0,-82.139862,29.056026,True,11008 S Hwy 475,Florida Horse Park,Ocala ,FL,34480,False,http://www.flhorsepark.com,approved,2/23/2021,3/23/2021
17613,"APRIL 17-18, 2021",FENCE H.T.,3,Landrum,SC,29356,4/17/2021,4/18/2021,3/2/2021,3/30/2021,"Starter,BN,N,T,P","Starter,BN,N,T,P",0,-82.176845,35.196822,True,3381 Hunting Country Rd.,Fence Equestrian Center - FENCE,Tryon,NC,28782,False,http://www.fence.org,approved,,
17612,APRIL 17,Sporting Days Farm April H.T. III ,3,Aiken,SC,29801,4/17/2021,4/17/2021,3/2/2021,3/30/2021,"Starter,BN,N,T,PT,P","Starter,BN,N,T,PT,P",0,-81.59201,33.521385,True,3549 Charleston Hwy,Sporting Days Farm,Aiken,SC,29801,False,http://www.sportingdaysfarm.com/,approved,,
17620,"APRIL 24-25, 2021",Stable View Spring H.T.,3,Aiken,SC,29801,4/24/2021,4/25/2021,3/9/2021,4/6/2021,"BN,N,T,M,P","BN,N,T,M,P",0,-81.799975,33.648594,True,117 Stable Dr,Stable View Farm,Aiken,SC,29801,False,http://www.stableviewfarm.com,approved,,
17623,"APRIL 30 - MAY 2, 2021",River Glen Spring H.T.,3,New Market,TN,37820,4/30/2021,5/2/2021,3/16/2021,4/13/2021,"Starter,BN,N,TN,T,PT,P,IP,I","Starter,BN,N,TN,T,PT,P,IP,I",0,-83.622204,36.137849,True,1979 London Rd.,River Glen Equestrian,New Market,TN,37820,False,http://www.river-glen.com/,approved,,
17625,"MAY 1-2, 2021",Barnstaple South H.T ,3,Morriston,FL,32668,5/1/2021,5/2/2021,3/16/2021,4/13/2021,"BN,N,T,P","BN,N,T,P",0,-82.213234,29.403458,True,17500 N US Hwy 441,Exmoor Farm,Reddick,FL,32686,False,http://,approved,,
17630,"MAY 8-9, 2021",Poplar Place Farm May H.T. ,3,Hamilton,GA,31811,5/8/2021,5/9/2021,3/23/2021,4/20/2021,"Intro,Starter,BN,N,TN,T,PT,M,P,IP,I","Intro,Starter,BN,N,TN,T,PT,M,P,IP,I",0,-84.865074,32.702297,True,8191 US Highway 27 E,Poplar Place Farm,Hamilton,GA,31811,False,http://www.poplarplacefarm.com/,approved,,
17639,"MAY 15-16, 2021",Majestic Oaks Ocala H.T.  ,3,Reddick,FL,32686,5/15/2021,5/16/2021,3/30/2021,4/27/2021,"Starter,BN,N,T,P","Starter,BN,N,T,P",0,-82.213234,29.403458,True,17500 N US Hwy 441,Exmoor Farm,Reddick,FL,32686,False,http://majesticoaksocala.com,approved,,
17642,"MAY 22-23, 2021",Chattahoochee Hills H.T.,3,Fairburn,GA,30213,5/22/2021,5/23/2021,4/6/2021,5/4/2021,"BN,N,T,M,P,I,A","BN,N,T,M,P,I,A",0,-84.700048,33.639928,True,9445 Browns Lake Road,The Bouckaert Farm,Fairburn,GA,30213,False,http://www.chatthillseventing.com/,approved,,
17662,"JUNE 5-6, 2021",Ocala Summer I Horse Trials,3,Ocala,FL,34480,6/5/2021,6/6/2021,4/20/2021,5/18/2021,"BN,N,T,M,P","BN,N,T,M,P",0,-82.139862,29.056026,True,11008 S Hwy 475,Florida Horse Park,Ocala ,FL,34480,False,https://flhorsepark.com/ocala-eventing-series/,approved,,
17664,"JUNE 5-6, 2021",Poplar Place Farm June H.T.,3,Hamilton,GA,31811,6/5/2021,6/6/2021,4/20/2021,5/18/2021,"Intro,Starter,BN,N,TN,T,PT,M,P,IP,I","Intro,Starter,BN,N,TN,T,PT,M,P,IP,I",0,-84.865074,32.702297,True,8191 US Highway 27 E,Poplar Place Farm,Hamilton,GA,31811,False,http://www.poplarplacefarm.com/,approved,,
17670,"JUNE 12-13, 2021",River Glen June H.T.,3,New Market,TN,37820,6/12/2021,6/13/2021,4/27/2021,5/25/2021,"Starter,BN,N,TN,T,PT,P,IP,I","Starter,BN,N,TN,T,PT,P,IP,I",0,-83.622204,36.137849,True,1979 London Rd.,River Glen Equestrian,New Market,TN,37820,False,http://www.river-glen.com/,approved,,
17679,JUNE 20,Full Gallop Farm June H.T.,3,Aiken,SC,29805,6/20/2021,6/20/2021,6/20/2021,6/20/2021,"YEH-5,NEH,4S,Starter,BN,N,TN,T,PT,P,IP","NEH,Starter,YEH-4,YEH-5,BN,N,TN,T,PT,P,IP",0,-81.584045,33.570454,True,3828 Wagener Rd.,Full Gallop Farm,Aiken,SC,29805,False,http://www.fullgallopfarm.com,approved,,
17686,"JUNE 25-27, 2021",Stable View Summer H.T. ,3,Aiken,SC,29801,6/25/2021,6/27/2021,5/11/2021,6/8/2021,"BN,N,T,M,P,I,A","BN,N,T,M,P,I,A",0,-81.799975,33.648594,True,117 Stable Dr,Stable View Farm,Aiken,SC,29801,False,http://stableviewfarm.com,approved,,
17692,"JULY 3-4, 2021",Chattahoochee Hills H.T.,3,Fairburn,GA,30213,7/3/2021,7/4/2021,5/18/2021,6/15/2021,"YEH-5,4S,BN,N,T,M,P,I","YEH-4,YEH-5,BN,N,T,M,P,I",0,-84.700048,33.639928,True,9445 Browns Lake Road,The Bouckaert Farm,Fairburn,GA,30213,False,http://www.chatthillseventing.com/,approved,,
17698,"JULY 10-11, 2021",Chattahoochee Hills H.T.,3,Fairburn,GA,30213,7/10/2021,7/11/2021,5/25/2021,6/22/2021,"YEH-5,4S,BN,N,T,M,P,I","YEH-4,YEH-5,BN,N,T,M,P,I",0,-84.700048,33.639928,True,9445 Browns Lake Road,The Bouckaert Farm,Fairburn,GA,30213,False,http://www.chatthillseventing.com/,approved,,
17720,"AUGUST 6-8, 2021",River Glen Summer H.T. ,3,New Market,TN,37820,8/6/2021,8/8/2021,6/22/2021,7/20/2021,"Starter,BN,N,TN,T,M,P,IP,I,CCI1-S,CCI2-S,CCI3-S","Starter,BN,N,TN,T,M,P,IP,I,CCI1-S,CCI2-S,CCI3-S",0,-83.622204,36.137849,True,1979 London Rd.,River Glen Equestrian,New Market,TN,37820,False,http://www.river-glen.com/,approved,,
17727,"AUGUST 21-22, 2021",Full Gallop Farm August HT - Pending USEF Approval,3,Aiken,SC,29805,8/21/2021,8/22/2021,7/6/2021,8/3/2021,"YEH-5,NEH,4S,Starter,BN,N,TN,T,PT,P,I,AI","NEH,Starter,YEH-4,YEH-5,BN,N,TN,T,PT,P,I,AI",0,-81.584045,33.570454,True,3828 Wagener Rd.,Full Gallop Farm,Aiken,SC,29805,False,http://www.fullgallopfarm.com/,approved,,
17729,"AUGUST 21-22, 2021",Ocala Summer II Horse Trials,3,Ocala,FL,34480,8/21/2021,8/22/2021,7/6/2021,8/3/2021,"BN,N,T,M,P,I,AI,A","BN,N,T,M,P,I,AI,CT-A",0,-82.139862,29.056026,True,11008 S Hwy 475,Florida Horse Park,Ocala ,FL,34480,False,https://flhorsepark.com/ocala-eventing-series/,approved,,
17742,"SEPTEMBER 4-5, 2021",Chattahoochee Hills H.T. ,3,Fairburn,GA,30213,9/4/2021,9/5/2021,7/20/2021,8/17/2021,"YEH-5,4S,BN,N,T,M,P,I,A,CCI2-S,CCI1-L,CCI3-S","YEH-4,YEH-5,BN,N,T,M,P,I,A,CCI1-L,CCI2-S,CCI3-S",0,-84.716462,33.630239,True,10045 Cedar Grove Road,Chattahoochee Hills,Fairburn,GA,30213,False,http://www.chatthillseventing.com/,approved,,
17769,"SEPTEMBER 23-26, 2021",Stable View Oktoberfest  2/3/4* and H.T. ,3,Aiken,SC,29801,9/23/2021,9/26/2021,8/10/2021,9/7/2021,"BN,N,T,M,P,I,CCI2-S,CCI3-S,CCI4-S","BN,N,T,M,P,I,CCI2-S,CCI3-S,CCI4-S",0,-81.799975,33.648594,True,117 Stable Dr,Stable View Farm,Aiken,SC,29801,False,http://www.StableViewFarm.com,approved,,
17773,OCTOBER 2,Middle Tennessee Pony Club H.T.,3,Nashville,TN,37221,10/2/2021,10/2/2021,8/17/2021,9/14/2021,"Starter,BN,N,T","Starter,BN,N,T",0,-86.890627,36.055367,True,2500 Old Hickory Blvd,Percy Warner Park Eq Center,Nashville,TN,37221,False,https://middletennessee.ponyclub.org,approved,,
17783,"OCTOBER 8-10, 2021",The Event at TerraNova ,3,Myakka City,FL,34251,10/8/2021,10/10/2021,8/24/2021,9/21/2021,"BN,N,T,M,P,I,CCI1-S,CCI2-S,CCI3-S,CCI2-L","BN,N,T,M,P,I,CCI1-S,CCI2-S,CCI3-S,CCI2-L",0,-82.213234,29.403458,True,17500 N US Hwy 441,Exmoor Farm,Reddick,FL,32686,False,http://,approved,8/24/2021,9/21/2021
17780,"OCTOBER 9-10, 2021",Poplar Place Farm H.T. ,3,Hamilton,GA,31811,10/9/2021,10/10/2021,8/24/2021,9/21/2021,"Intro,Starter,BN,N,TN,T,PT,M,P,IP,I","Intro,Starter,BN,N,TN,T,PT,M,P,IP,I",0,-84.865074,32.702297,True,8191 US Highway 27 E,Poplar Place Farm,Hamilton,GA,31811,False,http://www.poplarplacefarm.com/,approved,,
17787,"OCTOBER 16-17, 2021",Ocala Fall Horse Trials,3,Ocala,FL,34480,10/16/2021,10/17/2021,8/31/2021,9/28/2021,"BN,N,T,M,P,I,A","BN,N,T,M,P,I,A",0,-82.139862,29.056026,True,11008 S Hwy 475,Florida Horse Park,Ocala ,FL,34480,False,https://flhorsepark.com/,approved,,
17800,"OCTOBER 21-24, 2021",World Equestrian Center International 3-Day Event,3,Ocala,FL,34482,10/21/2021,10/24/2021,9/7/2021,10/5/2021,"CCI2-S,CCI3-S,CCI4-S","CCI2-S,CCI3-S,CCI4-S",0,-82.27048,29.40728,True,8720 W Hwy 318,Ocala Jockey Club,Reddick,FL,32686,False,http://www.OJC3DE.com,approved,9/16/2021,10/26/2021
17794,"OCTOBER 23-24, 2021","Tryon Riding & Hunt Club ""Morris the Horse"" Trials ",3,Landrum,SC,29356,10/23/2021,10/24/2021,9/7/2021,10/5/2021,"Starter,BN,N,T,P","Starter,BN,N,T,P",0,-82.081436,35.236221,True,6985 S. NC Hwy. 9 ,Fence Equestrian Center - Tryon,Columbus,NC,28722,False,www.tryonridingandhuntclub.org,approved,,
17796,"OCTOBER 30-31, 2021",Chattahoochee Hills H.T. ,3,Fairburn,GA,30213,10/30/2021,10/31/2021,9/14/2021,10/12/2021,"BN,N,T,M,P,I,A","BN,N,T,M,P,I,A",0,-84.716462,33.630239,True,10045 Cedar Grove Road,Chattahoochee Hills,Fairburn,GA,30213,False,http://www.chatthillseventing.com/,approved,,
17798,"NOVEMBER 6-7, 2021",Rocking Horse Fall H.T. ,3,Altoona,FL,32702,11/6/2021,11/7/2021,9/21/2021,10/19/2021,"BN,N,T,PT,P,I","BN,N,T,PT,P,I",0,-81.641426,28.993049,True,44200 S.R. 19 N,Rocking Horse Farm,Altoona,FL,32702,False,http://www.rockinghorseeventing.com/,approved,,
17807,NOVEMBER 7,Full Gallop Farm November H.T.- Pending USEF Approval,3,Aiken,SC,29805,11/7/2021,11/7/2021,9/21/2021,10/19/2021,"Starter,BN,N,TN,T,PT,P","Starter,BN,N,TN,T,PT,P",0,-81.584045,33.570454,True,3828 Wagener Rd.,Full Gallop Farm,Aiken,SC,29805,False,http://www.fullgallopfarm.com,approved,,
17805,"NOVEMBER 12-14, 2021",River Glen Fall H.T. - Pending USEF Approval,3,New Market,TN,37820,11/12/2021,11/14/2021,9/28/2021,10/26/2021,"BN,N,TN,T,M,P,IP,I","BN,N,TN,T,M,P,IP,I",0,-83.622204,36.137849,True,1979 London Rd.,River Glen Equestrian,New Market,TN,37820,False,http://www.river-glen.com/,approved,,
17804,"NOVEMBER 13-14, 2021",Horse Trials at Majestic Oaks,3,Reddick,FL,32686,11/13/2021,11/14/2021,9/28/2021,10/26/2021,"BN,N,T,P","BN,N,T,P",0,-82.213234,29.403458,True,17500 N US Hwy 441,Exmoor Farm,Reddick,FL,32686,False,http://www.MajesticOaksOcala.com,approved,,
17812,"NOVEMBER 27-28, 2021",Pine Top Thanksgiving H.T. - Pending USEF Approval,3,Thomson,GA,30824,11/27/2021,11/28/2021,10/12/2021,11/9/2021,"BN,N,TN,T,PT,M,P","BN,N,TN,T,PT,M,P",0,-82.466227,33.453217,True,1432 Augusta Hwy ,Pine Top Farm,Thomson,GA,30824,False,http://www.pinetopfarm.com,approved,,
17640,"MAY 15-16, 2021",Mill Creek Pony Club Horse Trial,4,Kansas City,MO,64149,5/15/2021,5/16/2021,3/30/2021,4/27/2021,"Starter,Starter,BN,BN,N,T,P","CT-Starter,Starter,CT-BN,BN,N,T,P",0,-94.475287,38.893713,True,12600 Old Raytown Rd,Longview Horse Park,Grandview,MO,64146,False,http://millcreek.ponyclub.org,approved,,
17641,"MAY 21-23, 2021",Otter Creek Spring H.T.,4,Wheeler,WI,54772,5/21/2021,5/23/2021,4/6/2021,5/4/2021,"Starter,BN,N,T,PT,P,IP,I","Starter,BN,N,T,PT,P,IP,I",0,-91.896561,45.103241,True,Otter Creek Farm 1170th Ave,Otter Creek Farm,Wheeler,WI,54772,False,http://www.ottercreekfarm.com/,approved,,
17656,JUNE 6,Carriage House Farm Combined Test,4,Hugo,MN,55038,6/6/2021,6/6/2021,4/20/2021,5/25/2021,"Starter,BN,N,T,P,I","Starter,CT-BN,CT-N,CT-T,CT-P,CT-I",0,-92.949326,45.208195,True,17727 Henna Ave. N,Carriage House Farm,Hugo,MN,55038,False,http://www.carriagehousefarm.org,approved,,
17669,"JUNE 12-13, 2021",Queeny Park H.T.,4,Ballwin,MO,63011,6/12/2021,6/13/2021,4/27/2021,5/25/2021,"Starter,BN,N,T,M","Starter,BN,N,T,M",0,-90.495112,38.60505,True,555 Weidman Rd.,Edgar M. Queeny County Park,Ballwin,MO,63011,False,http://www.qpee.org,approved,,
17675,JUNE 19,Silverwood Farm Spring H.T.,4,Camp Lake,WI,53109,6/19/2021,6/19/2021,5/4/2021,6/1/2021,"Starter,BN,N,T,PT","Starter,BN,N,T,PT",0,-88.155205,42.535473,True,28426 98th Street,Silverwood Farm,Trevor,WI,53179,False,http://www.silverwoodfarm.net/,approved,,
17681,"JUNE 24-27, 2021",Fox River Valley Pony Club H.T. ,4,Barrington Hills,IL,60010,6/24/2021,6/27/2021,5/11/2021,6/8/2021,"Starter,BN,N,T,P,CCI2-S,CCI2-L","Starter,BN,N,T,P,CCI2-S,CCI2-L",0,-88.223786,42.145417,True,254 Bateman Rd,Barrington Hills Park Riding Center,Barrington,IL,60010,False,http://www.FRVPCHorsetrials.org,approved,5/11/2021,6/8/2021
17710,JULY 24,Silverwood Farm Summer H.T.,4,Camp Lake,WI,53109,7/24/2021,7/24/2021,6/8/2021,7/6/2021,"Starter,BN,N,T,PT","Starter,BN,N,T,PT",0,-88.155205,42.535473,True,28426 98th Street,Silverwood Farm,Trevor,WI,53179,False,http://www.silverwoodfarm.net/,approved,,
17714,"JULY 31 - AUGUST 1, 2021",Catalpa Corner Charity Horse Trials,4,Iowa City,IA,52240,7/31/2021,8/1/2021,6/15/2021,7/13/2021,"Starter,BN,N,T,P","Starter,BN,N,T,P",0,-91.410169,41.714727,True,5365 Elmira Rd.,Catalpa Corner,Iowa City,IA,52240,False,http://www.catalpacorner.org,approved,,
17724,"AUGUST 13-15, 2021",Otter Creek Summer H.T.,4,Wheeler,WI,54772,8/13/2021,8/15/2021,6/29/2021,7/27/2021,"Starter,BN,N,T,PT,P,IP,I","Starter,BN,N,T,PT,P,IP,I",0,-91.896561,45.103241,True,Otter Creek Farm 1170th Ave,Otter Creek Farm,Wheeler,WI,54772,False,http://www.ottercreekfarm.com,approved,,
17743,SEPTEMBER 4,Silverwood Farm Fall H.T.,4,Camp Lake,WI,53109,9/4/2021,9/4/2021,7/20/2021,8/17/2021,"Starter,BN,N,T,PT","Starter,BN,N,T,PT",0,-88.155205,42.535473,True,28426 98th Street,Silverwood Farm,Trevor,WI,53179,False,http://www.silverwoodfarm.net/,approved,,
17757,"SEPTEMBER 17-19, 2021",Otter Creek Fall H.T. ,4,Wheeler,WI,54772,9/17/2021,9/19/2021,8/3/2021,8/31/2021,"Starter,BN,N,T,PT,P,IP,I","Starter,BN,N,T,PT,P,IP,I",0,-91.896561,45.103241,True,Otter Creek Farm 1170th Ave,Otter Creek Farm,Wheeler,WI,54772,False,http://www.ottercreekfarm.com/,approved,,
17772,"OCTOBER 1-3, 2021",Sundance Farm H.T. ,4,Plymouth,WI,53073,10/1/2021,10/3/2021,8/17/2021,9/14/2021,"Starter,BN,N,T,P","Starter,BN,N,T,P",0,-88.011779,43.776863,True,N6329 Branch Road  ,Sundance Farm,Plymouth,WI,53073,False,http://www.sundancefarm.net,approved,,
17779,"OCTOBER 8-10, 2021",Heritage Park H.T. ,4,Olathe,KS,66062,10/8/2021,10/10/2021,8/24/2021,9/21/2021,"Starter,BN,N,T,PT,P,IP","Starter,BN,N,T,PT,P,IP",0,-94.734299,38.823833,True,"16801 Pflumm Rd, Olathe",Heritage Park Horse Park,Olathe,KS,66062,False,https://www.midamericaeventing.com/heritage-park-usea-ht,approved,,
17791,"OCTOBER 22-24, 2021",Windermere Run H.T - Pending USEF Approval,4,Kansas City,MO,64149,10/22/2021,10/24/2021,9/7/2021,10/5/2021,"Starter,BN,N,T,P","Starter,BN,N,T,P",0,-94.475287,38.893713,True,12600 Old Raytown Rd,Longview Horse Park,Grandview,MO,64146,False,http://www.windermerestables.net,approved,,
17589,"MARCH 13-14, 2021",MeadowCreek Park - The Spring Social Event,5,Kosse,TX,76653,3/13/2021,3/14/2021,1/26/2021,2/23/2021,"Starter,BN,N,T,PT,P","Starter,BN,N,T,PT,P",0,-96.640597,31.26988,True,1332 Highway 14 South,Meadowcreek Park,Kosse,TX,76653,True,http://www.MCPTexas.com,approved,,
17597,"MARCH 26-28, 2021",Texas Rose Horse Park H.T.,5,Tyler,TX,75704,3/26/2021,3/28/2021,2/9/2021,3/9/2021,"Intro,FEH-YEAR,YEH-5,NEH,4S,2S,3S,4S,BN,N,T,PT,P,IP,I,AI","FEH-2,FEH-3,FEH-4,FEH-YEAR,NEH,Intro,YEH-4,YEH-5,BN,N,T,PT,P,IP,I,AI",0,-95.503062,32.472261,True,14078 TX-110,Texas Rose Horse Park,Tyler,TX,75704,True,http://www.texasrosehorsepark.com,approved,,
17604,"APRIL 3-4, 2021",Pine Hill Spring H.T.,5,Bellville,TX,77418,4/3/2021,4/4/2021,2/16/2021,3/16/2021,"FEH-YEAR,YEH-5,NEH,4S,2S,3S,4S,Starter,BN,N,T,P","FEH-2,FEH-3,FEH-4,FEH-YEAR,NEH,Starter,YEH-4,YEH-5,BN,N,T,P",0,-96.239609,29.958752,True,1720 Hwy 159 East Bellville,Pine Hill,Bellville,TX,77418,False,http://www.pinehilltexas.com/,approved,,
17614,"APRIL 17-18, 2021",Holly Hill H.T.,5,Benton,LA,71006,4/17/2021,4/18/2021,3/2/2021,3/30/2021,"Starter,BN,N,T,P,I","Starter,BN,N,T,P,I",0,-93.764526,32.734516,True,1296 Old Plain Dealing Rd,Holly Hill Farm,Blenton,LA,71006,False,http://www.hollyhillfarm.net/,approved,,
17634,"MAY 15-16, 2021",Texas Rose Horse Park H.T.,5,Tyler,TX,75704,5/15/2021,5/16/2021,3/30/2021,4/27/2021,"BN,N,T,PT,P,IP,I,AI","BN,N,T,PT,P,IP,I,AI",0,-95.503062,32.472261,True,14078 TX-110,Texas Rose Horse Park,Tyler,TX,75704,False,http://www.texasrosehorsepark.com,approved,3/24/2021,4/21/2021
17653,MAY 29,Willow Draw Charity Show,5,Weatherford,TX,76086,5/29/2021,5/29/2021,4/13/2021,5/11/2021,"Starter,BN,N,T","Starter,BN,N,T",0,-97.784668,32.79479,True,401 North Bend Rd,Willow Draw Equestrian,Weatherford,TX,76085,False,http://www.willowdraw.com,approved,,
17762,"SEPTEMBER 18-19, 2021",MeadowCreek Park H.T - The Fall Social Event- Pending USEF Approval,5,Kosse,TX,76653,9/18/2021,9/19/2021,8/3/2021,8/31/2021,"Starter,BN,N,T,PT,P,IP","Starter,BN,N,T,PT,P,IP",0,-96.640597,31.26988,True,1332 Highway 14 South,Meadowcreek Park,Kosse,TX,76653,False,http://www.MCPTexas.com,approved,,
17775,"OCTOBER 2-3, 2021",Fleur de Leap H.T.,5,Folsom,LA,70437,10/2/2021,10/3/2021,8/17/2021,9/14/2021,"Starter,BN,NBN,N,TN,T,PT","Starter,BN,NBN,N,TN,T,PT",0,-90.184767,30.643,True,13349 Verger Road,LAGNIAPPE EQUESTRIAN CENTER,Folsom,LA,70437,False,http://www.sedariders.org/,approved,,
17774,OCTOBER 2,Willow Draw Charity Show,5,Weatherford,TX,76085,10/2/2021,10/2/2021,8/17/2021,9/14/2021,"Starter,BN,N,T","Starter,BN,N,T",0,-97.784668,32.79479,True,401 North Bend Rd,Willow Draw Equestrian,Weatherford,TX,76085,False,http://www.willowdraw.com,approved,,
17786,OCTOBER 16,Pine Hill Fall H.T.,5,Bellville,TX,77418,10/16/2021,10/16/2021,8/31/2021,9/28/2021,"Starter,BN,N,T,P","Starter,BN,N,T,P",0,-96.239609,29.958752,True,1720 Hwy 159 East Bellville,Pine Hill,Bellville,TX,77418,False,http://www.pinehilltexas.com/,approved,,
17793,"OCTOBER 23-24, 2021",Holly Hill H.T. Pending USEF Approval,5,Benton,LA,71006,10/23/2021,10/24/2021,9/7/2021,10/5/2021,"Starter,BN,N,T,P,I","Starter,BN,N,T,P,I",0,-93.764526,32.734516,True,1296 Old Plain Dealing Rd,Holly Hill Farm,Blenton,LA,71006,False,http://www.hollyhillfarm.net/,approved,,
17802,"NOVEMBER 6-7, 2021",Texas Rose Horse Park Fall H.T. - Pending USEF Approval,5,Tyler,TX,75704,11/6/2021,11/7/2021,9/21/2021,10/19/2021,"Intro,BN,N,T,PT,P,IP,I,AI","Intro,BN,N,T,PT,P,IP,I,AI",0,-95.503062,32.472261,True,14078 TX-110,Texas Rose Horse Park,Tyler,TX,75704,False,http://www.texasrosehorsepark.com,approved,,
17563,"JANUARY 16-17, 2021",Fresno County Horse Park Combined Test,6,Fresno,CA,93722,1/16/2021,1/17/2021,12/1/2020,12/29/2020,"Intro,BN,N,T,P,I,A","Intro,CT-BN,CT-N,CT-T,CT-P,CT-I,CT-A",0,-119.923032,36.843311,True,7430 N. Weber Ave,Fresno County Horsepark,Fresno,CA,93722,True,http://www.FresnoCountyHorsePark.com,approved,,
17568,"JANUARY 29-31, 2021",Galway Downs 2021 Kickoff H.T.,6,Temecula,CA,92592,1/29/2021,1/31/2021,12/15/2020,1/12/2021,"Intro,BN,N,T,P,I,AI,A","Intro,BN,N,T,P,I,AI,CT-A",1,-117.033958,33.487278,True,38801 Los Corralitos Rd,Galway Downs,Temecula,CA,92592,True,http://www.galwaydowns.net,approved,,
17574,"FEBRUARY 12-14, 2021",Fresno County Horse Park H.T.,6,Fresno,CA,93724,2/12/2021,2/14/2021,12/29/2020,1/26/2021,"Intro,BN,N,T,P,I","Intro,BN,N,T,P,I",0,-119.923032,36.843311,True,7430 N. Weber Ave,Fresno County Horsepark,Fresno,CA,93722,True,http://www.FresnoCountyHorsePark.com,approved,,
17579,"FEBRUARY 25-28, 2021",Twin Rivers Winter H.T.,6,Paso Robles,CA,93446,2/25/2021,2/28/2021,1/12/2021,2/9/2021,"Intro,BN,N,T,P,I,A","Intro,BN,N,T,P,I,A",0,-120.692764,35.727787,True,8715 N. River Rd,Twin Rivers Horse Park,Paso Robles,CA,93446,True,http://www.twinrivershorsepark.com,approved,,
17588,"MARCH 12-14, 2021","Copper Meadows Eventing, LLC H.T.",6,Ramona,CA,92065,3/12/2021,3/14/2021,1/26/2021,2/23/2021,"Intro,BN,N,T,P,I,I,A,A","Intro,BN,N,T,P,CT-I,I,CT-A,A",0,-116.904612,33.041472,True,633 Montecito Way,Copper Meadows Horse Park,Ramona,CA,92065,True,http://www.copper-meadows.com/,approved,,
17596,"MARCH 26-28, 2021",Galway Downs International H.T.,6,Temecula,CA,92592,3/26/2021,3/28/2021,2/9/2021,3/9/2021,"BN,N,T,P,I,A,CCI2-S,CCI3-S,CCI4-S","BN,N,T,P,I,A,CCI2-S,CCI3-S,CCI4-S",0,-117.033958,33.487278,True,38801 Los Corralitos Rd,Galway Downs,Temecula,CA,92592,True,http://www.galwaydowns.net,approved,,
17605,"APRIL 8-11, 2021",Twin Rivers Spring International,6,Paso Robles,CA,93446,4/8/2021,4/11/2021,2/23/2021,3/23/2021,"BN,N,T,P,I,A,A,CCI3-S,CCI4-S,CCI2-L,CCI3-L,CCI4-L","BN,N,T,P,I,CT-A,A,CCI3-S,CCI4-S,CCI2-L,CCI3-L,CCI4-L",0,-120.692764,35.727787,True,8715 N. River Rd,Twin Rivers Horse Park,Paso Robles,CA,93446,False,http://www.twinrivershorsepark.com,approved,2/23/2021,3/23/2021
17622,"APRIL 30 - MAY 2, 2021",Fresno County Horse Park H.T.,6,Fresno,CA,93724,4/30/2021,5/2/2021,3/16/2021,4/13/2021,"Intro,BN,N,T,M,P,I","Intro,BN,N,T,M,P,I",0,-119.923032,36.843311,True,7430 N. Weber Ave,Fresno County Horsepark,Fresno,CA,93722,False,http://www.FresnoCountyHorsePark.com,approved,3/16/2021,4/13/2021
17633,"MAY 14-16, 2021",Galway Downs Spring H.T.,6,Temecula,CA,92592,5/14/2021,5/16/2021,3/23/2021,4/20/2021,"Intro,FEH-YEAR,YEH-5,4S,2S,3S,4S,BN,N,T,P,I","FEH-2,FEH-3,FEH-4,FEH-YEAR,Intro,YEH-4,YEH-5,BN,N,T,P,I",0,-117.033958,33.487278,True,38801 Los Corralitos Rd,Galway Downs,Temecula,CA,92592,False,http://www.galwaydowns.net,approved,,
17638,MAY 15,Woodland Stallion Station H.T.,6,Woodland,CA,95695,5/15/2021,5/15/2021,3/30/2021,4/27/2021,"Intro,BN,N,T,P","Intro,BN,N,T,P",0,-121.876749,38.692305,True,34270 County Road 20,Woodland Stallion Station,Woodland ,CA,95695,False,http://woodlandstallion.com/shows/usea-horse-trials/,approved,,
17650,"MAY 28-30, 2021",The Spring Event at Woodside,6,Woodside,CA,94062,5/28/2021,5/30/2021,4/13/2021,5/11/2021,"Intro,BN,N,T,P,I,A","Intro,BN,N,T,P,I,A",0,-122.245483,37.407471,True,3674 Sand Hill Rd.,Woodside Horse Park,Woodside,CA,94062,False,http://woodsideeventing.com/,approved,,
17668,JUNE 12,Woodland Stallion Station H.T. ,6,Woodland,CA,95695,6/12/2021,6/12/2021,4/27/2021,5/25/2021,"Intro,FEH-YEAR,2S,3S,4S,Starter,BN,N,T,P","FEH-2,FEH-3,FEH-4,FEH-YEAR,Intro,Starter,BN,N,T,P",0,-121.876749,38.692305,True,34270 County Road 20,Woodland Stallion Station,Woodland ,CA,95695,False,woodlandstallion.com,approved,,
17673,"JUNE 18-20, 2021",Shepherd Ranch SYVPC H.T. I ,6,Santa Ynez,CA,93460,6/18/2021,6/20/2021,5/4/2021,6/1/2021,"Intro,BN,N,TN,T,PT,P,IP","Intro,BN,N,TN,T,PT,P,IP",0,-120.067222,34.62442,True,1460 Hwy 154,Shepherd Ranch,Santa Ynez,CA,93460,False,http://www.shepherdrancheventing.com,approved,,
17690,"JULY 1-4, 2021",Twin Rivers Summer H.T. - Pending USEF Approval,6,Paso Robles,CA,93446,7/1/2021,7/4/2021,5/18/2021,6/15/2021,"Intro,FEH-YEAR,YEH-5,NEH,4S,2S,3S,4S,BN,N,T,P,I,A,A","FEH-2,FEH-3,FEH-4,FEH-YEAR,NEH,Intro,YEH-4,YEH-5,BN,N,T,P,I,CT-A,A",0,-120.692764,35.727787,True,8715 N. River Rd,Twin Rivers Horse Park,Paso Robles,CA,93446,False,http://www.twinrivershorsepark.com,approved,,
17725,"AUGUST 12-15, 2021",The Summer Event at Woodside ,6,Woodside,CA,94062,8/12/2021,8/15/2021,6/29/2021,7/27/2021,"Intro,FEH-YEAR,2S,3S,BN,N,T,MT,P,I,AI","FEH-2,FEH-3,FEH-YEAR,Intro,BN,N,T,MT,P,I,AI",0,-122.245483,37.407471,True,3674 Sand Hill Rd.,Woodside Horse Park,Woodside,CA,94062,False,http://www.woodsideeventing.com,approved,,
17736,"AUGUST 27-29, 2021",Shepherd Ranch SYVPC H.T. II,6,Santa Ynez,CA,93460,8/27/2021,8/29/2021,7/13/2021,8/10/2021,"Intro,BN,N,TN,T,PT,P,IP","Intro,BN,N,TN,T,PT,P,IP",0,-120.067222,34.62442,True,1460 Hwy 154,Shepherd Ranch,Santa Ynez,CA,93460,False,http://www.shepherdrancheventing.com,approved,,
17744,SEPTEMBER 4,Woodland Stallion Station H.T. - Pending USEF Approval,6,Woodland,CA,95695,9/4/2021,9/4/2021,7/20/2021,8/17/2021,"Intro,Starter,BN,N,T,M,P","Intro,Starter,BN,N,T,M,P",0,-121.876749,38.692305,True,34270 County Road 20,Woodland Stallion Station,Woodland ,CA,95695,False,http://woodlandstallion.com/,approved,,
17746,"SEPTEMBER 10-12, 2021","Copper Meadows Eventing, LLC H.T. ",6,Ramona,CA,92065,9/10/2021,9/12/2021,7/27/2021,8/24/2021,"Intro,BN,N,T,P,I,A,A","Intro,BN,N,T,P,I,CT-A,A",0,-116.904612,33.041472,True,633 Montecito Way,Copper Meadows Horse Park,Ramona,CA,92065,False,http://www.copper-meadows.com,approved,,
17763,"SEPTEMBER 23-26, 2021",Twin Rivers Fall International,6,Paso Robles,CA,93446,9/23/2021,9/26/2021,8/10/2021,9/7/2021,"YEH-5,4S,2S,3S,4S,Intro,FEH-YEAR,BN,N,T,P,I,A,CCI2-S,CCI3-S,CCI4-S","FEH-2,FEH-3,FEH-4,FEH-YEAR,Intro,YEH-4,YEH-5,BN,N,T,P,I,A,CCI2-S,CCI3-S,CCI4-S",0,-120.692764,35.727787,True,8715 N. River Rd,Twin Rivers Horse Park,Paso Robles,CA,93446,False,http://twinrivershorsepark.com/,approved,,
17778,"OCTOBER 7-10, 2021",Woodside International H.T. Pending USEF Approval,6,Woodside,CA,94062,10/7/2021,10/10/2021,8/24/2021,9/21/2021,"Intro,BN,N,T,P,I,A,CCI2-S,CCI3-S,CCI4-S","Intro,BN,N,T,P,I,A,CCI2-S,CCI3-S,CCI4-S",0,-122.245483,37.407471,True,3674 Sand Hill Rd.,Woodside Horse Park,Woodside,CA,94062,False,http://www.woodsideeventing.com,approved,,
17789,"OCTOBER 22-24, 2021",Fresno County Horse Park H.T. - Pending USEF Approval,6,Fresno,CA,93724,10/22/2021,10/24/2021,9/7/2021,10/5/2021,"Intro,BN,N,T,M,P,I","Intro,BN,N,T,M,P,I",0,-119.923032,36.843311,True,7430 N. Weber Ave,Fresno County Horsepark,Fresno,CA,93722,False,http://www.fresnocountyhorsep.com,approved,,
17822,"OCTOBER 29-30, 2021",USEA FEH & YEH West Coast Championships,6,Paso Robles,CA,93446,10/29/2021,10/30/2021,9/14/2021,10/12/2021,"FEH-YEAR,YEH-5,4S,2S,3S,4S","FEH-2,FEH-3,FEH-4,FEH-YEAR,YEH-4,YEH-5",0,-120.692764,35.727787,True,8715 N. River Rd,Twin Rivers Horse Park,Paso Robles,CA,93446,False,http://twinrivershorsepark.com/,approved,,
17797,"NOVEMBER 3-7, 2021",Galway Downs International Event & H.T.,6,Temecula,CA,92592,11/3/2021,11/7/2021,9/21/2021,10/19/2021,"BN,NBN,N,TN,T,MT,M,P,CCI2-L,CCI3-L,CCI4-L","BN,NBN,N,TN,T,MT,M,P,CCI2-L,CCI3-L,CCI4-L",0,-117.033958,33.487278,True,38801 Los Corralitos Rd,Galway Downs,Temecula,CA,92592,False,http://www.galwaydowns.net,approved,9/1/2021,9/29/2021
17810,"NOVEMBER 19-21, 2021",Fresno County Horse Park H.T. - Pending USEF Approval,6,Fresno,CA,93722,11/19/2021,11/21/2021,10/5/2021,11/2/2021,"Intro,BN,BN3D,N,N3D,T,T3D,M,P,I","Intro,BN,BN3D,N,N3D,T,T3D,M,P,I",0,-119.923032,36.843311,True,7430 N. Weber Ave,Fresno County Horsepark,Fresno,CA,93722,False,http://www.Fresnocountyhorsep.com,approved,10/5/2021,11/2/2021
17632,"MAY 13-16, 2021",Spokane Sport Horse Spring H.T.,7,Spokane,WA,99224,5/13/2021,5/16/2021,3/30/2021,4/27/2021,"Intro,FEH-YEAR,YEH-5,NEH,4S,2S,3S,4S,BN,N,T,M,P,I,AI","FEH-2,FEH-3,FEH-4,FEH-YEAR,NEH,Intro,YEH-4,YEH-5,BN,N,T,M,P,I,AI",0,-117.46257,47.554176,True,10710 S Sherman Rd,Spokane Sport Horse Farm,Spokane,WA,99224,False,http://www.spokanesporthorse.com,approved,,
17651,"MAY 28-30, 2021",Equestrians' Institute H.T.,7,Cle Elum,WA,98922,5/28/2021,5/30/2021,4/13/2021,5/11/2021,"BN,N,T,P,I","BN,N,T,P,I",0,-120.966752,47.194533,True,1202 Douglas Munro Blvd,Washington State Horse Park,Cle Elum,WA,98922,False,http://einw.org,approved,,
17666,"JUNE 11-13, 2021",Aspen Farms H.T. ,7,Yelm,WA,98597,6/11/2021,6/13/2021,4/27/2021,5/25/2021,"BN,N,T,P,I,CCI2-S,CCI3-S","BN,N,T,P,I,CCI2-S,CCI3-S",0,-122.607213,46.896835,True,13042 Morris Rd,Aspen Farms,Yelm,WA,98597,False,http://www.aspenfarmseventing.com/,approved,,
17684,"JUNE 25-27, 2021",Inavale Farm HT ,7,Philomath,OR,97370,6/25/2021,6/27/2021,5/11/2021,6/8/2021,"Intro,BN,N,T,P,I","Intro,BN,N,T,P,I",0,-123.381601,44.501595,True,31786 Horse Farm Lane,Inavale Farm,Philomath,OR,97370,False,http://www.inavalefarm.com,approved,,
17687,"JUNE 26-27, 2021",Arrowhead H.T.,7,Billings,MT,59105,6/26/2021,6/27/2021,5/11/2021,6/8/2021,"Starter,BN,N,T,P","CT-Starter,BN,N,T,P",0,-108.58403,45.85384,True,3651 Alkali Creek Rd.,Warfield Park,Billings,MT,59105,False,http://www.warfieldpark.org,approved,,
17706,"JULY 21-25, 2021",Event at Rebecca Farm,7,Kalispell,MT,59901,7/21/2021,7/25/2021,6/8/2021,7/6/2021,"BN,N,N3D,T,T3D,M,P,I,A,CCI4-S,CCI2-L,CCI3-L,CCI4-L","BN,N,N3D,T,T3D,M,P,I,A,CCI4-S,CCI2-L,CCI3-L,CCI4-L",0,-114.376572,48.229515,True,1010 West Springcreek Rd,Rebecca Farm,Kalispell,MT,59901,False,http://www.rebeccafarm.org/,approved,6/8/2021,7/6/2021
17717,"AUGUST 6-8, 2021",Area VII Young Rider Benefit H.T.,7,Centralia,WA,98531,8/6/2021,8/8/2021,6/22/2021,7/20/2021,"Intro,FEH,BN,N,T,P","FEH,Intro,BN,N,T,P",0,-123.083809,46.758701,True,828 Lincoln Creek Rd,Lincoln Creek,Chehalis,WA,98531,False,https://www.areavii.org/benefit-horse-trials,approved,,
17732,"AUGUST 20-22, 2021",Caber Farm H.T.,7,Onalaska,WA,98570,8/20/2021,8/22/2021,7/6/2021,8/3/2021,"BN,N,T,P,I","BN,N,T,P,I",0,-122.732574,46.559375,True,213 Jensen Rd.,Caber Farm,Onalaska,WA,98570,False,http://www.caberfarm.com/,approved,,
17741,"SEPTEMBER 3-5, 2021",Equestrians' Institute H.T. ,7,Cle Elum,WA,98922,9/3/2021,9/5/2021,7/20/2021,8/17/2021,"BN,N,T,P,I","BN,N,T,P,I",0,-120.966752,47.194533,True,1202 Douglas Munro Blvd,Washington State Horse Park,Cle Elum,WA,98922,False,http://einw.org,approved,,
17754,"SEPTEMBER 17-19, 2021",Aspen Farms H.T. ,7,Yelm,WA,98597,9/17/2021,9/19/2021,8/3/2021,8/31/2021,"BN,N,T,P,I,A","BN,N,T,P,I,A",0,-122.607213,46.896835,True,13042 Morris Rd,Aspen Farms,Yelm,WA,98597,False,http://www.aspenfarmseventing.com/,approved,,
17768,"SEPTEMBER 30 - OCTOBER 3, 2021",Spokane Sport Horse Seventh Annual Fall H.T. ,7,Spokane,WA,99224,9/30/2021,10/3/2021,8/17/2021,9/14/2021,"Intro,FEH-YEAR,YEH-5,4S,2S,3S,4S,BN,BN3D,N,N3D,T,T3D,M,M3D,P,P3D,I,AI,CCI2-S,CCI1-S,CCI3-S","FEH-2,FEH-3,FEH-4,FEH-YEAR,Intro,YEH-4,YEH-5,BN,BN3D,N,N3D,T,T3D,M,M3D,P,P3D,I,AI,CCI1-S,CCI2-S,CCI3-S",0,-117.46257,47.554176,True,10710 S Sherman Rd,Spokane Sport Horse Farm,Spokane,WA,99224,False,http://www.spokanesporthorse.com,approved,8/17/2021,9/14/2021
17610,"APRIL 10-11, 2021",Spring Bay H.T.,8,Lexington,KY,40511,4/10/2021,4/11/2021,2/23/2021,3/23/2021,"Starter,BN,N,T,M,P","Starter,BN,N,T,M,P",0,-84.5168,38.151688,True,4089 Iron Works Pkwy,Kentucky Horse Park,Lexington,KY,40511,False,http://www.kyevents.net,approved,,
17617,"APRIL 21-25, 2021",Land Rover Kentucky Three-Day Event ,8,Lexington,KY,40511,4/21/2021,4/25/2021,2/23/2021,3/23/2021,"CCI4-S,CCI5-L","CCI4-S,CCI5-L",0,-84.5168,38.151688,True,4089 Iron Works Pkwy,Kentucky Horse Park,Lexington,KY,40511,False,https://kentuckythreedayevent.com/,approved,2/23/2021,3/23/2021
17816,"MAY 8-9, 2021",Miami Valley H.T. at Twin Towers,8,Yellow Springs,OH,45387,5/8/2021,5/9/2021,3/23/2021,4/20/2021,"Starter,BN,N,T","Starter,BN,N,T",0,-80.908832,40.807526,True,31407 Schneider Rd,Stone Gate Farm,Hanoverton,OH,44423,False,http://,approved,,
17635,"MAY 14-16, 2021",Winona Horse Trials,8,Hanoverton,OH,44423,5/14/2021,5/16/2021,3/30/2021,4/27/2021,"FEH-YEAR,YEH-5,NEH,4S,2S,3S,4S,Starter,BN,N,T,P","FEH-2,FEH-3,FEH-4,FEH-YEAR,NEH,Starter,YEH-4,YEH-5,BN,N,T,P",0,-80.908832,40.807526,True,31407 Schneider Rd,Stone Gate Farm,Hanoverton,OH,44423,False,http://www.stonegatefarm.org/,approved,,
17649,"MAY 28-30, 2021",May-Daze at the Park H.T.,8,Lexington,KY,40511,5/28/2021,5/30/2021,4/13/2021,5/11/2021,"Starter,BN,N,TN,T,PT,P,IP","Starter,BN,N,TN,T,PT,P,IP",0,-84.5168,38.151688,True,4089 Iron Works Pkwy,Kentucky Horse Park,Lexington,KY,40511,False,http://www.champagnerun.com,approved,,
17657,"JUNE 3-6, 2021","IEA Horse Trials, Classic Training & Novice 3-Day Event",8,Edinburgh,IN,46124,6/3/2021,6/6/2021,4/20/2021,5/18/2021,"Starter,BN,N,N3D,T,T3D,M,P,IP","Starter,BN,N,N3D,T,T3D,M,P,IP",0,-86.041138,39.307491,True,"Hoosier Horse Park, Camp Atterbury",Hoosier Horse Park,Edinburgh,IN,46124,False,http://www.indyeventers.org/,approved,4/20/2021,5/18/2021
17677,"JUNE 19-20, 2021",Honey Run H.T.,8,Ann Arbor,MI,48103,6/19/2021,6/20/2021,5/4/2021,6/1/2021,"Starter,BN,N,T","Starter,BN,N,T",0,-83.859131,42.263641,True,1478 Honey Run Dr,,Ann Arbor,MI,48103,False,http://www.eventingmichigan.org,approved,,
17685,"JUNE 25-27, 2021",Midsouth Pony Club H.T.,8,Lexington,KY,40511,6/25/2021,6/27/2021,5/11/2021,6/8/2021,"Starter,BN,N,T,P,IP","Starter,BN,N,T,P,IP",0,-84.5168,38.151688,True,4089 Iron Works Pkwy,Kentucky Horse Park,Lexington,KY,40511,False,https://midsouth.ponyclub.org/,approved,,
17693,"JULY 3-4, 2021",Cobblestone Farms H.T. I ,8,Chelsea,MI,48118,7/3/2021,7/4/2021,5/18/2021,6/15/2021,"Starter,BN,N,T,M,P,I","Starter,BN,N,T,M,P,I",0,-83.844574,42.365833,True,5601 Zeeb Road,Cobblestone Farm,Dexter,MI,48130,False,http://www.cobblestonefarmsllc.com,approved,,
17702,"JULY 16-18, 2021",Champagne Run at the Park H.T.,8,Lexington,KY,40504,7/16/2021,7/18/2021,6/1/2021,6/29/2021,"Starter,BN,N,TN,T,PT,P,IP","Starter,BN,N,TN,T,PT,P,IP",0,-84.404932,37.93902,True,5911 Old Richmond Road,Champagne Run Farm,Lexington,KY,40515,False,http://www.champagnerun.com,approved,,
17713,"AUGUST 6-8, 2021",Hoosier H.T. - Pending USEF Approval,8,Edinburgh,IN,46124,8/6/2021,8/8/2021,6/22/2021,7/20/2021,"Starter,BN,N,T,M,P","Starter,BN,N,T,M,P",0,-86.041138,39.307491,True,"Hoosier Horse Park, Camp Atterbury",Hoosier Horse Park,Edinburgh,IN,46124,False,http://www.pennyoaksstables.com,approved,,
17718,"AUGUST 6-8, 2021",Cobblestone Farms H.T. II,8,Dexter,MI,48130,8/6/2021,8/8/2021,6/22/2021,7/20/2021,"Starter,BN,N,T,M,P,I","Starter,BN,N,T,M,P,I",0,-83.844574,42.365833,True,5601 Zeeb Road,Cobblestone Farm,Dexter,MI,48130,False,http://www.cobblestonefarmsllc.com,approved,,
17730,"AUGUST 21-22, 2021",Metamora Hunt II Pony Club H.T.,8,Metamora,MI,48455,8/21/2021,8/22/2021,7/6/2021,8/3/2021,"Starter,BN,N,T","Starter,BN,N,T",0,-85.982407,42.132523,True,79561 Stapleton Rd,Chardon Valley Farm,Decatur,MI,49045,False,http://www.huntersrunfarm.com/,approved,,
17740,"AUGUST 31 - SEPTEMBER 5, 2021","USEA AEC, $60,000 Adequan Advanced Final, and ATC Finals",8,Lexington,KY,40511,8/31/2021,9/5/2021,7/20/2021,8/17/2021,"BN,N,T,M,P,I,A","BN,N,T,M,P,I,A",0,-84.5168,38.151688,True,4089 Iron Works Pkwy,Kentucky Horse Park,Lexington,KY,40511,False,http://useventing.com/aec,approved,,
17749,"SEPTEMBER 11-12, 2021",Chardon Valley H.T.,8,Decatur,MI,49045,9/11/2021,9/12/2021,7/27/2021,8/24/2021,"Starter,BN,N,T,M","Starter,BN,N,T,M",0,-85.982407,42.132523,True,79561 Stapleton Rd,Chardon Valley Farm,Decatur,MI,49045,False,"http://www.eventingmichigan.org, , https://www.facebook.com/ChardonValleyHorseTrials/",approved,,
17756,"SEPTEMBER 17-19, 2021",Flying Cross Farm H.T.,8,Goshen,KY,40026,9/17/2021,9/19/2021,8/3/2021,8/31/2021,"FEH-YEAR,YEH-5,4S,2S,3S,4S,BN,N,T,P","FEH-2,FEH-3,FEH-4,FEH-YEAR,YEH-4,YEH-5,BN,N,T,P",0,-85.523209,38.426964,True,9220 W Hwy 42 ,Flying Cross Farm,Goshen,KY,40026,False,www.flyingcrossfarm.org,approved,,
17761,"SEPTEMBER 18-19, 2021",Stone Gate Farm H.T.,8,Hanoverton,OH,44423,9/18/2021,9/19/2021,8/3/2021,8/31/2021,"FEH-YEAR,2S,3S,4S,Starter,BN,N,T,P","FEH-2,FEH-3,FEH-4,FEH-YEAR,Starter,BN,N,T,P",0,-80.908832,40.807526,True,31407 Schneider Rd,Stone Gate Farm,Hanoverton,OH,44423,False,http://www.stonegatefarm.org,approved,,
17771,"OCTOBER 1-3, 2021",Jump Start H.T. ,8,Lexington,KY,40511,10/1/2021,10/3/2021,8/17/2021,9/14/2021,"Starter,BN,N,T,P,I","Starter,BN,N,T,P,I",0,-84.602646,38.045734,True,4201 Versailles Rd ,KHP - Keeneland Park,Lexington,KY,40510,False,https://keeneland.ponyclub.org,approved,,
17788,"OCTOBER 20-24, 2021",Hagyard Midsouth Three-day Event,8,Lexington,KY,40511,10/20/2021,10/24/2021,9/7/2021,10/5/2021,"BN,N,T,T3D,P,P3D,I,CCI3-S,CCI2-L,CCI3-L","BN,N,T,T3D,P,P3D,I,CCI3-S,CCI2-L,CCI3-L",0,-84.5168,38.151688,True,4089 Iron Works Pkwy,Kentucky Horse Park,Lexington,KY,40511,False,http://www.kyevents.net,approved,8/24/2021,9/21/2021
17627,"MAY 7-9, 2021",The Event at Skyline,9,Mount Pleasant,UT,84032,5/7/2021,5/9/2021,3/23/2021,4/20/2021,"Intro,BN,N,T,PT,P,I","Intro,BN,N,T,PT,P,I",0,-111.475851,39.531776,True,995 W 1000 S,Skyline Eventing Park,Mt Pleasant,UT,84647,False,www.facebook.com/SkylineEventingPark,approved,,
17646,"MAY 22-23, 2021",Spring Gulch H.T.,9,Littleton,CO,80129,5/22/2021,5/23/2021,4/6/2021,5/4/2021,"Intro,BN,N,T,P","Intro,BN,N,T,P",0,-104.995361,39.485371,True,Hwy 85,Spring Gulch Equestrian Area,Littleton,CO,92065,False,http://springgulchhorsetrials.com ,approved,,
17817,"JUNE 4-6, 2021",The Event at Archer - Pending USEF Approval,9,Cheyenne,WY,82009,6/4/2021,6/6/2021,4/20/2021,5/18/2021,"Starter,BN,N,T,P,I","Starter,BN,N,T,P,I",0,-104.655,41.152444,True,3967 Archer Parkway,Archer Eventing Park,Cheyenne,WY,82009,False,http://www.EventatArcher.com,approved,,
17658,"JUNE 5-6, 2021",Colorado Horse Park H.T.,9,Parker,CO,80134,6/5/2021,6/6/2021,4/20/2021,5/18/2021,"Intro,BN,N,T,P","Intro,BN,N,T,P",0,-104.743507,39.436527,True,7522 South Pinery Drive,Colorado Horse Park Western Arena Complex,Parker,CO,80134,False,http://www.coloradohorsepark.com/,approved,,
17676,"JUNE 12-13, 2021",Golden Spike H.T.,9,Ogden,UT,84404,6/12/2021,6/13/2021,4/27/2021,5/25/2021,"Intro,BN,N,T,PT,P","Intro,BN,N,T,PT,P",0,-112.008549,41.275977,True,1000 N 1200 W,Golden Spike Event Center,Ogden,UT,84404,False,https://www.wasatchponyclub.com/events-1/golden-spike-horse-trials-2020,approved,,
17818,"JUNE 25-27, 2021",Spring Hollow Equestrian Park - Pending USEF Approval,9,Hesperus,CO,81326,6/25/2021,6/27/2021,5/11/2021,6/8/2021,"BN,N,T,M,P","BN,N,T,M,P",0,-104.743507,39.436527,True,7522 South Pinery Drive,Colorado Horse Park Western Arena Complex,Parker,CO,80134,False,http://www.coloradohorsepark.com/,approved,,
17700,"JULY 10-11, 2021",Powder Basin H.T. ,9,Gillette,WY,82718,7/10/2021,7/11/2021,5/25/2021,6/22/2021,"Intro,BN,BN,N,N,T,T,PT,P,P","Intro,CT-BN,BN,CT-N,N,CT-T,T,PT,CT-P,P",0,-105.444402,44.279338,True,Camplex Equestrian Park,Camplex Equestrian Park,Gillette,WY,82718,False,http://www.powderbasinequestrian.com/,approved,,
17697,JULY 10,Round Top H.T.,9,Castle Rock,CO,80108,7/10/2021,7/10/2021,5/25/2021,6/22/2021,"Intro,BN,N,T","Intro,BN,N,T",0,-104.861244,39.437568,True,1393 Mesa Ridge Ln,,Castle Rock,CO,80108,False,www.useventing.com,approved,,
17721,"AUGUST 7-8, 2021",Spring Gulch H.T. ,9,Littleton,CO,80129,8/7/2021,8/8/2021,6/22/2021,7/20/2021,"Intro,BN,N,T,P","Intro,BN,N,T,P",0,-104.995361,39.485371,True,Hwy 85,Spring Gulch Equestrian Area,Littleton,CO,92065,False,http://www.msea-ccc.org/,approved,,
17733,"AUGUST 20-22, 2021",The Event at Archer,9,Cheyenne,WY,82009,8/20/2021,8/22/2021,7/6/2021,8/3/2021,"Starter,BN,N,T,P,I","Starter,BN,N,T,P,I",0,-104.655,41.152444,True,3967 Archer Parkway,Archer Eventing Park,Cheyenne,WY,82009,False,http://www.EventatArcher.com,approved,,
17755,"SEPTEMBER 17-19, 2021",The Event at Skyline - Pending USEF Approval,9,Mount Pleasant,UT,84032,9/17/2021,9/19/2021,8/3/2021,8/31/2021,"Intro,BN,N,T,PT,P,IP,I","Intro,BN,N,T,PT,P,IP,I",0,-111.475851,39.531776,True,995 W 1000 S,Skyline Eventing Park,Mt Pleasant,UT,84647,False,http://www.skylineeventingpark.com,approved,,
17801,"OCTOBER 2-3, 2021",Moqui Meadows H.T. ,9,Greeley,CO,80634,10/2/2021,10/3/2021,8/17/2021,9/14/2021,"Intro,BN,N,T","Intro,BN,N,T",0,-105.073921,40.39275,True,8445 E County Rd,,Loveland,CO,80534,False,www.useventing.com,approved,,
17819,"OCTOBER 15-17, 2021",Spring Hollow Equestrian Park - Pending USEF Approval,9,Hesperus,CO,81326,10/15/2021,10/17/2021,8/31/2021,9/28/2021,"BN,N,T,M,P","BN,N,T,M,P",0,-104.743507,39.436527,True,7522 South Pinery Drive,Colorado Horse Park Western Arena Complex,Parker,CO,80134,False,http://www.coloradohorsepark.com/,approved,,
17594,"MARCH 20-21, 2021",Southern Arizona H.T. ,10,Tucson,AZ,85747,3/20/2021,3/21/2021,2/2/2021,3/2/2021,"Intro,BN,N,T,P","Intro,BN,N,T,P",0,-111.6929297,35.144368,True,Fort TutHill Fairgrounds,Fort Tut Hill Fairgrounds,Flagstaff,AZ,86001,True,http://www.southernarizonaeventing.org/,approved,,
17654,"MAY 29-30, 2021",Spring Coconino H.T.  ,10,Flagstaff,AZ,86001,5/29/2021,5/30/2021,4/13/2021,5/11/2021,"Intro,BN,N,T,P,IP,I","Intro,BN,N,T,P,IP,I",0,-111.6929297,35.144368,True,Fort TutHill Fairgrounds,Fort Tut Hill Fairgrounds,Flagstaff,AZ,86001,False,http://www.coconinohorsetrials.com/,approved,,
17695,"JULY 2-4, 2021",Coconino Summer I H.T.  ,10,Flagstaff,AZ,86001,7/2/2021,7/4/2021,5/18/2021,6/15/2021,"Intro,Pre-Comp,BN,N,T,P,P,IP,I,I","Intro,Pre-Comp,BN,N,T,CT-P,P,IP,CT-I,I",0,-111.6929297,35.144368,True,Fort TutHill Fairgrounds,Fort Tut Hill Fairgrounds,Flagstaff,AZ,86001,False,http://www.coconinohorsetrials.com/,approved,,
17701,"JULY 8-10, 2021","Summer Coconino H.T and Western Underground, Inc TR, N, BN3D",10,Flagstaff,AZ,86001,7/8/2021,7/10/2021,5/25/2021,6/22/2021,"Intro,BN,BN,BN3D,N,N3D,T,T,T3D,P,P,IP,I,I,A","Intro,CT-BN,BN,BN3D,N,N3D,CT-T,T,T3D,CT-P,P,IP,CT-I,I,CT-A",0,-111.6929297,35.144368,True,Fort TutHill Fairgrounds,Fort Tut Hill Fairgrounds,Flagstaff,AZ,86001,False,http://www.coconinohorsetrials.com/,approved,5/25/2021,6/22/2021
17764,"SEPTEMBER 25-26, 2021",The Event at Isaacks Ranch - Pending USEF Approval,10,Las Cruces,NM,88012,9/25/2021,9/26/2021,8/10/2021,9/7/2021,"Intro,Starter,BN,N,T,PT,M","Intro,Starter,BN,N,T,PT,M",0,-106.698944,32.452377,True,65 County Rd D-66,Isaacks Ranch,Las Cruces,NM,88012,False,www.isaacksranch.com,approved,,
17618,"OCTOBER 9-10, 2021",St. Johns H.T. - Pending Approval,10,Saint Johns,AZ,85936,10/9/2021,10/10/2021,8/24/2021,9/21/2021,"Derby,Pre-Comp,BN,BN,N,N,T,T,PT,P","Derby,Pre-Comp,CT-BN,BN,CT-N,N,CT-T,T,PT,CT-P",0,-109.373999,34.51151,True,"845 W 4th N., St. ",St. Johns Equestrian Center,Johns,AZ,85936,False,http://www.coconinohorsetrials.com,approved,,
17806,"NOVEMBER 20-21, 2021",Southern Arizona H.T. - Pending USEF Approval,10,Tucson,AZ,85747,11/20/2021,11/21/2021,10/5/2021,11/2/2021,"Intro,BN,N,T,P","Intro,BN,N,T,P",0,-111.6929297,35.144368,True,Fort TutHill Fairgrounds,Fort Tut Hill Fairgrounds,Flagstaff,AZ,86001,False,http://www.southernarizonaeventing.org/,approved,,
