Title,Merge_Candidate,Area,Lon,Lat,EventVenueAddress,EventVenueFacilityName,EventVenueCity,EventVenueState,EventVenueZip,EventWebsite
Apple Knoll Farm,Apple Knoll Farm H.T.(Sep 2019),1,-70.57221,41.86124,1067 Old Sandwich Rd,Valinor Farm,Plymouth,MA,2360,http://www.appleknoll.com/
Apple Knoll Farm,Apple Knoll Farm H.T.(Sep 2020),1,-70.57221,41.86124,1067 Old Sandwich Rd,Valinor Farm,Plymouth,MA,2360,http://www.appleknoll.com/
Apple Knoll Farm  ,Apple Knoll Farm H.T.(Sep 2020),1,-70.57221,41.86124,1067 Old Sandwich Rd,Valinor Farm,Plymouth,MA,2360,http://www.appleknoll.com/
Apple Knoll Farm  ,Apple Knoll Farm H.T.(Sep 2020),1,-70.57221,41.86124,1067 Old Sandwich Rd,Valinor Farm,Plymouth,MA,2360,http://www.appleknoll.com/
Apple Knoll Farm  ,Apple Knoll Farm H.T.(Sep 2020),1,-70.57221,41.86124,1067 Old Sandwich Rd,Valinor Farm,Plymouth,MA,2360,http://www.appleknoll.com/
Barnstaple South H.T,Barnstaple South Jackpot and 3-Phase (Sept. 24),3,-82.21323,29.40346,17500 N US Hwy 441,Exmoor Farm,Reddick,FL,32686,http://barnstaplesouth.com
Midsouth Pony Club  ,Bath Pony Club Mini Trial,8,-84.51680,38.15169,4089 Iron Works Pkwy,Kentucky Horse Park,Lexington,KY,40511,https://midsouth.ponyclub.org/
Midsouth Pony Club  ,Bath Pony Club Mini Trial,8,-84.51680,38.15169,4089 Iron Works Pkwy,Kentucky Horse Park,Lexington,KY,40511,https://midsouth.ponyclub.org/
Blue Ridge Mountain at TIEC,Blue Ridge Mountain Horse Trials at TIEC(Sep 2019),2,-82.06690,35.28265,4066 Pea Ridge Rd,Tryon International Equestrian Center,Mill Spring,NC,28756,http://www.tryon.com
Blue Ridge Mountain   at TIEC,Blue Ridge Mountain Horse Trials at TIEC(Sep 2020),2,-82.06690,35.28265,4066 Pea Ridge Rd,Tryon International Equestrian Center,Mill Spring,NC,28756,http://www.tryon.com
Catalpa Corner Charity  ,Catalpa Corner Charity Horse Trial,4,-91.41017,41.71473,5365 Elmira Rd.,Catalpa Corner,Iowa City,IA,52240,http://www.catalpacorner.org
Catalpa Corner Charity  ,Catalpa Corner Charity Horse Trial,4,-91.41017,41.71473,5365 Elmira Rd.,Catalpa Corner,Iowa City,IA,52240,http://www.catalpacorner.org
Catalpa Corner May Madness  ,Catalpa Corner Charity Horse Trial,4,-91.41017,41.71473,5365 Elmira Rd.,Catalpa Corner,Iowa City,IA,52240,http://www.catalpacorner.org
Chattahoochee Hills  ,Chattahoochee Hills H.T. (April 2019),3,-84.70005,33.63993,9445 Browns Lake Road,The Bouckaert Farm,Fairburn,GA,30213,http://www.chatthillseventing.com/
Chattahoochee Hills  ,Chattahoochee Hills H.T. (Aug 2019),3,-84.70005,33.63993,9445 Browns Lake Road,The Bouckaert Farm,Fairburn,GA,30213,http://www.chatthillseventing.com/
Chattahoochee Hills  ,Chattahoochee Hills H.T. (Aug 2020),3,-84.70005,33.63993,9445 Browns Lake Road,The Bouckaert Farm,Fairburn,GA,30213,http://www.chatthillseventing.com/
Chattahoochee Hills  ,Chattahoochee Hills H.T.(Feb 2020),3,-84.71646,33.63024,10045 Cedar Grove Road,Chattahoochee Hills,Fairburn,GA,30213,http://ChattHillsEventing.com
Chattahoochee Hills  ,Chattahoochee Hills H.T.(Oct 2019),3,-84.70005,33.63993,9445 Browns Lake Road,The Bouckaert Farm,Fairburn,GA,30213,http://www.chatthillseventing.com/
Chattahoochee Hills  ,Chattahoochee Hills H.T.(Oct 2020),3,-84.71646,33.63024,10045 Cedar Grove Road,Chattahoochee Hills,Fairburn,GA,30213,http://www.chatthillseventing.com/
Chattahoochee Hills  ,Chattahoochee Hills HT Summer 1,3,-84.70005,33.63993,9445 Browns Lake Road,The Bouckaert Farm,Fairburn,GA,30213,http://www.chatthillseventing.com/
Chattahoochee Hills  ,Chattahoochee Hills May H.T.,3,-84.70005,33.63993,9445 Browns Lake Road,The Bouckaert Farm,Fairburn,GA,30213,http://www.chatthillseventing.com/
Chattahoochee Hills  ,Chattahoochee Hills May H.T.,3,-84.70005,33.63993,9445 Browns Lake Road,The Bouckaert Farm,Fairburn,GA,30213,http://www.chatthillseventing.com/
Chattahoochee Hills  ,Chattahoochee Hills May H.T.,3,-84.70005,33.63993,9445 Browns Lake Road,The Bouckaert Farm,Fairburn,GA,30213,http://www.chatthillseventing.com/
Chattahoochee Hills   ,Chattahoochee Hills May H.T.,3,-84.71646,33.63024,10045 Cedar Grove Road,Chattahoochee Hills,Fairburn,GA,30213,http://www.chatthillseventing.com/
Chattahoochee Hills   ,Chattahoochee Hills May H.T.,3,-84.70005,33.63993,9445 Browns Lake Road,The Bouckaert Farm,Fairburn,GA,30213,http://www.chatthillseventing.com/
Chattahoochee Hills   ,Chattahoochee Hills May H.T.,3,-84.71646,33.63024,10045 Cedar Grove Road,Chattahoochee Hills,Fairburn,GA,30213,http://www.chatthillseventing.com/
Chattahoochee Hills   ,Chattahoochee Hills May H.T.,3,-84.71646,33.63024,10045 Cedar Grove Road,Chattahoochee Hills,Fairburn,GA,30213,http://www.chatthillseventing.com/
Carriage House Farm,Cherrylane Horse Trials,4,-92.94933,45.20820,17727 Henna Ave. N,Carriage House Farm,Hugo,MN,55038,http://www.carriagehousefarm.org
Carriage House Farm,Cherrylane Horse Trials,4,-92.94933,45.20820,17727 Henna Ave. N,Carriage House Farm,Hugo,MN,55038,http://www.carriagehousefarm.org
Colorado Horse Park  ,Colorado Horse Park H.T.(June 2019),9,-104.74351,39.43653,7522 South Pinery Drive,Colorado Horse Park Western Arena Complex,Parker,CO,80134,http://www.coloradohorsepark.com/
Colorado Horse Park  ,Colorado Horse Park H.T.(June 2019),9,-104.74351,39.43653,7522 South Pinery Drive,Colorado Horse Park Western Arena Complex,Parker,CO,80134,http://www.coloradohorsepark.com/
Course Brook  ,Course Brook Farm Fall Horse Trials,1,-71.39974,42.25229,39 Brush Hill Rd,Course Brook Farm,Sherborn,MA,1770,https://coursebrookfarm.com/
Course Brook Farm  ,Course Brook Farm Fall Horse Trials,1,-71.39974,42.25229,39 Brush Hill Rd,Course Brook Farm,Sherborn,MA,1770,https://www.coursebrookfarm.com/usef-usea-horse-trials
Course Brook    ,Course Brook Farm Horse Trials,1,-71.39974,42.25229,39 Brush Hill Rd,Course Brook Farm,Sherborn,MA,1770,https://coursebrookfarm.com/
Course Brook Farm  ,Course Brook Farm Horse Trials,1,-71.39974,42.25229,39 Brush Hill Rd,Course Brook Farm,Sherborn,MA,1770,https://www.coursebrookfarm.com/usef-usea-horse-trials
Course Brook Farm    ,Course Brook Farm Horse Trials,1,-71.39974,42.25229,39 Brush Hill Rd,Course Brook Farm,Sherborn,MA,1770,https://www.coursebrookfarm.com/usef-usea-horse-trials
ESDCTA New Jersey   ,ESDCTA New Jersey H.T. at the Horsepark,2,-74.49821,40.19321,626 Rte 524,The Horsepark of New Jersey,Allentown,NJ,8501,https://www.esdcta.org
ESDCTA New Jersey    ,ESDCTA New Jersey H.T. at the Horsepark,2,-74.49821,40.19321,626 Rte 524,The Horsepark of New Jersey,Allentown,NJ,8501,https://www.esdcta.org
Essex  ,Essex Horse Trials,2,-74.63613,40.68475,50 US Highway 202,Moorland Farm,Far Hills,NJ,7931,http://www.essexhorsetrials.org
Essex   ,Essex Horse Trials,2,-74.63613,40.68475,50 US Highway 202,Moorland Farm,Far Hills,NJ,7931,http://www.essexhorsetrials.org
Fair Hill International  ,Fair Hill International April Horse Trials,2,-75.86013,39.70171,4600 Telegraph Rd,Fair Hill - Telegraph,Elkton,MD,21921,http://www.fairhillinternational.org
Maryland 5 Star at Fair Hill,Fair Hill International April Horse Trials,2,-75.83997,39.68522,400 Gallaher Rd,Fair Hill - Gallaher,Elkton,MD,21921,http://www.fairhillinternational.org
Fair Hill International  ,Fair Hill International August Horse Trials,2,-75.86013,39.70171,4600 Telegraph Rd,Fair Hill - Telegraph,Elkton,MD,21921,http://fairhillinternational.org/
Maryland 5 Star at Fair Hill,Fair Hill International August Horse Trials,2,-75.83997,39.68522,400 Gallaher Rd,Fair Hill - Gallaher,Elkton,MD,21921,http://www.fairhillinternational.org
Carolina International CCI and  ,Fair Hill International CCI****/***,2,-79.36633,35.01506,2814 Montrose Rd,Carolina Horse Park,Raeford,NC,28376,http://www.carolinainternationalcic.com/
Carolina International CCI and  ,Fair Hill International CCI****/***,2,-79.36633,35.01506,2814 Montrose Rd,Carolina Horse Park,Raeford,NC,28376,http://www.carolinainternationalcci.com/
Fair Hill International   ,Fair Hill International CCI****/***,2,-75.86013,39.70171,4600 Telegraph Rd,Fair Hill - Telegraph,Elkton,MD,21921,http://www.fairhillinternational.org
Maryland 5 Star at Fair Hill,Fair Hill International CCI****/***,2,-75.83997,39.68522,400 Gallaher Rd,Fair Hill - Gallaher,Elkton,MD,21921,http://www.fairhillinternational.org
Fair Hill International    ,Fair Hill International H.T.(May 2019),2,-75.86013,39.70171,4600 Telegraph Rd,Fair Hill - Telegraph,Elkton,MD,21921,http://fairhillinternational.org/
Maryland 5 Star at Fair Hill,Fair Hill International H.T.(May 2019),2,-75.83997,39.68522,400 Gallaher Rd,Fair Hill - Gallaher,Elkton,MD,21921,http://www.fairhillinternational.org
Fair Hill International April   and CCI-S,Fair Hill International June Starter HT,2,-75.86013,39.70171,4600 Telegraph Rd,Fair Hill - Telegraph,Elkton,MD,21921,http://www.fairhillinternational.org
Maryland 5 Star at Fair Hill,Fair Hill International June Starter HT,2,-75.83997,39.68522,400 Gallaher Rd,Fair Hill - Gallaher,Elkton,MD,21921,http://www.fairhillinternational.org
Fair Hill International April   and CCI-S,Fair Hill International May Starter HT,2,-75.86013,39.70171,4600 Telegraph Rd,Fair Hill - Telegraph,Elkton,MD,21921,http://www.fairhillinternational.org
Maryland 5 Star at Fair Hill,Fair Hill International May Starter HT,2,-75.83997,39.68522,400 Gallaher Rd,Fair Hill - Gallaher,Elkton,MD,21921,http://www.fairhillinternational.org
Fair Hill International April   and CCI-S,Fair Hill Starter Horse Trials ,2,-75.86013,39.70171,4600 Telegraph Rd,Fair Hill - Telegraph,Elkton,MD,21921,http://www.fairhillinternational.org
Maryland 5 Star at Fair Hill,Fair Hill Starter Horse Trials ,2,-75.83997,39.68522,400 Gallaher Rd,Fair Hill - Gallaher,Elkton,MD,21921,http://www.fairhillinternational.org
Fair Hill International April   and CCI-S,Fair Hill Starter Horse Trials (September 2019),2,-75.86013,39.70171,4600 Telegraph Rd,Fair Hill - Telegraph,Elkton,MD,21921,http://www.fairhillinternational.org
Maryland 5 Star at Fair Hill,Fair Hill Starter Horse Trials (September 2019),2,-75.83997,39.68522,400 Gallaher Rd,Fair Hill - Gallaher,Elkton,MD,21921,http://www.fairhillinternational.org
Feather Creek Farm  ,Feather Creek Farm H.T.(Aug 2019),5,-97.33100,35.23746,1501 72nd Ave,Feather Creek Farm,Norman,OK,73026,https://www.facebook.com/Feather-Creek-Farm-116967058316156/
Feather Creek Farm  ,Feather Creek Farm H.T.(June 2020),5,-97.33100,35.23746,1501 72nd Ave,Feather Creek Farm,Norman,OK,73026,https://www.facebook.com/Feather-Creek-Farm-116967058316156/
Feather Creek Farm  ,Feather Creek Farm H.T.(Sept 2019),5,-97.33100,35.23746,1501 72nd Ave,Feather Creek Farm,Norman,OK,73026,https://www.facebook.com/Feather-Creek-Farm-116967058316156/
FENCE  ,FENCE Horse Trial ,3,-82.17685,35.19682,3381 Hunting Country Rd.,Fence Equestrian Center - FENCE,Tryon,NC,28782,http://www.fence.org
FENCE  ,FENCE Horse Trial (April 2019),3,-82.17685,35.19682,3381 Hunting Country Rd.,Fence Equestrian Center - FENCE,Tryon,NC,28782,http://www.fence.org
Five Points  ,Five Points Horse Trials,2,-79.36633,35.01506,2814 Montrose Rd,Carolina Horse Park,Raeford,NC,28376,http://www.carolinahorsepark.com
Five Points   ,Five Points Horse Trials,2,-79.36633,35.01506,2814 Montrose Rd,Carolina Horse Park,Raeford,NC,28376,http://www.carolinahorsepark.com
Fleur de Leap  ,Fleur de Leap Horse Trials,5,-90.18477,30.64300,13349 Verger Road,LAGNIAPPE EQUESTRIAN CENTER,Folsom,LA,70437,http://www.sedariders.org/
Fleur de Leap  ,Fleur de Leap Horse Trials,5,-90.18477,30.64300,13349 Verger Road,LAGNIAPPE EQUESTRIAN CENTER,Folsom,LA,70437,http://www.sedariders.org/
Flora Lea Fall   ,Flora Lea Fall H.T. (Sep 2020),2,-74.81492,39.89668,21 Branin Rd.,Flora Lea Farm,Medford,NJ,8055,http://www.floraleafarm.com
Flora Lea Farm YEH  and Mini Event,Flora Lea Fall H.T. (Sep 2020),2,-74.81492,39.89668,21 Branin Rd.,Flora Lea Farm,Medford,NJ,8055,http://floraleafarm.com
Flora Lea Fall    ,Flora Lea Fall H.T.(Sep 2019),2,-74.81492,39.89668,21 Branin Rd.,Flora Lea Farm,Medford,NJ,8055,http://www.floraleafarm.com
Flora Lea Farm YEH and Mini Event  ,Flora Lea Fall H.T.(Sep 2019),2,-74.81492,39.89668,21 Branin Rd.,Flora Lea Farm,Medford,NJ,8055,http://floraleafarm.com
Flora Lea Farm YEH  and Mini Event,Flora Lea Spring Horse Trials,2,-74.81492,39.89668,21 Branin Rd.,Flora Lea Farm,Medford,NJ,8055,http://floraleafarm.com
Flora Lea Farm YEH and Mini Event  ,Flora Lea Spring Horse Trials,2,-74.81492,39.89668,21 Branin Rd.,Flora Lea Farm,Medford,NJ,8055,http://floraleafarm.com
Flora Lea Spring  ,Flora Lea Spring Horse Trials,2,-74.81492,39.89668,21 Branin Rd.,Flora Lea Farm,Medford,NJ,8055,http://floraleafarm.com
Flora Lea Spring   ,Flora Lea Spring Horse Trials,2,-74.81492,39.89668,21 Branin Rd.,Flora Lea Farm,Medford,NJ,8055,http://floraleafarm.com
Fox River Valley Pony Club   ,Fox River Valley Pony Club HT,4,-88.22379,42.14542,254 Bateman Rd,Barrington Hills Park Riding Center,Barrington,IL,60010,http://www.FRVPCHorsetrials.org
Fox River Valley Pony Club   ,Fox River Valley Pony Club HT,4,-88.22379,42.14542,254 Bateman Rd,Barrington Hills Park Riding Center,Barrington,IL,60010,http://www.FRVPCHorsetrials.org
Mill Creek Pony Club,Fox River Valley Pony Club HT,4,-94.47529,38.89371,12600 Old Raytown Rd,Longview Horse Park,Grandview,MO,64146,http://millcreek.ponyclub.org
Mill Creek Pony Club,Fox River Valley Pony Club HT,4,-94.47529,38.89371,12600 Old Raytown Rd,Longview Horse Park,Grandview,MO,64146,http://millcreek.ponyclub.org
Mystic Valley Hunt Club  ,Fox River Valley Pony Club HT,1,-72.04076,41.40460,645 Long Cove Rd,Mystic Valley Hunt Club,Gales Ferry,CA,6335,http://www.info@mvhchorse.com/
Full Gallop Farm August HT,Full Gallop Farm August HT(Aug 2019),3,-81.58405,33.57045,3828 Wagener Rd.,Full Gallop Farm,Aiken,SC,29805,http://www.fullgallopfarm.com/
Full Gallop Farm August HT  ,Full Gallop Farm August HT(Aug 2020),3,-81.58405,33.57045,3828 Wagener Rd.,Full Gallop Farm,Aiken,SC,29805,http://www.fullgallopfarm.com/
Full Gallop Farm December  ,Full Gallop Farm August Schooling HT,3,-81.58405,33.57045,3828 Wagener Rd.,Full Gallop Farm,Aiken,SC,29805,http://www.fullgallopfarm.com
Full Gallop Farm February I  ,Full Gallop Farm December Schooling Show ,3,-81.58405,33.57045,3828 Wagener Rd.,Full Gallop Farm,Aiken,SC,29805,http://www.fullgallopfarm.com
Full Gallop Farm February I  ,Full Gallop Farm February H.T.,3,-81.58405,33.57045,3828 Wagener Rd.,Full Gallop Farm,Aiken,SC,29805,http://fullgallopfarm.com
Full Gallop Farm February II  ,Full Gallop Farm February Horse Trials,3,-81.58405,33.57045,3828 Wagener Rd.,Full Gallop Farm,Aiken,SC,29805,http://www.fullgallopfarm.com
Full Gallop Farm January H.T,Full Gallop Farm February II H.T.(Feb 2020),3,-81.58405,33.57045,3828 Wagener Rd.,Full Gallop Farm,Aiken,SC,29805,http://www.fullgallopfarm.com/
Flying Cross Farm  ,Full Gallop Farm HT,8,-85.52321,38.42696,9220 W Hwy 42,Flying Cross Farm,Goshen,KY,40026,www.flyingcrossfarm.org
Flying Cross Farm  ,Full Gallop Farm HT,8,-85.52321,38.42696,9220 W Hwy 42,Flying Cross Farm,Goshen,KY,40026,www.flyingcrossfarm.org
Full Gallop Farm January H.T,Full Gallop Farm HT,3,-81.58405,33.57045,3828 Wagener Rd.,Full Gallop Farm,Aiken,SC,29805,https://fullgallopfarm.com/
Full Gallop Farm July  ,Full Gallop Farm January H.T(Jan 2020),3,-81.58405,33.57045,3828 Wagener Rd.,Full Gallop Farm,Aiken,SC,29805,http://www.fullgallopfarm.com
Full Gallop Farm June  ,Full Gallop Farm January HT,3,-81.58405,33.57045,3828 Wagener Rd.,Full Gallop Farm,Aiken,SC,29805,http://www.fullgallopfarm.com
Full Gallop Farm June  ,Full Gallop Farm January Schooling Show,3,-81.58405,33.57045,3828 Wagener Rd.,Full Gallop Farm,Aiken,SC,29805,http://www.fullgallopfarm.com
Full Gallop Farm March  ,Full Gallop Farm June Horse Trials,3,-81.58405,33.57045,3828 Wagener Rd.,Full Gallop Farm,Aiken,SC,29805,http://www.fullgallopfarm.com/
Full Gallop Farm March  ,Full Gallop Farm June Schooling Show,3,-81.58405,33.57045,3828 Wagener Rd.,Full Gallop Farm,Aiken,SC,29805,http://www.fullgallopfarm.com/
Full Gallop Farm March I   ,Full Gallop Farm March H.T.,3,-81.58405,33.57045,3828 Wagener Rd.,Full Gallop Farm,Aiken,SC,29805,http://www.fullgallopfarm.com/
Full Gallop Farm March II  ,Full Gallop Farm March I HT,3,-81.58405,33.57045,3828 Wagener Rd.,Full Gallop Farm,Aiken,SC,29805,http://www.fullgallopfarm.com/
Full Gallop Farm Mid February  ,Full Gallop Farm March II H.T. (2019),3,-81.58405,33.57045,3828 Wagener Rd.,Full Gallop Farm,Aiken,SC,29805,http://www.fullgallopfarm.com
Full Gallop Farm November   ,Full Gallop Farm Nov HT,3,-81.58405,33.57045,3828 Wagener Rd.,Full Gallop Farm,Aiken,SC,29805,http://www.fullgallopfarm.com
Full Gallop Farm November   ,Full Gallop Farm November HT,3,-81.58405,33.57045,3828 Wagener Rd.,Full Gallop Farm,Aiken,SC,29805,http://www.fullgallopfarm.com
Full Gallop Farm November   ,Full Gallop Farm Schooling Show (June2020),3,-81.58405,33.57045,3828 Wagener Rd.,Full Gallop Farm,Aiken,SC,29805,http://www.fullgallopfarm.com
Full Gallop Farm November   ,Full Gallop Farm Schooling Show (March 11),3,-81.58405,33.57045,3828 Wagener Rd.,Full Gallop Farm,Aiken,SC,29805,http://www.fullgallopfarm.com
Full Gallop Farm November   ,Full Gallop Farm Schooling Show (May 2020),3,-81.58405,33.57045,3828 Wagener Rd.,Full Gallop Farm,Aiken,SC,29805,http://www.fullgallopfarm.com
Full Gallop Farm November   ,Full Gallop Farm Sept. Schooling HT,3,-81.58405,33.57045,3828 Wagener Rd.,Full Gallop Farm,Aiken,SC,29805,http://www.fullgallopfarm.com
Full Gallop Farm November   ,Full Gallop February Schooling HT,3,-81.58405,33.57045,3828 Wagener Rd.,Full Gallop Farm,Aiken,SC,29805,http://www.fullgallopfarm.com
Full Gallop Farm November   ,Full Gallop July 6th Schooling ,3,-81.58405,33.57045,3828 Wagener Rd.,Full Gallop Farm,Aiken,SC,29805,http://www.fullgallopfarm.com
Full Gallop Farm November   ,Full Gallop March Schooling Show ,3,-81.58405,33.57045,3828 Wagener Rd.,Full Gallop Farm,Aiken,SC,29805,http://www.fullgallopfarm.com
Full Gallop Farm November   ,Full Gallop March Schooling Show II ,3,-81.58405,33.57045,3828 Wagener Rd.,Full Gallop Farm,Aiken,SC,29805,http://www.fullgallopfarm.com
Full Moon Farms  ,Full Moon Farms 2019 Spring Thing,2,-76.91386,39.45720,4326 Louisville Rd,Full Moon Farm,Finksburg,MD,21048,http://fullmoonfarm.com/
Full Moon Farms  ,Full Moon Farms H.T.(Jul 2019),2,-76.91386,39.45720,4326 Louisville Rd,Full Moon Farm,Finksburg,MD,21048,http://fullmoonfarm.com/
Full Moon Farms  ,Full Moon Farms H.T.(Jul),2,-76.91386,39.45720,4326 Louisville Rd,Full Moon Farm,Finksburg,MD,21048,http://fullmoonfarm.com/
Full Moon Farms  ,Full Moon Farms H.T.(Nov 2020),2,-76.91386,39.45720,4326 Louisville Rd,Full Moon Farm,Finksburg,MD,21048,http://fullmoonfarm.com/
Full Moon Farms  ,Full Moon Farms Starter H.T. ,2,-76.91386,39.45720,4326 Louisville Rd,Full Moon Farm,Finksburg,MD,21048,http://fullmoonfarm.com/
Galway Downs,Galway Downs Horse Trials (July 2020),6,-117.03396,33.48728,38801 Los Corralitos Rd,Galway Downs,Temecula,CA,92592,http://www.galwaydowns.net
Galway Downs,Galway Downs International Event & H.T. (Nov 2019),6,-117.03396,33.48728,38801 Los Corralitos Rd,Galway Downs,Temecula,CA,92592,http://www.galwaydowns.net
Galway Downs International  ,Galway Downs International Event & H.T.(Oct 2020),6,-117.03396,33.48728,38801 Los Corralitos Rd,Galway Downs,Temecula,CA,92592,http://www.galwaydowns.net
Galway Downs International  ,Galway Downs International Event and H.T. (2019),6,-117.03396,33.48728,38801 Los Corralitos Rd,Galway Downs,Temecula,CA,92592,http://www.galwaydowns.net
Galway Downs International Event &  ,Galway Downs Spring Horse Trials (2019),6,-117.03396,33.48728,38801 Los Corralitos Rd,Galway Downs,Temecula,CA,92592,http://www.galwaydowns.net
Galway Downs Spring  ,Galway Downs Spring Horse Trials (2019),6,-117.03396,33.48728,38801 Los Corralitos Rd,Galway Downs,Temecula,CA,92592,http://www.galwaydowns.net
Galway Downs July  ,Galway Downs Winter H.T.(Jan 2020),6,-117.03396,33.48728,38801 Los Corralitos Rd,Galway Downs,Temecula,CA,92592,http://www.galwaydowns.net
Galway Downs Spring  ,Galway Downs Winter Horse Trials,6,-117.03396,33.48728,38801 Los Corralitos Rd,Galway Downs,Temecula,CA,92592,http://www.galwaydowns.net
Galway Downs Winter  ,Galway Downs Winter Horse Trials,6,-117.03396,33.48728,38801 Los Corralitos Rd,Galway Downs,Temecula,CA,92592,http://www.galwaydowns.net
Cobblestone Farms  ,Glenarden Farms Horse Trials,8,-83.84457,42.36583,5601 Zeeb Road,Cobblestone Farm,Dexter,MI,48130,http://www.cobblestonefarmsllc.com
GMHA ,GMHA Festival of Eventing August Horse Trials(Aug ,1,-72.53926,43.55708,5491 South Road,GMHA,South Woodstock,VT,5071,http://www.gmhainc.org
GMHA Festival of Eventing August  ,GMHA June Horse Trials,1,-72.53926,43.55708,5491 South Road,GMHA,South Woodstock,VT,5071,http://gmhainc.org/
GMHA Festival of Eventing August   ,GMHA September H.T.(Sep 2020),1,-72.53926,43.55708,5491 South Road,GMHA,South Woodstock,VT,5071,http://gmhainc.org/
GMHA June,GMHA September Horse Trials,1,-72.53926,43.55708,5491 South Road,GMHA,South Woodstock,VT,5071,http://www.gmhainc.org
GMHA September  ,GMHA September Horse Trials,1,-72.53926,43.55708,5491 South Road,GMHA,South Woodstock,VT,5071,http://www.gmhainc.org
GMHA September  ,GMHA September Horse Trials,1,-72.53926,43.55708,5491 South Road,GMHA,South Woodstock,VT,5071,http://www.gmhainc.org
GMHA June  ,GMHA Starter Horse Trials (Aug 2020),1,-72.53926,43.55708,5491 South Road,GMHA,South Woodstock,VT,5071,http://www.gmhainc.org
Grand Oaks  ,Grand Oaks Horse Trials,3,-82.21323,29.40346,17500 N US Hwy 441,Exmoor Farm,Reddick,FL,32686,http://www.thegrandoaks.com/
Grand Oaks   ,Grand Oaks Horse Trials,3,-82.21323,29.40346,17500 N US Hwy 441,Exmoor Farm,Reddick,FL,32686,http://thegrandoaks.com
Grand Oaks   ,Grand Oaks Horse Trials,3,-82.21323,29.40346,17500 N US Hwy 441,Exmoor Farm,Reddick,FL,32686,http://thegrandoaks.com
Grand Oaks  ,Grand Oaks Horse Trials(Jan 2020),3,-82.21323,29.40346,17500 N US Hwy 441,Exmoor Farm,Reddick,FL,32686,http://www.thegrandoaks.com/
Groton House Farm,Groton House Farm Horse Trials,1,-70.87184,42.64849,746 Highland St.,Groton House Farm,Hamilton,MA,1982,http://www.grotonhousefarm.com/
Groton House Farm    ,Groton House Farm Horse Trials,1,-70.87184,42.64849,746 Highland St.,Groton House Farm,Hamilton,MA,1982,http://www.grotonhousefarm.com/
Holly Hill,Holly Hill Fall Horse Trials,5,-93.76453,32.73452,1296 Old Plain Dealing Rd,Holly Hill Farm,Blenton,LA,71006,http://www.hollyhillfarm.net/
Pine Hill Fall  ,Holly Hill Fall Horse Trials,5,-96.23961,29.95875,1720 Hwy 159 East Bellville,Pine Hill,Bellville,TX,77418,http://www.pinehilltexas.com/
Pine Hill Fall  ,Holly Hill Fall Horse Trials,5,-96.23961,29.95875,1720 Hwy 159 East Bellville,Pine Hill,Bellville,TX,77418,http://www.pinehilltexas.com/
Holly Hill  ,Holly Hill H.T.(Oct 2020),5,-93.76453,32.73452,1296 Old Plain Dealing Rd,Holly Hill Farm,Blenton,LA,71006,http://www.hollyhillfarm.net/
Holly Hill  ,Holly Hill H.T.(Oct 2020),5,-93.76453,32.73452,1296 Old Plain Dealing Rd,Holly Hill Farm,Blenton,LA,71006,http://www.hollyhillfarm.net/
Holly Hill  ,Holly Hill Spring H.T. (April 2019),5,-93.76453,32.73452,1296 Old Plain Dealing Rd,Holly Hill Farm,Blenton,LA,71006,http://www.hollyhillfarm.net/
Horse Park of New Jersey,Horse Park of New Jersey H.T. I,2,-74.49821,40.19321,626 Rte 524,The Horsepark of New Jersey,Allentown,NJ,8501,http://www.horseparkofnewjersey.com
Horse Park of New Jersey ,Horse Park of New Jersey H.T. II,2,-74.49821,40.19321,626 Rte 524,The Horsepark of New Jersey,Allentown,NJ,8501,http://www.horseparkofnewjersey.com
Horse Park of New Jersey   II,Horse Park of New Jersey H.T. II,2,-74.49821,40.19321,626 Rte 524,The Horsepark of New Jersey,Allentown,NJ,8501,http://www.horseparkofnewjersey.com
Horse Park of New Jersey   I,Horse Park of New Jersey H.T. II(July 2019),2,-74.49821,40.19321,626 Rte 524,The Horsepark of New Jersey,Allentown,NJ,8501,http://www.horseparkofnewjersey.com
 Horse Trials at Majestic Oaks,Horse Trials at Majestic Oaks ,3,-82.21323,29.40346,17500 N US Hwy 441,Exmoor Farm,Reddick,FL,32686,http://www.MajesticOaksOcala.com
 Horse Trials at Majestic Oaks ,Horse Trials at Majestic Oaks ,3,-82.21323,29.40346,17500 N US Hwy 441,Exmoor Farm,Reddick,FL,32686,http://majesticoaksocala.com
 Horse Trials at Majestic Oaks ,Horse Trials at Majestic Oaks ,3,-82.21323,29.40346,17500 N US Hwy 441,Exmoor Farm,Reddick,FL,32686,http://majesticoaksocala.com
 Horse Trials at Majestic Oaks ,Horse Trials at Majestic Oaks ,3,-82.21323,29.40346,17500 N US Hwy 441,Exmoor Farm,Reddick,FL,32686,http://majesticoaksocala.com
 Horse Trials at Majestic Oaks ,Horse Trials at Majestic Oaks ,3,-82.21323,29.40346,17500 N US Hwy 441,Exmoor Farm,Reddick,FL,32686,http://www.MajesticOaksOcala.com
at Majestic Oaks ,Horse Trials at Majestic Oaks ,3,-82.21323,29.40346,17500 N US Hwy 441,Exmoor Farm,Reddick,FL,32686,http://majesticoaksocala.com
at Majestic Oaks ,Horse Trials at Majestic Oaks (Jan 2020),3,-82.21323,29.40346,17500 N US Hwy 441,Exmoor Farm,Reddick,FL,32686,http://majesticoaksocala.com
at Majestic Oaks ,Horse Trials at Majestic Oaks (Nov 2020),3,-82.21323,29.40346,17500 N US Hwy 441,Exmoor Farm,Reddick,FL,32686,http://majesticoaksocala.com
Hunt Club Farms  ,Hunt Club Farm Starter HT,2,-78.03623,39.19103,294 Longmarsh Rd,Hunt Club Farms,Berryville,VA,22611,http://www.huntclubfarms.net
Hunt Club Farms  ,Hunt Club Farms H.T.(Jul 2019),2,-78.03623,39.19103,294 Longmarsh Rd,Hunt Club Farms,Berryville,VA,22611,http://www.huntclubfarms.net
Hunt Club Farms  ,Hunt Club Farms H.T.(Jul 2020),2,-78.03623,39.19103,294 Longmarsh Rd,Hunt Club Farms,Berryville,VA,22611,http://www.huntclubfarms.net
Hunt Club Farms   ,Hunt Club Farms H.T.(Oct 2020),2,-78.03623,39.19103,294 Longmarsh Rd,Hunt Club Farms,Berryville,VA,22611,http://www.huntclubfarms.net
Hunt Club Farms  ,Hunt Club Farms May Starter Horse Trials,2,-78.03623,39.19103,294 Longmarsh Rd,Hunt Club Farms,Berryville,VA,22611,http://www.huntclubfarms.net
Hunt Club Farms   ,Hunt Club Farms-Eventing For The Cure!,2,-78.03623,39.19103,294 Longmarsh Rd,Hunt Club Farms,Berryville,VA,22611,http://www.huntclubfarms.net
Jersey Fresh International ,Jersey Fresh International Three-day Event,2,-74.49821,40.19321,626 Rte 524,The Horsepark of New Jersey,Allentown,NJ,8501,http://www.jfi3d.com
Jersey Fresh International Three-day Event,Jersey Fresh International Three-day Event,2,-74.49821,40.19321,626 Rte 524,The Horsepark of New Jersey,Allentown,NJ,8501,http://www.jfi3d.com
Kent School Fall  ,Kent School Fall H.T.(Oct 2019),1,-72.73830,41.57350,30 Westwoods Rd.,Kent School,Kent,CT,6359,http://www.area1usea.org/Resources/Links/Kent/Kentpage.htm
Kent School Spring,Kent School Fall H.T.(Oct 2019),1,-72.73830,41.57350,30 Westwoods Rd.,Kent School,Kent,CT,6359,https://area1usea.org/competitions/sanctioned-events/
Abbe Ranch Horse Trial,Kent School Horse Trials,9,-104.93208,39.21806,9998 S. Perry Park Rd,,Larkspur,CO,80118,http://www.abberanchevents.com/
Kent School Spring,Kent School Horse Trials,1,-72.73830,41.57350,30 Westwoods Rd.,Kent School,Kent,CT,6359,http://www.area1usea.org/Resources/Links/Kent/Kentpage.htm
Kent School Spring,Kent School Horse Trials,1,-72.73830,41.57350,30 Westwoods Rd.,Kent School,Kent,CT,6359,https://area1usea.org/competitions/sanctioned-events/
Kent School Spring   ,Kent School Horse Trials,1,-72.73830,41.57350,30 Westwoods Rd.,Kent School,Kent,CT,6359,https://area1usea.org/competitions/sanctioned-events/
Larkin Hill,Larkin Hill HT,1,-73.64431,42.47909,114 Woodward Rd,Larkin Hill Farm,Nassau,NY,12123,http://www.larkinhill.com
Larkin Hill,Larkin Hill HT,1,-73.64431,42.47909,114 Woodward Rd,Larkin Hill Farm,Nassau,NY,12123,http://www.larkinhill.com
Larkin Hill  ,Larkin Hill HT,1,-73.64431,42.47909,114 Woodward Rd,Larkin Hill Farm,Nassau,NY,12123,http://www.larkinhill.com
Larkin Hill  ,Larkin Hill HT,1,-73.64431,42.47909,114 Woodward Rd,Larkin Hill Farm,Nassau,NY,12123,http://www.larkinhill.com
Larkin Hill    ,Larkin Hill HT,1,-73.64431,42.47909,114 Woodward Rd,Larkin Hill Farm,Nassau,NY,12123,http://www.larkinhill.com
Longleaf Pine  ,Long Leaf Pine Horse Trials - CHP,2,-79.36633,35.01506,2814 Montrose Rd,Carolina Horse Park,Raeford,NC,28376,http://www.carolinahorsepark.com/
Longleaf Pine  ,Long Leaf Pine Horse Trials - CHP,2,-79.36633,35.01506,2814 Montrose Rd,Carolina Horse Park,Raeford,NC,28376,http://www.carolinahorsepark.com/
Loudoun Hunt Pony Club Spring  ,Loudoun Hunt Pony Club Spring Horse Trial (April 2,2,-77.55527,39.14542,41793 Tutt Lane,Morven Park Equestrian Center,Leesburg,VA,20176,https://loudounhunt.ponyclub.org/pages/334.aspx
Loudoun Hunt Pony Club Spring  ,Loudoun Hunt Pony Club Spring Horse Trial (April 2,2,-77.55527,39.14542,41793 Tutt Lane,Morven Park Equestrian Center,Leesburg,VA,20176,https://loudounhunt.ponyclub.org/pages/334.aspx
Loudoun Hunt Pony Club Summer  ,Loudoun Hunt Pony Club Summer H.T.,2,-77.55527,39.14542,41793 Tutt Lane,Morven Park Equestrian Center,Leesburg,VA,20176,https://loudounhunt.ponyclub.org/pages/542.aspx
Loudoun Hunt Pony Club Summer   ,Loudoun Hunt Pony Club Summer H.T.,2,-77.55527,39.14542,41793 Tutt Lane,Morven Park Equestrian Center,Leesburg,VA,20176,https://loudounhunt.ponyclub.org/pages/542.aspx
 Horse Trials at Majestic Oaks,Majestic Oaks Horse Trials,3,-82.21323,29.40346,17500 N US Hwy 441,Exmoor Farm,Reddick,FL,32686,http://www.MajesticOaksOcala.com
at Majestic Oaks ,Majestic Oaks June Schooling Show,3,-82.21323,29.40346,17500 N US Hwy 441,Exmoor Farm,Reddick,FL,32686,http://majesticoaksocala.com
 Horse Trials at Majestic Oaks ,Majestic Oaks June Schooling Show,3,-82.21323,29.40346,17500 N US Hwy 441,Exmoor Farm,Reddick,FL,32686,http://majesticoaksocala.com
 Horse Trials at Majestic Oaks ,Majestic Oaks Schooling Horse Trials,3,-82.21323,29.40346,17500 N US Hwy 441,Exmoor Farm,Reddick,FL,32686,http://majesticoaksocala.com
 Horse Trials at Majestic Oaks ,Majestic Oaks Schooling Show,3,-82.21323,29.40346,17500 N US Hwy 441,Exmoor Farm,Reddick,FL,32686,http://majesticoaksocala.com
Majestic Oaks Ocala    ,Majestic Oaks Schooling Show,3,-82.21323,29.40346,17500 N US Hwy 441,Exmoor Farm,Reddick,FL,32686,http://majesticoaksocala.com
 Horse Trials at Majestic Oaks ,Majestic Oaks Schooling Show,3,-82.21323,29.40346,17500 N US Hwy 441,Exmoor Farm,Reddick,FL,32686,http://majesticoaksocala.com
Marlborough H.T,Marlborough Horse Trials,2,-76.77887,38.77972,Rosaryville State Park,Rosaryville State Park,Upper Marlboro,MD,20772,http://www.marlboroughhorsetrials.org
Marlborough H.T ,Marlborough Starter H.T.,2,-76.77887,38.77972,Rosaryville State Park,Rosaryville State Park,Upper Marlboro,MD,20772,http://www.marlboroughhorsetrials.org
The Maryland   at Loch Moy Farm,Maryland H.T. at Loch Moy Farm II(Jul 2020),2,-77.42949,39.27075,1235 Park Mills Road,Loch Moy Farm,Adamstown,MD,21710,http://www.themarylandhorsetrials.com
The Maryland at Loch Moy Farm,Maryland H.T. at Loch Moy Farm II(Jul 2020),2,-77.42949,39.27075,1235 Park Mills Road,Loch Moy Farm,Adamstown,MD,21710,http://www.themarylandhorsetrials.com
The Maryland at Loch Moy Farm II ,Maryland H.T. at Loch Moy Farm II(Jul 2020),2,-77.42949,39.27075,1235 Park Mills Road,Loch Moy Farm,Adamstown,MD,21710,http://www.themarylandhorsetrials.com/
"MCTA  , Inc","MCTA H.T., Inc(May 2019)",2,-76.69572,39.49672,1401 Shawan Rd.,Shawan Downs,Cockeysville,MD,21030,http://www.mdcta.com/
The Maryland   at Loch Moy Farm II,MDHT at Loch Moy Farm Classic BN3 Day Event & H.T.,2,-77.42949,39.27075,1235 Park Mills Road,Loch Moy Farm,Adamstown,MD,21710,http://www.themarylandhorsetrials.com/
MeadowCreek Park,Meadow Creek Park - The Spring Social Event,5,-96.64060,31.26988,1332 Highway 14 South,Meadowcreek Park,Kosse,TX,76653,http://www.MCPTexas.com
MeadowCreek Park - The Spring Social Event,Meadowcreek Park HT-The Fall Social Event,5,-96.64060,31.26988,1332 Highway 14 South,Meadowcreek Park,Kosse,TX,76653,http://www.MCPTexas.com
MeadowCreek Park H.T - The Fall Social Event,Meadowcreek Park HT-The Fall Social Event,5,-96.64060,31.26988,1332 Highway 14 South,Meadowcreek Park,Kosse,TX,76653,http://www.MCPTexas.com
MeadowCreek Park H.T - The Fall Social Event ,Meadowcreek Park HT-The Fall Social Event,5,-96.64060,31.26988,1332 Highway 14 South,Meadowcreek Park,Kosse,TX,76653,http://www.MCPTexas.com
Millbrook  ,Millbrook H.T.(Aug 2019),1,-73.61338,41.86105,1031 Bangall-Amenia Rd,Riga Meadow at Coole Park,Millbrook,NY,12545,http://www.millbrookhorsetrials.com/
Millbrook   ,Millbrook H.T.(Aug 2019),1,-73.61338,41.86105,1031 Bangall-Amenia Rd,Riga Meadow at Coole Park,Millbrook,NY,12545,http://www.millbrookhorsetrials.com/
Morven Park Fall International ,Morven Park Fall International H.T. & CCIS,2,-77.55527,39.14542,41793 Tutt Lane,Morven Park Equestrian Center,Leesburg,VA,20176,http://www.morvenpark.org
Morven Park Fall International   & CCIS,Morven Park Fall International H.T. & CCIS-2/3/4*,2,-77.55527,39.14542,41793 Tutt Lane,Morven Park Equestrian Center,Leesburg,VA,20176,http://www.morvenpark.org
Morven Park Spring  ,Morven Park Spring Horse Trials,2,-77.55527,39.14542,41793 Tutt Lane,Morven Park Equestrian Center,Leesburg,VA,20176,http://www.morvenpark.org
Morven Park Spring  ,Morven Park Spring Horse Trials,2,-77.55527,39.14542,41793 Tutt Lane,Morven Park Equestrian Center,Leesburg,VA,20176,http://www.morvenpark.org
43rd Annual Whidbey Island  ,Needs Key Lookup,7,-122.63088,48.31654,Whidbey Island Equestrian Park,Whidbey Island Pony Club Equestrian Facility,Coupeville,WA,98239,http://www.whidbeyhorsetrials.org
Area VII Young Rider Benefit  ,Needs Key Lookup,7,-123.08381,46.75870,828 Lincoln Creek Rd,Lincoln Creek,Chehalis,WA,98531,https://www.areavii.org/benefit-horse-trials
Area VII Young Rider Benefit  ,Needs Key Lookup,7,-123.08381,46.75870,828 Lincoln Creek Rd,Lincoln Creek,Chehalis,WA,98531,https://www.areavii.org/benefit-horse-trials
Arrowhead  ,Needs Key Lookup,7,-108.58403,45.85384,3651 Alkali Creek Rd.,Warfield Park,Billings,MT,59105,http://www.warfieldpark.org
Arrowhead  ,Needs Key Lookup,7,-108.58403,45.85384,3651 Alkali Creek Rd.,Warfield Park,Billings,MT,59105,http://www.warfieldpark.org
Aspen Farms  ,Needs Key Lookup,7,-122.60721,46.89684,13042 Morris Rd,Aspen Farms,Yelm,WA,98597,http://www.aspenfarmseventing.com/
Aspen Farms  ,Needs Key Lookup,7,-122.60721,46.89684,13042 Morris Rd,Aspen Farms,Yelm,WA,98597,http://www.aspenfarmseventing.com/
Aspen Farms   ,Needs Key Lookup,7,-122.60721,46.89684,13042 Morris Rd,Aspen Farms,Yelm,WA,98597,http://www.aspenfarmseventing.com/
Aspen Farms   ,Needs Key Lookup,7,-122.60721,46.89684,13042 Morris Rd,Aspen Farms,Yelm,WA,98597,http://www.aspenfarmseventing.com/
Bucks County Horse Park  ,Needs Key Lookup,2,-75.17031,40.51681,8934 Easton Rd.,Bucks County Horse Park,Revere,PA,18953,http://www.buckscountyhorsepark.org/
Bucks County Horse Park  ,Needs Key Lookup,2,-75.17031,40.51681,8934 Easton Rd.,Bucks County Horse Park,Revere,PA,18953,http://www.buckscountyhorsepark.org
Bucks County Horse Park  ,Needs Key Lookup,2,-75.17031,40.51681,8934 Easton Rd.,Bucks County Horse Park,Revere,PA,18953,http://www.buckscountyhorsepark.org/
Bucks County Horse Park  ,Needs Key Lookup,2,-75.17031,40.51681,8934 Easton Rd.,Bucks County Horse Park,Revere,PA,18953,http://www.buckscountyhorsepark.org
Caber Farm  ,Needs Key Lookup,7,-122.73257,46.55938,213 Jensen Rd.,Caber Farm,Onalaska,WA,98570,http://www.caberfarm.com/
Caber Farm  ,Needs Key Lookup,7,-122.73257,46.55938,213 Jensen Rd.,Caber Farm,Onalaska,WA,98570,http://www.caberfarm.com/
CDCTA Fall   ,Needs Key Lookup,2,-78.00744,39.17032,929 Kimble Road,CDCTA Eventing Facility,Berryville,VA,22611,https://cdcta.com/
CDCTA Fall   ,Needs Key Lookup,2,-78.00744,39.17032,929 Kimble Road,CDCTA Eventing Facility,Berryville,VA,22611,https://cdcta.com/
CDCTA Spring  ,Needs Key Lookup,2,-78.00744,39.17032,929 Kimble Road,CDCTA Eventing Facility,Berryville,VA,22611,http://www.cdcta.com/
CDCTA Spring  ,Needs Key Lookup,2,-78.00744,39.17032,929 Kimble Road,CDCTA Eventing Facility,Berryville,VA,22611,http://www.cdcta.com/
Cedar Ridge  ,Needs Key Lookup,8,-83.85913,42.26364,1478 Honey Run Dr,,Ann Arbor,MI,48103,http://
Central FEH Championships at Haras Hacienda,Needs Key Lookup,5,-95.50306,32.47226,14078 TX-110,Texas Rose Horse Park,Tyler,TX,75704,www.harashacienda.com
Champagne Run at the Park  ,Needs Key Lookup,8,-84.40493,37.93902,5911 Old Richmond Road,Champagne Run Farm,Lexington,KY,40515,http://www.champagnerun.com
Champagne Run at the Park  ,Needs Key Lookup,8,-84.40493,37.93902,5911 Old Richmond Road,Champagne Run Farm,Lexington,KY,40515,http://www.champagnerun.com
Chardon Valley  ,Needs Key Lookup,8,-85.98241,42.13252,79561 Stapleton Rd,Chardon Valley Farm,Decatur,MI,49045,"http://www.eventingmichigan.org, , https://www.facebook.com/ChardonValleyHorseTrials/"
Chardon Valley  ,Needs Key Lookup,8,-85.98241,42.13252,79561 Stapleton Rd,Chardon Valley Farm,Decatur,MI,49045,"http://www.eventingmichigan.org, , https://www.facebook.com/ChardonValleyHorseTrials/"
Cobblestone Farms   I,Needs Key Lookup,8,-83.84457,42.36583,5601 Zeeb Road,Cobblestone Farm,Dexter,MI,48130,http://www.cobblestonefarmsllc.com
Cobblestone Farms  I ,Needs Key Lookup,8,-83.84457,42.36583,5601 Zeeb Road,Cobblestone Farm,Dexter,MI,48130,http://www.cobblestonefarmsllc.com
Cobblestone Farms II,Needs Key Lookup,8,-83.84457,42.36583,5601 Zeeb Road,Cobblestone Farm,Dexter,MI,48130,http://www.cobblestonefarmsllc.com
Coconino,Needs Key Lookup,10,-111.69293,35.14437,Fort TutHill Fairgrounds,Fort Tut Hill Fairgrounds,Flagstaff,AZ,86001,http://www.coconinohorsetrials.com/
Coconino Summer I    ,Needs Key Lookup,10,-111.69293,35.14437,Fort TutHill Fairgrounds,Fort Tut Hill Fairgrounds,Flagstaff,AZ,86001,http://www.coconinohorsetrials.com/
Coconino Summer I    ,Needs Key Lookup,10,-111.69293,35.14437,Fort TutHill Fairgrounds,Fort Tut Hill Fairgrounds,Flagstaff,AZ,86001,http://www.coconinohorsetrials.com/
Copper Meadows ,Needs Key Lookup,6,-116.90461,33.04147,633 Montecito Way,Copper Meadows Horse Park,Ramona,CA,92065,http://www.copper-meadows.com/
Copper Meadows  ,Needs Key Lookup,6,-116.90461,33.04147,633 Montecito Way,Copper Meadows Horse Park,Ramona,CA,92065,http://www.copper-meadows.com/
Copper Meadows   ,Needs Key Lookup,6,-116.90461,33.04147,633 Montecito Way,Copper Meadows Horse Park,Ramona,CA,92065,http://www.copper-meadows.com
"Copper Meadows Eventing, LLC   ",Needs Key Lookup,6,-116.90461,33.04147,633 Montecito Way,Copper Meadows Horse Park,Ramona,CA,92065,http://www.copper-meadows.com
Equestrians' Institute  ,Needs Key Lookup,7,-120.96675,47.19453,1202 Douglas Munro Blvd,Washington State Horse Park,Cle Elum,WA,98922,http://einw.org
Equestrians' Institute  ,Needs Key Lookup,7,-120.96675,47.19453,1202 Douglas Munro Blvd,Washington State Horse Park,Cle Elum,WA,98922,http://einw.org
Equestrians' Institute   ,Needs Key Lookup,7,-120.96675,47.19453,1202 Douglas Munro Blvd,Washington State Horse Park,Cle Elum,WA,98922,http://einw.org
Equestrians' Institute   ,Needs Key Lookup,7,-120.96675,47.19453,1202 Douglas Munro Blvd,Washington State Horse Park,Cle Elum,WA,98922,http://einw.org
Event at Rebecca Farm,Needs Key Lookup,7,-114.37657,48.22952,1010 West Springcreek Rd,Rebecca Farm,Kalispell,MT,59901,http://www.rebeccafarm.org/
Event at Rebecca Farm,Needs Key Lookup,7,-114.37657,48.22952,1010 West Springcreek Rd,Rebecca Farm,Kalispell,MT,59901,http://www.rebeccafarm.org/
FEH & YEH Last Chance Qualifier & West Coast Championship,Needs Key Lookup,6,-120.69276,35.72779,8715 N. River Rd,Twin Rivers Horse Park,Paso Robles,CA,93446,http://twinrivershorsepark.com/
FEH Championships at Loch Moy Farm,Needs Key Lookup,2,-77.42949,39.27075,1235 Park Mills Road,Loch Moy Farm,Adamstown,MD,21710,http://www.themarylandhorsetrials.com
FEH Championships at Loch Moy Farm,Needs Key Lookup,2,-77.42949,39.27075,1235 Park Mills Road,Loch Moy Farm,Adamstown,MD,21710,http://www.themarylandhorsetrials.com
FEH/YEH Qualifier at Loch Moy Farm,Needs Key Lookup,2,-77.42949,39.27075,1235 Park Mills Road,Loch Moy Farm,Adamstown,MD,21710,http://www.themarylandhorsetrials.com
FEH/YEH Qualifier at Loch Moy Farm,Needs Key Lookup,2,-77.42949,39.27075,1235 Park Mills Road,Loch Moy Farm,Adamstown,MD,21710,http://www.themarylandhorsetrials.com
Genesee Valley Hunt,Needs Key Lookup,1,-77.81610,42.84355,Roots Tavern Rd and Nations Rd,GVHC - Nations Farm ,Geneseo,NY,14454,http://www.geneseevalleyhunt.org/
Genesee Valley Hunt   ,Needs Key Lookup,1,-77.81610,42.84355,Roots Tavern Rd and Nations Rd,GVHC - Nations Farm ,Geneseo,NY,14454,http://www.geneseevalleyhunt.org/
Genesee Valley Riding,Needs Key Lookup,1,-77.78711,42.84281,4222 Roots Tavern Road,Hideaway Farm,Geneseo,NY,14454,http://www.gvrdc.org/
Genesee Valley Riding,Needs Key Lookup,1,-77.78711,42.84281,4222 Roots Tavern Road,Hideaway Farm,Geneseo,NY,14454,http://www.gvrdc.org/
Genesee Valley Riding ,Needs Key Lookup,1,-77.78711,42.84281,4222 Roots Tavern Road,Hideaway Farm,Geneseo,NY,14454,http://www.gvrdc.org/
Genesee Valley Riding  ,Needs Key Lookup,1,-77.78711,42.84281,4222 Roots Tavern Road,Hideaway Farm,Geneseo,NY,14454,http://www.gvrdc.org/
Golden Spike  ,Needs Key Lookup,9,-112.00855,41.27598,1000 N 1200 W,Golden Spike Event Center,Ogden,UT,84404,https://www.wasatchponyclub.com/events-1/golden-spike-horse-trials-2020
Golden Spike   ,Needs Key Lookup,9,-112.00855,41.27598,1000 N 1200 W,Golden Spike Event Center,Ogden,UT,84404,https://www.wasatchponyclub.com/events-1/golden-spike-horse-trials-2020
Great Meadow International ,Needs Key Lookup,2,-77.80974,38.82887,5089 Old Tavern Road,Great Meadow Horse Park,The Plains,VA,20198,http://www.greatmeadowinternational.com
Great Meadow International  ,Needs Key Lookup,2,-77.80974,38.82887,5089 Old Tavern Road,Great Meadow Horse Park,The Plains,VA,20198,http://www.greatmeadowinternational.com
Hagyard Midsouth Three-day Event,Needs Key Lookup,8,-84.51680,38.15169,4089 Iron Works Pkwy,Kentucky Horse Park,Lexington,KY,40511,http://www.kyevents.net
Hagyard Midsouth Three-day Event & Team Challenge  ,Needs Key Lookup,8,-84.51680,38.15169,4089 Iron Works Pkwy,Kentucky Horse Park,Lexington,KY,40511,http://www.kyevents.net
Heritage Park   ,Needs Key Lookup,4,-94.73430,38.82383,"16801 Pflumm Rd, Olathe",Heritage Park Horse Park,Olathe,KS,66062,https://www.midamericaeventing.com/heritage-park-usea-ht
Heritage Park   ,Needs Key Lookup,4,-94.73430,38.82383,"16801 Pflumm Rd, Olathe",Heritage Park Horse Park,Olathe,KS,66062,https://www.midamericaeventing.com/heritage-park-usea-ht
Hitching Post Farm  ,Needs Key Lookup,1,-72.56326,43.81005,2096 Back River Rd.,Hitching Post Farm,S. Royalton,VT,5068,http://www.hitchingpostfarm.com/
Holland Eventing at Holly Berry Farm Young Event Horse,Needs Key Lookup,3,-74.81492,39.89668,21 Branin Rd.,Flora Lea Farm,Medford,NJ,8055,http://www.hollandeventing.com
Honey Run  ,Needs Key Lookup,8,-83.85913,42.26364,1478 Honey Run Dr,,Ann Arbor,MI,48103,http://www.eventingmichigan.org
Honey Run  ,Needs Key Lookup,8,-83.85913,42.26364,1478 Honey Run Dr,,Ann Arbor,MI,48103,http://www.eventingmichigan.org
Hoosier    ,Needs Key Lookup,8,-86.04114,39.30749,"Hoosier Horse Park, Camp Atterbury",Hoosier Horse Park,Edinburgh,IN,46124,http://www.pennyoaksstables.com
Huntington Farm  ,Needs Key Lookup,1,-72.35431,43.83448,130 Justin Morrill Hwy,Huntington Farm,South Strafford,VT,5070,http://www.area1usea.org
IEA,Needs Key Lookup,8,-86.04114,39.30749,"Hoosier Horse Park, Camp Atterbury",Hoosier Horse Park,Edinburgh,IN,46124,http://www.indyeventers.org/
"IEA  , Classic Training & Novice 3-Day Event",Needs Key Lookup,8,-86.04114,39.30749,"Hoosier Horse Park, Camp Atterbury",Hoosier Horse Park,Edinburgh,IN,46124,http://www.indyeventers.org/
Inavale Farm HT ,Needs Key Lookup,7,-123.38160,44.50160,31786 Horse Farm Lane,Inavale Farm,Philomath,OR,97370,http://www.inavalefarm.com
Inavale Farm HT ,Needs Key Lookup,7,-123.38160,44.50160,31786 Horse Farm Lane,Inavale Farm,Philomath,OR,97370,http://www.inavalefarm.com
Jump Start  ,Needs Key Lookup,8,-84.60265,38.04573,4201 Versailles Rd,KHP - Keeneland Park,Lexington,KY,40510,https://keeneland.ponyclub.org
Jump Start   ,Needs Key Lookup,8,-84.60265,38.04573,4201 Versailles Rd,KHP - Keeneland Park,Lexington,KY,40510,https://keeneland.ponyclub.org
Land Rover Kentucky Three-Day Event ,Needs Key Lookup,8,-84.51680,38.15169,4089 Iron Works Pkwy,Kentucky Horse Park,Lexington,KY,40511,https://kentuckythreedayevent.com/
Land Rover Kentucky Three-Day Event ,Needs Key Lookup,8,-84.51680,38.15169,4089 Iron Works Pkwy,Kentucky Horse Park,Lexington,KY,40511,https://kentuckythreedayevent.com/
Las Cruces  ,Needs Key Lookup,10,-106.69894,32.45238,65 County Rd D-66,Isaacks Ranch,Las Cruces,NM,88012,http://www.lchanm.us
May-Daze at the Park  ,Needs Key Lookup,8,-84.51680,38.15169,4089 Iron Works Pkwy,Kentucky Horse Park,Lexington,KY,40511,http://www.champagnerun.com
May-Daze at the Park  ,Needs Key Lookup,8,-84.51680,38.15169,4089 Iron Works Pkwy,Kentucky Horse Park,Lexington,KY,40511,http://www.champagnerun.com
MCTA   at Shawan Downs,Needs Key Lookup,2,-76.69572,39.49672,1401 Shawan Rd.,Shawan Downs,Cockeysville,MD,21030,http://www.mdcta.com/
Metamora Hunt II Pony Club  ,Needs Key Lookup,8,-85.98241,42.13252,79561 Stapleton Rd,Chardon Valley Farm,Decatur,MI,49045,http://www.huntersrunfarm.com/
Metamora Hunt II Pony Club  ,Needs Key Lookup,8,-85.98241,42.13252,79561 Stapleton Rd,Chardon Valley Farm,Decatur,MI,49045,http://www.huntersrunfarm.com/
Miami Valley at Twin Towers,Needs Key Lookup,8,-80.90883,40.80753,31407 Schneider Rd,Stone Gate Farm,Hanoverton,OH,44423,http://
Middle Tennessee Pony Club  ,Needs Key Lookup,3,-86.89063,36.05537,2500 Old Hickory Blvd,Percy Warner Park Eq Center,Nashville,TN,37221,https://middletennessee.ponyclub.org
Middle Tennessee Pony Club  ,Needs Key Lookup,3,-86.89063,36.05537,2500 Old Hickory Blvd,Percy Warner Park Eq Center,Nashville,TN,37221,https://middletennessee.ponyclub.org
Moqui Meadows   ,Needs Key Lookup,9,-105.07392,40.39275,8445 E County Rd,,Loveland,CO,80534,www.useventing.com
Mystic Valley Hunt Club.,Needs Key Lookup,1,-72.04076,41.40460,645 Long Cove Rd,Mystic Valley Hunt Club,Gales Ferry,CA,6335,http://www.info@mvhchorse.com/
Old Tavern   ,Needs Key Lookup,2,-77.73695,38.99061,36800 Glenwood Park Lane,Glenwood Park,Middleburg,VA,20117,http://www.mocpony.club
Powder Basin  ,Needs Key Lookup,9,-105.44440,44.27934,Camplex Equestrian Park,Camplex Equestrian Park,Gillette,WY,82718,http://www.powderbasinequestrian.com/
Powder Basin   ,Needs Key Lookup,9,-105.44440,44.27934,Camplex Equestrian Park,Camplex Equestrian Park,Gillette,WY,82718,http://www.powderbasinequestrian.com/
Queeny Park  ,Needs Key Lookup,4,-90.49511,38.60505,555 Weidman Rd.,Edgar M. Queeny County Park,Ballwin,MO,63011,http://www.qpee.org
Queeny Park  ,Needs Key Lookup,4,-90.49511,38.60505,555 Weidman Rd.,Edgar M. Queeny County Park,Ballwin,MO,63011,http://www.qpee.org
Riga Meadow at Coole Park Combined Test,Needs Key Lookup,1,-73.42555,42.01450,339 Undermountain Rd.,Riga Meadow Equestrian Center,Salisbury,CT,6068,http://www.area1usea.org/
River Glen Fall  ,Needs Key Lookup,3,-83.62220,36.13785,1979 London Rd.,River Glen Equestrian,New Market,TN,37820,http://www.river-glen.com/
River Glen Fall    ,Needs Key Lookup,3,-83.62220,36.13785,1979 London Rd.,River Glen Equestrian,New Market,TN,37820,http://www.river-glen.com/
River Glen June  ,Needs Key Lookup,3,-83.62220,36.13785,1979 London Rd.,River Glen Equestrian,New Market,TN,37820,http://www.river-glen.com/
River Glen June  ,Needs Key Lookup,3,-83.62220,36.13785,1979 London Rd.,River Glen Equestrian,New Market,TN,37820,http://www.river-glen.com/
River Glen Spring  ,Needs Key Lookup,3,-83.62220,36.13785,1979 London Rd.,River Glen Equestrian,New Market,TN,37820,http://www.river-glen.com/
River Glen Spring  ,Needs Key Lookup,3,-83.62220,36.13785,1979 London Rd.,River Glen Equestrian,New Market,TN,37820,http://www.river-glen.com/
River Glen Summer  ,Needs Key Lookup,3,-83.62220,36.13785,1979 London Rd.,River Glen Equestrian,New Market,TN,37820,http://www.river-glen.com/
River Glen Summer   ,Needs Key Lookup,3,-83.62220,36.13785,1979 London Rd.,River Glen Equestrian,New Market,TN,37820,http://www.river-glen.com/
Round Top  ,Needs Key Lookup,9,-104.86124,39.43757,1393 Mesa Ridge Ln,,Castle Rock,CO,80108,www.useventing.com
Round Top  ,Needs Key Lookup,9,-104.86124,39.43757,1393 Mesa Ridge Ln,,Castle Rock,CO,80108,www.useventing.com
Seneca Valley Pony Club  ,Needs Key Lookup,2,-77.36020,39.09116,14401B Partnership Rd,Seneca - Bittersweet Field,Poolesville,MD,20837,http://www.senecavalleyponyclub.org
Seneca Valley Pony Club   ,Needs Key Lookup,2,-77.36020,39.09116,14401B Partnership Rd,Seneca - Bittersweet Field,Poolesville,MD,20837,http://www.senecavalleyponyclub.org
Seneca Valley Pony Club Spring  ,Needs Key Lookup,2,-77.36020,39.09116,14401B Partnership Rd,Seneca - Bittersweet Field,Poolesville,MD,20837,http://www.senecavalleyponyclub.org/
Seneca Valley Pony Club Spring   ,Needs Key Lookup,2,-77.36020,39.09116,14401B Partnership Rd,Seneca - Bittersweet Field,Poolesville,MD,20837,http://www.senecavalleyponyclub.org/
Shepherd Ranch,Needs Key Lookup,6,-120.06722,34.62442,1460 Hwy 154,Shepherd Ranch,Santa Ynez,CA,93460,http://www.shepherdrancheventing.com
Shepherd Ranch,Needs Key Lookup,6,-120.06722,34.62442,1460 Hwy 154,Shepherd Ranch,Santa Ynez,CA,93460,http://www.shepherdrancheventing.com
Shepherd Ranch,Needs Key Lookup,6,-120.06722,34.62442,1460 Hwy 154,Shepherd Ranch,Santa Ynez,CA,93460,http://www.shepherdrancheventing.com
Shepherd Ranch SYVPC   I,Needs Key Lookup,6,-120.06722,34.62442,1460 Hwy 154,Shepherd Ranch,Santa Ynez,CA,93460,http://www.shepherdrancheventing.com
Southern Arizona   ,Needs Key Lookup,10,-111.69293,35.14437,Fort TutHill Fairgrounds,Fort Tut Hill Fairgrounds,Flagstaff,AZ,86001,http://www.southernarizonaeventing.org/
Southern Arizona   ,Needs Key Lookup,10,-111.69293,35.14437,Fort TutHill Fairgrounds,Fort Tut Hill Fairgrounds,Flagstaff,AZ,86001,http://www.southernarizonaeventing.org/
Southern Arizona   ,Needs Key Lookup,10,-111.69293,35.14437,Fort TutHill Fairgrounds,Fort Tut Hill Fairgrounds,Flagstaff,AZ,86001,http://www.southernarizonaeventing.org/
Southern Arizona    ,Needs Key Lookup,10,-111.69293,35.14437,Fort TutHill Fairgrounds,Fort Tut Hill Fairgrounds,Flagstaff,AZ,86001,http://www.southernarizonaeventing.org/
Spokane Sport Horse Farm 5th Annual  Spring  ,Needs Key Lookup,7,-117.46257,47.55418,10710 S Sherman Rd,Spokane Sport Horse Farm,Spokane,WA,99224,http://www.spokanesporthorse.com
Spokane Sport Horse Seventh Annual Fall   ,Needs Key Lookup,7,-117.46257,47.55418,10710 S Sherman Rd,Spokane Sport Horse Farm,Spokane,WA,99224,http://www.spokanesporthorse.com
Spokane Sport Horse Sixth Annual Fall  ,Needs Key Lookup,7,-117.46257,47.55418,10710 S Sherman Rd,Spokane Sport Horse Farm,Spokane,WA,99224,http://www.spokanesporthorse.com
Spring Bay  ,Needs Key Lookup,8,-84.51680,38.15169,4089 Iron Works Pkwy,Kentucky Horse Park,Lexington,KY,40511,http://www.kyevents.net
Spring Bay  ,Needs Key Lookup,8,-84.51680,38.15169,4089 Iron Works Pkwy,Kentucky Horse Park,Lexington,KY,40511,http://www.kyevents.net
Spring Coconino    ,Needs Key Lookup,10,-111.69293,35.14437,Fort TutHill Fairgrounds,Fort Tut Hill Fairgrounds,Flagstaff,AZ,86001,http://www.coconinohorsetrials.com/
Spring Hollow Equestrian Park  ,Needs Key Lookup,9,-104.74351,39.43653,7522 South Pinery Drive,Colorado Horse Park Western Arena Complex,Parker,CO,80134,http://www.coloradohorsepark.com/
Spring Hollow Equestrian Park  ,Needs Key Lookup,9,-104.74351,39.43653,7522 South Pinery Drive,Colorado Horse Park Western Arena Complex,Parker,CO,80134,http://www.coloradohorsepark.com/
St. Johns,Needs Key Lookup,10,-109.37400,34.51151,"845 W 4th N., St.",St. Johns Equestrian Center,Johns,AZ,85936,http://www.coconinohorsetrials.com
St. Johns  ,Needs Key Lookup,10,-109.37400,34.51151,"845 W 4th N., St.",St. Johns Equestrian Center,Johns,AZ,85936,http://www.coconinohorsetrials.com
Stone Gate Farm  ,Needs Key Lookup,8,-80.90883,40.80753,31407 Schneider Rd,Stone Gate Farm,Hanoverton,OH,44423,http://www.stonegatefarm.org
Stone Gate Farm  ,Needs Key Lookup,8,-80.90883,40.80753,31407 Schneider Rd,Stone Gate Farm,Hanoverton,OH,44423,http://www.stonegatefarm.org
"Summer Coconino H.T and Western Underground, Inc TR, N, BN3D",Needs Key Lookup,10,-111.69293,35.14437,Fort TutHill Fairgrounds,Fort Tut Hill Fairgrounds,Flagstaff,AZ,86001,http://www.coconinohorsetrials.com/
Sundance Farm  ,Needs Key Lookup,4,-88.01178,43.77686,N6329 Branch Road,Sundance Farm,Plymouth,WI,53073,http://www.sundancefarm.net
Sundance Farm   ,Needs Key Lookup,4,-88.01178,43.77686,N6329 Branch Road,Sundance Farm,Plymouth,WI,53073,http://www.sundancefarm.net
The Event at Archer,Needs Key Lookup,9,-104.65500,41.15244,3967 Archer Parkway,Archer Eventing Park,Cheyenne,WY,82009,http://www.EventatArcher.com
The Event at Archer,Needs Key Lookup,9,-104.65500,41.15244,3967 Archer Parkway,Archer Eventing Park,Cheyenne,WY,82009,http://www.EventatArcher.com
The Event at Archer,Needs Key Lookup,9,-104.65500,41.15244,3967 Archer Parkway,Archer Eventing Park,Cheyenne,WY,82009,http://www.EventatArcher.com
The Event at Archer,Needs Key Lookup,9,-104.65500,41.15244,3967 Archer Parkway,Archer Eventing Park,Cheyenne,WY,82009,http://www.EventatArcher.com
The Event at Archer  ,Needs Key Lookup,9,-104.65500,41.15244,3967 Archer Parkway,Archer Eventing Park,Cheyenne,WY,82009,http://www.EventatArcher.com
The Event at Isaacks Ranch,Needs Key Lookup,10,-106.69894,32.45238,65 County Rd D-66,Isaacks Ranch,Las Cruces,NM,88012,www.isaacksranch.com
The Event at Isaacks Ranch  ,Needs Key Lookup,10,-106.69894,32.45238,65 County Rd D-66,Isaacks Ranch,Las Cruces,NM,88012,www.isaacksranch.com
The Event at Skyline,Needs Key Lookup,9,-111.47585,39.53178,995 W 1000 S,Skyline Eventing Park,Mt Pleasant,UT,84647,www.facebook.com/SkylineEventingPark
The Event at Skyline,Needs Key Lookup,9,-111.47585,39.53178,995 W 1000 S,Skyline Eventing Park,Mt Pleasant,UT,84647,http://www.skylineeventingpark.com
The Event at Skyline,Needs Key Lookup,9,-111.47585,39.53178,995 W 1000 S,Skyline Eventing Park,Mt Pleasant,UT,84647,www.facebook.com/SkylineEventingPark
The Event at Skyline  ,Needs Key Lookup,9,-111.47585,39.53178,995 W 1000 S,Skyline Eventing Park,Mt Pleasant,UT,84647,http://www.skylineeventingpark.com
The Middleburg  ,Needs Key Lookup,2,-77.73695,38.99061,36800 Glenwood Park Lane,Glenwood Park,Middleburg,VA,20117,http://www.mocpony.club
The Middleburg  ,Needs Key Lookup,2,-77.73695,38.99061,36800 Glenwood Park Lane,Glenwood Park,Middleburg,VA,20117,http://www.mocpony.club
The Middleburg   ,Needs Key Lookup,2,-77.73695,38.99061,36800 Glenwood Park Lane,Glenwood Park,Middleburg,VA,20117,http://www.mocpony.club
Twin Rivers CCI &  ,Needs Key Lookup,6,-120.69276,35.72779,8715 N. River Rd,Twin Rivers Horse Park,Paso Robles,CA,93446,http://www.twinrivershorsepark.com
Twin Rivers Fall International,Needs Key Lookup,6,-120.69276,35.72779,8715 N. River Rd,Twin Rivers Horse Park,Paso Robles,CA,93446,http://twinrivershorsepark.com/
Twin Rivers Fall International ,Needs Key Lookup,6,-120.69276,35.72779,8715 N. River Rd,Twin Rivers Horse Park,Paso Robles,CA,93446,http://twinrivershorsepark.com/
Twin Rivers November   ,Needs Key Lookup,6,-120.69276,35.72779,8715 N. River Rd,Twin Rivers Horse Park,Paso Robles,CA,93446,http://twinrivershorsepark.com/
Twin Rivers Spring International,Needs Key Lookup,6,-120.69276,35.72779,8715 N. River Rd,Twin Rivers Horse Park,Paso Robles,CA,93446,http://www.twinrivershorsepark.com
Twin Rivers Summer  ,Needs Key Lookup,6,-120.69276,35.72779,8715 N. River Rd,Twin Rivers Horse Park,Paso Robles,CA,93446,http://www.twinrivershorsepark.com
Twin Rivers Summer    ,Needs Key Lookup,6,-120.69276,35.72779,8715 N. River Rd,Twin Rivers Horse Park,Paso Robles,CA,93446,http://www.twinrivershorsepark.com
Twin Rivers Winter  ,Needs Key Lookup,6,-120.69276,35.72779,8715 N. River Rd,Twin Rivers Horse Park,Paso Robles,CA,93446,http://www.twinrivershorsepark.com
Twin Rivers Winter  ,Needs Key Lookup,6,-120.69276,35.72779,8715 N. River Rd,Twin Rivers Horse Park,Paso Robles,CA,93446,http://www.twinrivershorsepark.com
University of New Hampshire,Needs Key Lookup,1,-70.93998,43.14242,288 Mast Road,UNH Equine Center,Durham,NH,3824,https://colsa.unh.edu/agriculture-nutrition-food-systems/horse-trials
University of New Hampshire  ,Needs Key Lookup,1,-70.94366,43.14377,UNH Equine Center 278 Mast Rd,UNH Equine Center,Durham,NH,3824,https://colsa.unh.edu/agriculture-nutrition-food-systems/horse-trials
University of New Hampshire    ,Needs Key Lookup,1,-70.94366,43.14377,UNH Equine Center 278 Mast Rd,UNH Equine Center,Durham,NH,3824,https://colsa.unh.edu/agriculture-nutrition-food-systems/horse-trials
University of New Hampshire Spring  ,Needs Key Lookup,1,-70.93998,43.14242,288 Mast Road,UNH Equine Center,Durham,NH,3824,https://colsa.unh.edu/agriculture-nutrition-food-systems/horse-trials
US Pony Club Championships,Needs Key Lookup,8,,,,,,,,
USEA AEC,Needs Key Lookup,8,-84.51680,38.15169,4089 Iron Works Pkwy,Kentucky Horse Park,Lexington,KY,40511,http://useventing.com/aec
"USEA AEC, $60,000 Adequan Advanced Final, and ATC Finals",Needs Key Lookup,8,-84.51680,38.15169,4089 Iron Works Pkwy,Kentucky Horse Park,Lexington,KY,40511,http://useventing.com/aec
USEA APP Push event TEST 3,Needs Key Lookup,2,-78.00744,39.17032,929 Kimble Road,CDCTA Eventing Facility,Berryville,VA,22611,www.useventing.com
USEA FEH & YEH West Coast Championships,Needs Key Lookup,6,-120.69276,35.72779,8715 N. River Rd,Twin Rivers Horse Park,Paso Robles,CA,93446,http://twinrivershorsepark.com/
USEA MDHT FEH/YEH/NEH Qualifier,Needs Key Lookup,2,-77.42949,39.27075,1235 Park Mills Road,Loch Moy Farm,Adamstown,MD,21710,http://www.themarylandhorsetrials.com
USEA MDHT FEH/YEH/NEH Qualifier,Needs Key Lookup,2,-77.42949,39.27075,1235 Park Mills Road,Loch Moy Farm,Adamstown,MD,21710,http://www.themarylandhorsetrials.com
USEA MDHT FEH/YEH/NEH Qualifier,Needs Key Lookup,2,-77.42949,39.27075,1235 Park Mills Road,Loch Moy Farm,Adamstown,MD,21710,http://www.themarylandhorsetrials.com
USEA MDHT FEH/YEH/NEH Qualifier,Needs Key Lookup,2,-77.42949,39.27075,1235 Park Mills Road,Loch Moy Farm,Adamstown,MD,21710,http://www.themarylandhorsetrials.com
USEA MDHT FEH/YEH/NEH Qualifier,Needs Key Lookup,2,-77.42949,39.27075,1235 Park Mills Road,Loch Moy Farm,Adamstown,MD,21710,http://www.themarylandhorsetrials.com
USEA MDHT FEH/YEH/NEH Qualifier,Needs Key Lookup,2,-77.42949,39.27075,1235 Park Mills Road,Loch Moy Farm,Adamstown,MD,21710,http://www.themarylandhorsetrials.com
USEA MDHT YEH Qualifier and NEH Final,Needs Key Lookup,2,-77.42949,39.27075,1235 Park Mills Road,Loch Moy Farm,Adamstown,MD,21710,http://www.themarylandhorsetrials.com
USEA XENTRY DEMO EVENT,Needs Key Lookup,2,-77.55527,39.14542,41793 Tutt Lane,Morven Park Equestrian Center,Leesburg,VA,20176,www.useventing.com
USEA XENTRY DEMO EVENT ROLL OVER TEST 5,Needs Key Lookup,2,-77.76337,39.05034,20490 St Louis Rd,Surefire Farm,Purcelville,VA,20132,www.useventing.com
"Western Underground, Inc Coconino Summer HT & T/N/BN3D Event",Needs Key Lookup,10,-111.69293,35.14437,Fort TutHill Fairgrounds,Fort Tut Hill Fairgrounds,Flagstaff,AZ,86001,http://www.coconinohorsetrials.com/
Willow Draw Charity Show,Needs Key Lookup,5,-97.78467,32.79479,401 North Bend Rd,Willow Draw Equestrian,Weatherford,TX,76085,http://www.willowdraw.com
Willow Draw Charity Show,Needs Key Lookup,5,-97.78467,32.79479,401 North Bend Rd,Willow Draw Equestrian,Weatherford,TX,76085,http://www.willowdraw.com
Willow Draw Charity Show,Needs Key Lookup,5,-97.78467,32.79479,401 North Bend Rd,Willow Draw Equestrian,Weatherford,TX,76085,http://www.willowdraw.com
Willow Draw Charity Show,Needs Key Lookup,5,-97.78467,32.79479,401 North Bend Rd,Willow Draw Equestrian,Weatherford,TX,76085,http://www.willowdraw.com
Winona  ,Needs Key Lookup,8,-80.90883,40.80753,31407 Schneider Rd,Stone Gate Farm,Hanoverton,OH,44423,http://www.stonegatefarm.org/
Winona  ,Needs Key Lookup,8,-80.90883,40.80753,31407 Schneider Rd,Stone Gate Farm,Hanoverton,OH,44423,http://www.stonegatefarm.org/
Woodland Stallion Station  ,Needs Key Lookup,6,-121.87675,38.69231,34270 County Road 20,Woodland Stallion Station,Woodland ,CA,95695,http://woodlandstallion.com/shows/usea-horse-trials/
Woodland Stallion Station  ,Needs Key Lookup,6,-121.87675,38.69231,34270 County Road 20,Woodland Stallion Station,Woodland ,CA,95695,woodlandstallion.com
Woodland Stallion Station  ,Needs Key Lookup,6,-121.87675,38.69231,34270 County Road 20,Woodland Stallion Station,Woodland ,CA,95695,http://woodlandstallion.com/
Woodland Stallion Station  ,Needs Key Lookup,6,-121.87675,38.69231,34270 County Road 20,Woodland Stallion Station,Woodland ,CA,95695,http://woodlandstallion.com/shows/usea-horse-trials/
Woodland Stallion Station   ,Needs Key Lookup,6,-121.87675,38.69231,34270 County Road 20,Woodland Stallion Station,Woodland ,CA,95695,woodlandstallion.com
Woodland Stallion Station    ,Needs Key Lookup,6,-121.87675,38.69231,34270 County Road 20,Woodland Stallion Station,Woodland ,CA,95695,http://woodlandstallion.com/
NJ Region's  ,NJ Region's H.T.(June 2019),2,-74.49821,40.19321,626 Rte 524,The Horsepark of New Jersey,Allentown,NJ,8501,https://www.njregionponyclub.org/nj-regions-horse-trials--5-31-2020.html
NJ Region's    ,NJ Region's H.T.(June 2019),2,-74.49821,40.19321,626 Rte 524,The Horsepark of New Jersey,Allentown,NJ,8501,https://www.njregionponyclub.org/
Barnstaple South H.T ,November 5th: Barnstaple Jackpot + 3-Phase,3,-82.21323,29.40346,17500 N US Hwy 441,Exmoor Farm,Reddick,FL,32686,http://
Ocala Fall  ,Ocala Fall HT(Oct 2019),3,-82.13986,29.05603,11008 S Hwy 475,Florida Horse Park,Ocala ,FL,34480,https://flhorsepark.com/
Ocala Fall HT,Ocala Fall HT(Oct 2020),3,-82.13986,29.05603,11008 S Hwy 475,Florida Horse Park,Ocala ,FL,34480,https://flhorsepark.com/
Ocala International 3-Day Festival of Eventing,Ocala International 3-Day Festival of Eventing,3,-82.13986,29.05603,11008 S Hwy 475,Florida Horse Park,Ocala ,FL,34480,http://www.flhorsepark.com
Ocala International Festival of Eventing,Ocala Jockey Club International 3-Day Event,3,-82.13986,29.05603,11008 S Hwy 475,Florida Horse Park,Ocala ,FL,34480,http://www.flhorsepark.com
World Equestrian Center International 3-Day Event,Ocala Jockey Club International 3-Day Event,3,-82.27048,29.40728,8720 W Hwy 318,Ocala Jockey Club,Reddick,FL,32686,http://www.OJC3DE.com
Ocala Jockey Club 3-Day International Event,Ocala Summer H.T. I(June 2019),3,-82.27048,29.40728,8720 W Hwy 318,Ocala Jockey Club,Reddick,FL,32686,http://www.OJC3DE.com
Ocala Summer   I,Ocala Summer H.T. I(Sep 2020) RESCHEDULED ,3,-82.13986,29.05603,11008 S Hwy 475,Florida Horse Park,Ocala ,FL,34480,https://flhorsepark.com/ocala-eventing-series/
Ocala Summer   II,Ocala Summer H.T. II(Aug 2019),3,-82.13986,29.05603,11008 S Hwy 475,Florida Horse Park,Ocala ,FL,34480,https://flhorsepark.com/ocala-eventing-series/
Ocala Summer I  ,Ocala Summer H.T. II(Aug 2020),3,-82.13986,29.05603,11008 S Hwy 475,Florida Horse Park,Ocala ,FL,34480,https://flhorsepark.com/ocala-eventing-series/
Ocala Summer II  ,Ocala Winter I H.T. ,3,-82.13986,29.05603,11008 S Hwy 475,Florida Horse Park,Ocala ,FL,34480,https://flhorsepark.com/ocala-eventing-series/
Ocala Winter II  ,Ocala Winter I H.T. ,3,-82.13986,29.05603,11008 S Hwy 475,Florida Horse Park,Ocala ,FL,34480,http://www.flhorsepark.com
Ocala Winter I  ,Ocala Winter I Horse Trials,3,-82.13986,29.05603,11008 S Hwy 475,Florida Horse Park,Ocala ,FL,34480,http://www.flhorsepark.com
Ocala Winter I  ,Ocala Winter II H.T.(Mar 2020),3,-82.13986,29.05603,11008 S Hwy 475,Florida Horse Park,Ocala ,FL,34480,http://www.flhorsepark.com
Ocala Winter II  ,Ocala Winter II Horse Trials,3,-82.13986,29.05603,11008 S Hwy 475,Florida Horse Park,Ocala ,FL,34480,http://www.flhorsepark.com
Olney Farm  ,Olney Farm Horse Trials,2,-76.37165,39.47731,1001 Old Joppa Road,Olney Farm,Joppa,MD,21085,http://www.olneyfarm.com
Olney Farm   ,Olney Farm Horse Trials,2,-76.37165,39.47731,1001 Old Joppa Road,Olney Farm,Joppa,MD,21085,http://www.olneyfarm.com
Otter Creek Fall   ,Otter Creek Fall Horse Trial,4,-91.89656,45.10324,Otter Creek Farm 1170th Ave,Otter Creek Farm,Wheeler,WI,54772,http://www.ottercreekfarm.com/
Otter Creek Fall   ,Otter Creek Fall Horse Trial,4,-91.89656,45.10324,Otter Creek Farm 1170th Ave,Otter Creek Farm,Wheeler,WI,54772,http://www.ottercreekfarm.com/
Otter Creek Spring  ,Otter Creek Spring H.T.(May 2019),4,-91.89656,45.10324,Otter Creek Farm 1170th Ave,Otter Creek Farm,Wheeler,WI,54772,http://www.ottercreekfarm.com/
Otter Creek Spring  ,Otter Creek Summer HT,4,-91.89656,45.10324,Otter Creek Farm 1170th Ave,Otter Creek Farm,Wheeler,WI,54772,http://www.ottercreekfarm.com/
Otter Creek Summer  ,Otter Creek Summer HT,4,-91.89656,45.10324,Otter Creek Farm 1170th Ave,Otter Creek Farm,Wheeler,WI,54772,http://www.ottercreekfarm.com
Otter Creek Summer  ,Otter Creek Summer HT,4,-91.89656,45.10324,Otter Creek Farm 1170th Ave,Otter Creek Farm,Wheeler,WI,54772,http://www.ottercreekfarm.com
Paradise Farm   ,Paradise Farm H.T.(Oct 2019),3,-81.55785,33.57801,4069 Wagener Rd.,Paradise Farm,Aiken,SC,29805,http://www.paradisefarmaiken.com
Paradise Farm   ,Paradise Farm Horse Trials (February 2019),3,-81.55785,33.57801,4069 Wagener Rd.,Paradise Farm,Aiken,SC,29805,http://www.paradisefarmaiken.com
Penny Oaks  ,Penny Oaks Horse Trials,8,-86.04114,39.30749,"Hoosier Horse Park, Camp Atterbury",Hoosier Horse Park,Edinburgh,IN,46124,http://www.pennyoaksstables.com
Pine Top Advanced  ,Pine Top Advanced Horse Trials,3,-82.46623,33.45322,1432 Augusta Hwy,Pine Top Farm,Thomson,GA,30824,http://www.pinetopfarm.com
Pine Top Advanced  ,Pine Top Intermediate Horse Trials,3,-82.46623,33.45322,1432 Augusta Hwy,Pine Top Farm,Thomson,GA,30824,http://www.pinetopfarm.com
Pine Hill Spring  ,Pine Top Spring Horse Trials,5,-96.23961,29.95875,1720 Hwy 159 East Bellville,Pine Hill,Bellville,TX,77418,http://www.pinehilltexas.com/
Pine Hill Spring  ,Pine Top Spring Horse Trials,5,-96.23961,29.95875,1720 Hwy 159 East Bellville,Pine Hill,Bellville,TX,77418,http://www.pinehilltexas.com/
Pine Top Intermediate  ,Pine Top Spring Horse Trials,3,-82.46623,33.45322,1432 Augusta Hwy,Pine Top Farm,Thomson,GA,30824,http://www.pinetopfarm.com/#home0
Pine Top Spring  ,Pine Top Spring Horse Trials,3,-82.46623,33.45322,1432 Augusta Hwy,Pine Top Farm,Thomson,GA,30824,http://www.pinetopfarm.com/
Pine Top Spring  ,Pine Top Spring Horse Trials,3,-82.46623,33.45322,1432 Augusta Hwy,Pine Top Farm,Thomson,GA,30824,http://www.pinetopfarm.com/
Pine Top Intermediate  ,Pine Top Thanksgiving Horse Trials,3,-82.46623,33.45322,1432 Augusta Hwy,Pine Top Farm,Thomson,GA,30824,http://www.pinetopfarm.com/#home0
Pine Top Thanksgiving  ,Pine Top Thanksgiving Horse Trials,3,-82.46623,33.45322,1432 Augusta Hwy,Pine Top Farm,Thomson,GA,30824,http://www.pinetopfarm.com
Pine Top Thanksgiving    ,Pine Top Thanksgiving Horse Trials,3,-82.46623,33.45322,1432 Augusta Hwy,Pine Top Farm,Thomson,GA,30824,http://www.pinetopfarm.com
Plantation Field  ,Plantation Field H.T.(June 2019),2,-75.78744,39.90874,450 Apple Grove Rd.,Plantation Field,Coatesville,PA,19320,http://www.Plantationfield.com
Plantation Field   ,Plantation Field H.T.(June 2020),2,-75.78744,39.90874,450 Apple Grove Rd.,Plantation Field,Coatesville,PA,19320,http://www.Plantationfield.com
Plantation Field April  ,Plantation Field International,2,-75.78744,39.90874,450 Apple Grove Rd.,Plantation Field,Coatesville,PA,19320,http://www.plantationfield.com
Plantation Field April  ,Plantation Field International CCI-S(Sep 2020),2,-75.78744,39.90874,450 Apple Grove Rd.,Plantation Field,Coatesville,PA,19320,http://www.plantationfield.com
Plantation Field International CCI-S,Plantation Field June Starter Horse Trials,2,-75.78744,39.90874,450 Apple Grove Rd.,Plantation Field,Coatesville,PA,19320,http://plantationfield.com
Plantation Field International CCI-S  ,Plantation Field May HT,2,-75.78744,39.90874,450 Apple Grove Rd.,Plantation Field,Coatesville,PA,19320,http://plantationfield.com
Plantation Field May  ,Plantation Field May Starter Horse Trials,2,-75.78744,39.90874,450 Apple Grove Rd.,Plantation Field,Coatesville,PA,19320,http://www.plantationfield.com
Plantation Field May   ,Plantation Field Nov. Starter Horse Trials,2,-75.78744,39.90874,450 Apple Grove Rd.,Plantation Field,Coatesville,PA,19320,http://www.plantationfield.com
Plantation Field May   ,Plantation Field October Starter Horse Trials,2,-75.78744,39.90874,450 Apple Grove Rd.,Plantation Field,Coatesville,PA,19320,http://www.plantationfield.com
Plantation Field May   ,Plantation Field Spring Horse Trials (Apr 2019),2,-75.78744,39.90874,450 Apple Grove Rd.,Plantation Field,Coatesville,PA,19320,http://www.plantationfield.com
Poplar Place Farm   ,Poplar Place Farm H.T.  & Area Championships,3,-84.86507,32.70230,8191 US Highway 27 E,Poplar Place Farm,Hamilton,GA,31811,http://www.poplarplacefarm.com/
Poplar Place Farm   ,Poplar Place Farm June HT & Area Championships,3,-84.86507,32.70230,8191 US Highway 27 E,Poplar Place Farm,Hamilton,GA,31811,http://www.poplarplacefarm.com/
Poplar Place Farm June  ,Poplar Place Farm May H.T.(JULY 2020),3,-84.86507,32.70230,8191 US Highway 27 E,Poplar Place Farm,Hamilton,GA,31811,http://www.poplarplacefarm.com/
Poplar Place Farm May (July)  ,Poplar Place Farm May H.T.(JULY 2020),3,-84.86507,32.70230,8191 US Highway 27 E,Poplar Place Farm,Hamilton,GA,31811,http://www.poplarplacefarm.com/
Caber Farm September   ,Poplar Place Farm September HorseTrials,7,-122.73257,46.55938,213 Jensen Rd.,Caber Farm,Onalaska,WA,98570,http://www.caberfarm.com/
Poplar Place Farm March  ,Poplar Place Farm September HorseTrials,3,-84.86507,32.70230,8191 US Highway 27 E,Poplar Place Farm,Hamilton,GA,31811,http://www.poplarplacefarm.com/
Poplar Place Farm September  ,Poplar Place Farm September HorseTrials,3,-84.86507,32.70230,8191 US Highway 27 E,Poplar Place Farm,Hamilton,GA,31811,http://www.poplarplacefarm.com
Poplar Place Farm March  ,Poplar Place March Horse Trials (2019),3,-84.86507,32.70230,8191 US Highway 27 E,Poplar Place Farm,Hamilton,GA,31811,http://www.poplarplacefarm.com/
Poplar Place Farm May   ,Poplar Place May Horse Trials,3,-84.86507,32.70230,8191 US Highway 27 E,Poplar Place Farm,Hamilton,GA,31811,http://www.poplarplacefarm.com/
Fresno County Horse Park,Radnor Hunt Horse Trials,6,-119.92303,36.84331,7430 N. Weber Ave,Fresno County Horsepark,Fresno,CA,93722,http://www.FresnoCountyHorsePark.com
Radnor Hunt,Radnor Hunt Horse Trials,2,-75.48372,39.99561,826 Providence Rd,Radnor Hunt Field,Malvern,PA,19355,http://www.radnorhuntht.org
Radnor Hunt  ,Radnor Hunt Horse Trials,2,-75.48372,39.99561,826 Providence Rd,Radnor Hunt Field,Malvern,PA,19355,http://www.radnorhuntht.org
Red Hills International  ,Red Hills International Horse Trial ,3,-84.30026,30.53853,"Gate B, 1775 Miller Landing Road",Elinor Klapp Phipps Park,Tallahassee,FL,32312,http://www.RHHT.org
Red Hills International  ,Red Hills International Horse Trial (March 2019),3,-84.30026,30.53853,"Gate B, 1775 Miller Landing Road",Elinor Klapp Phipps Park,Tallahassee,FL,32312,http://www.RHHT.org
Rocking Horse December  ,Rocking Horse Fall H.T.(Oct 2020),3,-81.64143,28.99305,44200 S.R. 19 N,Rocking Horse Farm,Altoona,FL,32702,http://www.rockinghorseeventing.com
Rocking Horse Fall  ,Rocking Horse Fall Horse Trials,3,-81.64143,28.99305,44200 S.R. 19 N,Rocking Horse Farm,Altoona,FL,32702,http://www.rockinghorseeventing.com/
Rocking Horse Fall   ,Rocking Horse Spring Horse Trials ,3,-81.64143,28.99305,44200 S.R. 19 N,Rocking Horse Farm,Altoona,FL,32702,http://www.rockinghorseeventing.com/
Spokane Sport Horse Spring  ,Rocking Horse Spring Horse Trials ,7,-117.46257,47.55418,10710 S Sherman Rd,Spokane Sport Horse Farm,Spokane,WA,99224,http://www.spokanesporthorse.com
Rocking Horse III  ,Rocking Horse Winter 1 HT,3,-81.64143,28.99305,44200 S.R. 19 N,Rocking Horse Farm,Altoona,FL,32702,http://www.rockinghorseeventing.com
Rocking Horse Winter II Advanced   ,Rocking Horse Winter 1 HT,3,-81.64143,28.99305,44200 S.R. 19 N,Rocking Horse Farm,Altoona,FL,32702,http://www.rockinghorseeventing.com
Rocking Horse Winter II Advanced   ,Rocking Horse Winter 1 HT,3,-81.64143,28.99305,44200 S.R. 19 N,Rocking Horse Farm,Altoona,FL,32702,http://www.rockinghorseeventing.com
Rocking Horse Winter III  ,Rocking Horse Winter 1 HT,3,-81.64143,28.99305,44200 S.R. 19 N,Rocking Horse Farm,Altoona,FL,32702,http://www.rockinghorseeventing.com
Rocking Horse Spring  ,Rocking Horse Winter 2 Horse Trials,3,-81.64143,28.99305,44200 S.R. 19 N,Rocking Horse Farm,Altoona,FL,32702,http://www.rockinghorseeventing.com
Rocking Horse Winter I  ,Rocking Horse Winter I H.T.(Jan 2020),3,-81.64143,28.99305,44200 S.R. 19 N,Rocking Horse Farm,Altoona,FL,32702,http://www.rockinghorseeventing.com/
Rocking Horse Winter I  ,Rocking Horse Winter III Horse Trials,3,-81.64143,28.99305,44200 S.R. 19 N,Rocking Horse Farm,Altoona,FL,32702,http://www.rockinghorseeventing.com/
Silverwood Farm Fall  ,Silverwood Farm Fall H.T.(Aug 2020),4,-88.15521,42.53547,28426 98th Street,Silverwood Farm,Trevor,WI,53179,http://www.silverwoodfarm.net/
Silverwood Farm Fall  ,Silverwood Farm Fall HT,4,-88.15521,42.53547,28426 98th Street,Silverwood Farm,Trevor,WI,53179,http://www.silverwoodfarm.net/
Silverwood Farm October  ,Silverwood Farm Spring Horse Trials,4,-88.15521,42.53547,28426 98th Street,Silverwood Farm,Trevor,WI,53179,http://www.silverwoodfarm.net/
Silverwood Farm Spring  ,Silverwood Farm Summer Horse Trials,4,-88.15521,42.53547,28426 98th Street,Silverwood Farm,Trevor,WI,53179,http://www.silverwoodfarm.net/
Silverwood Farm Summer  ,Silverwood Farm Summer Horse Trials,4,-88.15521,42.53547,28426 98th Street,Silverwood Farm,Trevor,WI,53179,http://www.silverwoodfarm.net/
Silverwood Farm Summer  ,Silverwood Farm Summer Horse Trials,4,-88.15521,42.53547,28426 98th Street,Silverwood Farm,Trevor,WI,53179,http://www.silverwoodfarm.net/
Silverwood Farm Spring  ,Silverwood Farm Unrecognized H.T.,4,-88.15521,42.53547,28426 98th Street,Silverwood Farm,Trevor,WI,53179,http://www.silverwoodfarm.net/
South Farm   ,South Farm H.T. (Jul 2019),8,-80.99918,41.44838,8398 Bundysburg Rd.,South Farm,Middlefield,OH,44062,http://www.southfarm.net
Southern Pines   ,Southern Pines Horse Trials - Carolina Horse Park,2,-79.36633,35.01506,2814 Montrose Rd,Carolina Horse Park,Raeford,NC,28376,http://www.carolinahorsepark.com/
Southern Pines   ,Southern Pines Horse Trials - CHP (Mar 2020),2,-79.36633,35.01506,2814 Montrose Rd,Carolina Horse Park,Raeford,NC,28376,http://www.carolinahorsepark.com/
Sporting Days Farm   IV,Sporting Days Farm April Horse Trials (2019),3,-81.59201,33.52139,3549 Charleston Hwy,Sporting Days Farm,Aiken,SC,29801,http://www.sportingdaysfarm.com/
Hitching Post Farm  ,Sporting Days Farm Feb. HT,1,-72.56326,43.81005,2096 Back River Rd.,Hitching Post Farm,S. Royalton,VT,5068,http://www.hitchingpostfarm.com/
Hitching Post Farm  ,Sporting Days Farm Feb. HT,1,-72.56326,43.81005,2096 Back River Rd.,Hitching Post Farm,S. Royalton,VT,5068,http://www.hitchingpostfarm.com/
Hitching Post Farm    ,Sporting Days Farm Feb. HT,1,-72.56326,43.81005,2096 Back River Rd.,Hitching Post Farm,S. Royalton,VT,5068,http://www.hitchingpostfarm.com/
Sporting Days Farm   IV,Sporting Days Farm Feb. HT,3,-81.59201,33.52139,3549 Charleston Hwy,Sporting Days Farm,Aiken,SC,29801,http://www.sportingdaysfarm.com/
Sporting Days Farm April   III ,Sporting Days Farm Horse Trials,3,-81.59201,33.52139,3549 Charleston Hwy,Sporting Days Farm,Aiken,SC,29801,http://www.sportingdaysfarm.com/
Sporting Days Farm February Trials I   ,Sporting Days Farm Horse Trials,3,-81.59201,33.52139,3549 Charleston Hwy,Sporting Days Farm,Aiken,SC,29801,http://www.sportingdaysfarm.com/
Sporting Days Farm April   III ,Sporting Days Farm Horse Trials IV(Dec 2019),3,-81.59201,33.52139,3549 Charleston Hwy,Sporting Days Farm,Aiken,SC,29801,http://www.sportingdaysfarm.com/
Sporting Days Farm February   ,Sporting Days Farm March Horse Trials,3,-81.59201,33.52139,3549 Charleston Hwy,Sporting Days Farm,Aiken,SC,29801,http://www.sportingdaysfarm.com/
Sporting Days Farm March   II,Sporting Days Farm March Horse Trials,3,-81.59201,33.52139,3549 Charleston Hwy,Sporting Days Farm,Aiken,SC,29801,http://www.sportingdaysfarm.com/
Sporting Days Farm March   II,Sporting Days Farm March Horse Trials,3,-81.59201,33.52139,3549 Charleston Hwy,Sporting Days Farm,Aiken,SC,29801,http://www.sportingdaysfarm.com/
Spring Gulch  ,Spring Gulch Horse Trials,9,-104.99536,39.48537,Hwy 85,Spring Gulch Equestrian Area,Littleton,CO,92065,http://springgulchhorsetrials.com 
Spring Gulch  ,Spring Gulch Horse Trials,9,-104.99536,39.48537,Hwy 85,Spring Gulch Equestrian Area,Littleton,CO,92065,http://www.msea-ccc.org/
Spring Gulch  ,Spring Gulch Horse Trials,9,-104.99536,39.48537,Hwy 85,Spring Gulch Equestrian Area,Littleton,CO,92065,http://springgulchhorsetrials.com 
Spring Gulch   ,Spring Gulch Horse Trials,9,-104.99536,39.48537,Hwy 85,Spring Gulch Equestrian Area,Littleton,CO,92065,http://www.msea-ccc.org/
Stable View Aiken Opener  ,Stable View Aiken Opener H.T.,3,-81.79998,33.64859,117 Stable Dr,Stable View Farm,Aiken,SC,29801,http://www.stableviewfarm.com
Stable View Aiken Opener  ,Stable View Eventing Academy (December),3,-81.79998,33.64859,117 Stable Dr,Stable View Farm,Aiken,SC,29801,http://www.stableviewfarm.com
Stable View Oktoberfest  2/3/4* and  ,Stable View Eventing Academy Schooling H.T.,3,-81.79998,33.64859,117 Stable Dr,Stable View Farm,Aiken,SC,29801,http://www.StableViewFarm.com
Stable View Oktoberfest 1/ 2/3/4* and  ,Stable View Eventing Academy Schooling HorseTrial,3,-81.79998,33.64859,117 Stable Dr,Stable View Farm,Aiken,SC,29801,http://www.StableViewFarm.com
Stable View Spring  ,Stable View Horse Trials (June),3,-81.79998,33.64859,117 Stable Dr,Stable View Farm,Aiken,SC,29801,http://www.stableviewfarm.com
Stable View Spring 1/2/3/4*,Stable View Oktoberfest 1/ 2/3/4* and H.T.,3,-81.79998,33.64859,117 Stable Dr,Stable View Farm,Aiken,SC,29801,http://StableViewFarm.com
Stable View Summer   ,Stable View Schooling Horse Trial,3,-81.79998,33.64859,117 Stable Dr,Stable View Farm,Aiken,SC,29801,http://stableviewfarm.com
Stable View Summer   ,Stable View Schooling Horse Trial(November),3,-81.79998,33.64859,117 Stable Dr,Stable View Farm,Aiken,SC,29801,http://stableviewfarm.com
Designer Builders Stable View Spring CCI-S,Stable View Spring Horse Trials,3,-81.79998,33.64859,117 Stable Dr,Stable View Farm,Aiken,SC,29801,http://StableViewFarm.com
Stable View Summer   ,Stable View Spring Horse Trials,3,-81.79998,33.64859,117 Stable Dr,Stable View Farm,Aiken,SC,29801,http://stableviewfarm.com
Stable View Summer   ,Stable View Spring Horse Trials (2019),3,-81.79998,33.64859,117 Stable Dr,Stable View Farm,Aiken,SC,29801,http://stableviewfarm.com
Stable View Summer   ,Stable View Summer Horse Trials,3,-81.79998,33.64859,117 Stable Dr,Stable View Farm,Aiken,SC,29801,http://stableviewfarm.com
Stable View Summer   ,Stable View Winter CT - Jan,3,-81.79998,33.64859,117 Stable Dr,Stable View Farm,Aiken,SC,29801,http://stableviewfarm.com
Stable View Summer   ,Stableview Eventing Academy- Aug,3,-81.79998,33.64859,117 Stable Dr,Stable View Farm,Aiken,SC,29801,http://stableviewfarm.com
Stable View Summer   ,Stableview Eventing Academy- July,3,-81.79998,33.64859,117 Stable Dr,Stable View Farm,Aiken,SC,29801,http://stableviewfarm.com
Surefire Farm  ,Surefire Farm Horse Trials ,2,-77.74166,39.05602,Jeb Stuart Rd,Surefire Farm,Purcellville,VA,20132,http://www.surefireeventing.com/
Surefire Farm   ,Surefire Farm Horse Trials ,2,-77.74166,39.05602,Jeb Stuart Rd,Surefire Farm,Purcellville,VA,20132,http://www.surefireeventing.com/
Surefire Farm  ,Surefire Horse Trials,2,-77.76337,39.05034,20490 St Louis Rd,Surefire Farm,Purcelville,VA,20132,http://www.surefireeventing.com/
Fresno County Horse Park  ,Texas Rose Horse Park Fall HT,6,-119.92303,36.84331,7430 N. Weber Ave,Fresno County Horsepark,Fresno,CA,93722,http://www.FresnoCountyHorsePark.com
Fresno County Horse Park  ,Texas Rose Horse Park Fall HT,6,-119.92303,36.84331,7430 N. Weber Ave,Fresno County Horsepark,Fresno,CA,93722,http://www.fresnocountyhorsep.com
Fresno County Horse Park  ,Texas Rose Horse Park Fall HT,6,-119.92303,36.84331,7430 N. Weber Ave,Fresno County Horsepark,Fresno,CA,93722,http://www.Fresnocountyhorsep.com
Fresno County Horse Park  ,Texas Rose Horse Park Fall HT,6,-119.92303,36.84331,7430 N. Weber Ave,Fresno County Horsepark,Fresno,CA,93722,http://www.FresnoCountyHorsePark.com
Fresno County Horse Park  ,Texas Rose Horse Park Fall HT,6,-119.92303,36.84331,7430 N. Weber Ave,Fresno County Horsepark,Fresno,CA,93722,http://www.FresnoCountyHorsePark.com
Fresno County Horse Park    ,Texas Rose Horse Park Fall HT,6,-119.92303,36.84331,7430 N. Weber Ave,Fresno County Horsepark,Fresno,CA,93722,http://www.fresnocountyhorsep.com
Fresno County Horse Park    ,Texas Rose Horse Park Fall HT,6,-119.92303,36.84331,7430 N. Weber Ave,Fresno County Horsepark,Fresno,CA,93722,http://www.Fresnocountyhorsep.com
Fresno County Horse Park CCI &  ,Texas Rose Horse Park Fall HT,6,-119.92303,36.84331,7430 N. Weber Ave,Fresno County Horsepark,Fresno,CA,93722,http://www.FresnoCountyHorsePark.com
Fresno County Horse Park Combined Test,Texas Rose Horse Park Fall HT,6,-119.92303,36.84331,7430 N. Weber Ave,Fresno County Horsepark,Fresno,CA,93722,http://www.FresnoCountyHorsePark.com
Texas Rose Horse Park  ,Texas Rose Horse Park Fall HT,5,-95.50306,32.47226,14078 TX-110,Texas Rose Horse Park,Tyler,TX,75704,http://www.texasrosehorsepark.com
Texas Rose Horse Park  ,Texas Rose Horse Park H.T.,5,-95.50306,32.47226,14078 TX-110,Texas Rose Horse Park,Tyler,TX,75704,http://www.texasrosehorsepark.com
Texas Rose Horse Park  ,Texas Rose Horse Park H.T.(Mar 2020),5,-95.50306,32.47226,14078 TX-110,Texas Rose Horse Park,Tyler,TX,75704,http://www.texasrosehorsepark.com
Texas Rose Horse Park Fall  ,Texas Rose Horse Park Summer Horse Trials,5,-95.50306,32.47226,14078 TX-110,Texas Rose Horse Park,Tyler,TX,75704,http://www.texasrosehorsepark.com
Texas Rose Horse Park Summer  ,Texas Rose Horse Park Summer Horse Trials,5,-95.50306,32.47226,14078 TX-110,Texas Rose Horse Park,Tyler,TX,75704,http://www.texasrosehorsepark.com
Texas Rose Horse Park Fall    ,Texas Rose Horse Trials (March 2019),5,-95.50306,32.47226,14078 TX-110,Texas Rose Horse Park,Tyler,TX,75704,http://www.texasrosehorsepark.com
The Fork at TIEC ,The Fork at Tryon (April 2019),2,-82.06690,35.28265,4066 Pea Ridge Rd,Tryon International Equestrian Center,Mill Spring,NC,28756,http://www.tryon.com
The Fork at TIEC ,The Fork at Tryon (April 2019),2,-82.06690,35.28265,4066 Pea Ridge Rd,Tryon International Equestrian Center,Mill Spring,NC,28756,http://www.tryon.com
The Maryland International +  ,The Maryland International + H.T.(Jul 2019),2,-77.42949,39.27075,1235 Park Mills Road,Loch Moy Farm,Adamstown,MD,21710,http://www.themarylandhorsetrials.com/
The Maryland International +   ,The Maryland International + H.T.(Jul 2019),2,-77.42949,39.27075,1235 Park Mills Road,Loch Moy Farm,Adamstown,MD,21710,http://www.themarylandhorsetrials.com/
The Event at TerraNova ,The Spring Event at Woodside (May 2019),3,-82.21323,29.40346,17500 N US Hwy 441,Exmoor Farm,Reddick,FL,32686,http://
The Spring Event at Woodside,The Spring Event at Woodside (May 2019),6,-122.24548,37.40747,3674 Sand Hill Rd.,Woodside Horse Park,Woodside,CA,94062,http://woodsideeventing.com/
The Spring Event at Woodside,The Spring Event at Woodside (May 2019),6,-122.24548,37.40747,3674 Sand Hill Rd.,Woodside Horse Park,Woodside,CA,94062,http://woodsideeventing.com/
The Summer Event at Woodside ,The Summer Event at Woodside (Aug 2019),6,-122.24548,37.40747,3674 Sand Hill Rd.,Woodside Horse Park,Woodside,CA,94062,http://www.woodsideeventing.com
The Summer Event at Woodside ,The Summer Event at Woodside (Aug 2020),6,-122.24548,37.40747,3674 Sand Hill Rd.,Woodside Horse Park,Woodside,CA,94062,http://www.woodsideeventing.com
The VHT International,The VHT International & H.T.(Oct 2020),2,-79.42419,37.80951,487 Maury River Rd,The Virginia Horse Center,Lexington,VA,24435,http://www.vahorsetrials.com
VHT International ,The VHT International & H.T.(Oct 2020),2,-79.42419,37.80951,487 Maury River Rd,The Virginia Horse Center,Lexington,VA,24435,http://www.vahorsetrials.com/
The VHT International ,The VHT International H.T.(Oct 2019),2,-79.42419,37.80951,487 Maury River Rd,The Virginia Horse Center,Lexington,VA,24435,http://www.vahorsetrials.com
VHT International &  ,The VHT International H.T.(Oct 2019),2,-79.42419,37.80951,487 Maury River Rd,The Virginia Horse Center,Lexington,VA,24435,http://www.vahorsetrials.com/
Three Lakes Winter I   at Caudle Ranch,Three Lakes Winter 1,3,-81.83154,28.61913,18543 Highway 19,Caudle Ranch,Groveland,FL,34736,http://www.threelakesht.com
Three Lakes Winter I   at Caudle Ranch,Three Lakes Winter II HT ,3,-81.83154,28.61913,18543 Highway 19,Caudle Ranch,Groveland,FL,34736,http://www.threelakesht.com
Three Lakes Winter II   at Caudle Ranch,Three Lakes Winter II HT ,3,-81.83154,28.61913,18543 Highway 19,Caudle Ranch,Groveland,FL,34736,http://www.threelakesht.com
Three Lakes Winter II   at Caudle Ranch,Three Lakes Winter II HT ,3,-81.83154,28.61913,18543 Highway 19,Caudle Ranch,Groveland,FL,34736,http://www.threelakesht.com
Town Hill Farm  ,Town Hill Farm Horse Trials(Aug 2019),1,-73.43116,41.93681,55 Lime Rock Rd (Rt. 112),Town Hill Farm,Lakeville,CT,6039,http://www.townhillfarm.com
Town Hill Farm  ,Town Hill Farm Horse Trials(Aug 2020),1,-73.43116,41.93681,55 Lime Rock Rd (Rt. 112),Town Hill Farm,Lakeville,CT,6039,http://www.townhillfarm.com
Tryon Fall   ,Tryon Riding & Hunt Club H.T.,2,-82.06690,35.28265,4066 Pea Ridge Rd,Tryon International Equestrian Center,Mill Spring,NC,28756,http://www.tryon.com
Tryon International 3-Day Event,Tryon Riding & Hunt Club H.T.,2,-82.06690,35.28265,4066 Pea Ridge Rd,Tryon International Equestrian Center,Mill Spring,NC,28756,http://www.tryon.com
Tryon International 3-Day Event  ,Tryon Riding & Hunt Club H.T.,2,-82.06690,35.28265,4066 Pea Ridge Rd,Tryon International Equestrian Center,Mill Spring,NC,28756,http://www.tryon.com
Tryon Riding & Hunt Club ,Tryon Riding & Hunt Club H.T.,3,-82.08144,35.23622,6985 S. NC Hwy. 9,Fence Equestrian Center - Tryon,Columbus,NC,28722,www.tryonridingandhuntclub.org
"Tryon Riding & Hunt Club ""Morris the Horse"" Trials",Tryon Riding & Hunt Club H.T.,3,-82.08144,35.23622,6985 S. NC Hwy. 9,Fence Equestrian Center - Tryon,Columbus,NC,28722,www.tryonridingandhuntclub.org
Valinor Farm  ,Valinor Farm Horse Trials(June 2019),1,-70.57221,41.86124,1067 Old Sandwich Rd,Valinor Farm,Plymouth,MA,2360,http://www.valinorfarm.com
Valinor Farm   ,Valinor Farm Horse Trials(June 2019),1,-70.57221,41.86124,1067 Old Sandwich Rd,Valinor Farm,Plymouth,MA,2360,http://www.valinorfarm.com
War Horse Event Series August  ,War Horse Event Series (Aug 2020),2,-79.36633,35.01506,2814 Montrose Rd,Carolina Horse Park,Raeford,NC,28376,http://www.carolinahorsepark.com/
War Horse Event Series July  ,War Horse Event Series (August 2019),2,-79.36633,35.01506,2814 Montrose Rd,Carolina Horse Park,Raeford,NC,28376,http://www.carolinahorsepark.com/
War Horse Event Series June  ,War Horse Event Series (July 2019),2,-79.36633,35.01506,2814 Montrose Rd,Carolina Horse Park,Raeford,NC,28376,http://www.carolinahorsepark.com/
War Horse Event Series November  ,War Horse Event Series (July 2020),2,-79.36633,35.01506,2814 Montrose Rd,Carolina Horse Park,Raeford,NC,28376,http://www.carolinahorsepark.com/
War Horse Event Series October  ,War Horse Event Series (June 2019),2,-79.36633,35.01506,2814 Montrose Rd,Carolina Horse Park,Raeford,NC,28376,http://www.carolinahorsepark.com/
War Horse Event Series October  ,War Horse Event Series (June 2020),2,-79.36633,35.01506,2814 Montrose Rd,Carolina Horse Park,Raeford,NC,28376,http://www.carolinahorsepark.com/
War Horse Event Series October  ,War Horse Event Series (November 2019),2,-79.36633,35.01506,2814 Montrose Rd,Carolina Horse Park,Raeford,NC,28376,http://www.carolinahorsepark.com/
War Horse Event Series October  ,War Horse Event Series (October 2019),2,-79.36633,35.01506,2814 Montrose Rd,Carolina Horse Park,Raeford,NC,28376,http://www.carolinahorsepark.com/
War Horse Event Series October  ,War Horse Event Series May HT,2,-79.36633,35.01506,2814 Montrose Rd,Carolina Horse Park,Raeford,NC,28376,http://www.carolinahorsepark.com/
War Horse Event Series October  ,War Horse Event Series November H.T.(Nov 2020),2,-79.36633,35.01506,2814 Montrose Rd,Carolina Horse Park,Raeford,NC,28376,http://www.carolinahorsepark.com/
War Horse Event Series October  ,War Horse Event Series October H.T.(Oct 2020),2,-79.36633,35.01506,2814 Montrose Rd,Carolina Horse Park,Raeford,NC,28376,http://www.carolinahorsepark.com/
Waredaca  ,Waredaca Classic Horse Trials,2,-77.08061,39.23332,4015 Damascus Rd,Waredaca Equestrian Facility,Laytonsville,MD,20882,http://www.waredaca.com
Waredaca   ,Waredaca Classic Horse Trials (Oct 2020),2,-77.08061,39.23332,4015 Damascus Rd,Waredaca Equestrian Facility,Laytonsville,MD,20882,http://www.waredaca.com
Waredaca Classic Three Day Event,Waredaca Farm August HT,2,-77.08061,39.23332,4015 Damascus Rd,Waredaca Equestrian Facility,Laytonsville,MD,20882,http://www.waredaca.com
Waredaca Classic Three Day Event ,Waredaca Farm H.T.(Aug 2020),2,-77.08061,39.23332,4015 Damascus Rd,Waredaca Equestrian Facility,Laytonsville,MD,20882,http://www.waredaca.com
Waredaca Farm  ,Waredaca H.T.(June 2019),2,-77.08061,39.23332,4015 Damascus Rd,Waredaca Equestrian Facility,Laytonsville,MD,20882,http://www.waredaca.com
Waredaca Farm   ,Waredaca H.T.(June 2020),2,-77.08061,39.23332,4015 Damascus Rd,Waredaca Equestrian Facility,Laytonsville,MD,20882,http://www.waredaca.com
Waredaca Farm   ,Waredaca June Starter Horse Trials ,2,-77.08061,39.23332,4015 Damascus Rd,Waredaca Equestrian Facility,Laytonsville,MD,20882,http://www.waredaca.com
Waredaca Farm   ,Waredaca November Starter Horse Trials,2,-77.08061,39.23332,4015 Damascus Rd,Waredaca Equestrian Facility,Laytonsville,MD,20882,http://www.waredaca.com
Waredaca Farm   ,Waredaca Starter Horse Trials ,2,-77.08061,39.23332,4015 Damascus Rd,Waredaca Equestrian Facility,Laytonsville,MD,20882,http://www.waredaca.com
WindRidge Farm  ,Windridge Eventing Weekends-Dec,2,-81.82851,35.22747,882 Goodes Creek Church Rd,Windridge Farm,Mooresboro,NC,28114,http://www.WindridgeFarmsNC.com
WindRidge Farm   ,WindRidge Farm 2019-2020 Eventing Series (March),2,-81.82851,35.22747,882 Goodes Creek Church Rd,Windridge Farm,Mooresboro,NC,28114,http://www.WindridgeFarmsNC.com
WindRidge Farm Fall  ,WindRidge Farm Fall H.T.(Oct 2020),2,-81.82851,35.22747,882 Goodes Creek Church Rd,Windridge Farm,Mooresboro,NC,28114,http://www.WindridgeFarmsNC.com
WindRidge Farm Fall   ,Windridge Farm Fall HT,2,-81.82851,35.22747,882 Goodes Creek Church Rd,Windridge Farm,Mooresboro,NC,28114,http://www.WindridgeFarmsNC.com
Huntington Farm  ,WindRidge Farm HT,1,-72.35431,43.83448,130 Justin Morrill Hwy,Huntington Farm,South Strafford,VT,5070,http://www.area1usea.org
Huntington Farm   ,WindRidge Farm HT,1,-72.35431,43.83448,130 Justin Morrill Hwy,Huntington Farm,South Strafford,VT,5070,http://www.area1usea.org
Huntington Farm   ,WindRidge Farm HT,1,-72.35431,43.83448,130 Justin Morrill Hwy,Huntington Farm,South Strafford,VT,5070,http://www.area1usea.org
WindRidge Farm Summer  ,WindRidge Farm HT,2,-81.82851,35.22747,882 Goodes Creek Church Rd,Windridge Farm,Mooresboro,NC,28114,http://www.WindridgeFarmsNC.com
Windermere Run,Windridge Farm Summer HT,4,-94.47529,38.89371,12600 Old Raytown Rd,Longview Horse Park,Grandview,MO,64146,http://www.windermerestables.net
Windermere Run,Windridge Farm Summer HT,4,-94.47529,38.89371,12600 Old Raytown Rd,Longview Horse Park,Grandview,MO,64146,http://www.windermerestables.net
WindRidge Farm Summer    ,Windridge Farm Summer HT,2,-81.82851,35.22747,882 Goodes Creek Church Rd,Windridge Farm,Mooresboro,NC,28114,http://www.WindridgeFarmsNC.com
Woodside International ,Woodside International H.T.(Oct 2019),6,-122.24548,37.40747,3674 Sand Hill Rd.,Woodside Horse Park,Woodside,CA,94062,http://www.woodsideeventing.com
Woodside International  ,Woodside International H.T.(Oct 2020),6,-122.24548,37.40747,3674 Sand Hill Rd.,Woodside Horse Park,Woodside,CA,94062,http://www.woodsideeventing.com